{"type":"FeatureCollection","coordinateFrame":"EPSG:25833 transformed to world x=easting-389500,z=5820000-northing","features":[{"type":"Feature","properties":{"id":"OSM-way-27810864","tags":{"access":"yes","playground":"swing;slide;climbingframe","surface":"sand","wheelchair":"yes","osm_way_id":"27810864","leisure":"playground"}},"geometry":{"type":"MultiPolygon","coordinates":[[[[2088.450239717262,-1984.2538277469575],[2095.373117720417,-1967.7985065849498],[2091.251686407544,-1957.5633444273844],[2070.0737370703137,-1948.6296057943255],[2060.4564907375607,-1952.8041071714833],[2053.584391362034,-1968.7909946981817],[2057.5655741873197,-1978.8178099924698],[2078.5956974908477,-1987.8215316636488],[2088.450239717262,-1984.2538277469575]]]]}},{"type":"Feature","properties":{"id":"OSM-way-175567623","tags":{"osm_way_id":"175567623","landuse":"grass"}},"geometry":{"type":"MultiPolygon","coordinates":[[[[2170.1272512400756,-1991.759214530699],[2181.30504638009,-1997.0867706295103],[2185.6424298667116,-2006.9722659420222],[2178.220820711693,-2022.6706831967458],[2168.0427153958008,-2026.946409592405],[2147.7189850113355,-2017.960059843026],[2147.284989473468,-2016.7456280207261],[2156.418645358819,-2020.460362792015],[2158.2005507021095,-2016.971352939494],[2151.3856369801797,-2014.0954945776612],[2149.3453667619033,-2008.3654195172712],[2151.354564927984,-2003.8031228976324],[2146.7872290806845,-2001.9235135829076],[2148.075647570775,-1998.8237644201145],[2152.659503955627,-2000.836540880613],[2154.8625631903997,-1995.83597691264],[2161.194830861059,-1993.4591547464952],[2168.067467826593,-1996.4895366616547],[2170.1272512400756,-1991.759214530699]]]]}},{"type":"Feature","properties":{"id":"OSM-way-386790042","tags":{"osm_way_id":"386790042","landuse":"grass"}},"geometry":{"type":"MultiPolygon","coordinates":[[[[2101.177108512493,-1957.4993038326502],[2113.266223812534,-1952.802783921361],[2107.6429613185464,-1950.12314711418],[2107.2595753713395,-1950.8883165521547],[2103.6647011087043,-1949.1096136104316],[2104.0030761620146,-1948.4567170487717],[2059.4723088887986,-1928.9014904154465],[2058.5352816562518,-1929.1781862210482],[2063.2990716768545,-1941.7581515889615],[2068.131922566041,-1940.3046403098851],[2072.5506750514032,-1940.373665866442],[2073.88251997286,-1940.7670123744756],[2080.612113392446,-1944.3790816636756],[2085.9737566745607,-1946.2744208583608],[2088.8225095106172,-1947.7580633657053],[2090.803316782345,-1948.3484653756022],[2096.7138961819,-1951.1329961540177],[2099.6484279647702,-1954.0390822198242],[2101.177108512493,-1957.4993038326502]]]]}},{"type":"Feature","properties":{"id":"OSM-way-386790072","tags":{"osm_way_id":"386790072","landuse":"grass"}},"geometry":{"type":"MultiPolygon","coordinates":[[[[2139.454535985482,-1998.6474110875279],[2131.1715170386015,-1995.0474037341774],[2121.0168638449395,-2018.4622388491407],[2121.969944028766,-2021.056128703989],[2136.1514622936375,-2015.2562029995024],[2135.5834043367067,-2011.05140693672],[2136.0503353663953,-2008.2369054276496],[2136.6052575976355,-2006.9449415942654],[2137.0269328358117,-2004.2315908931196],[2139.454535985482,-1998.6474110875279]]]]}},{"type":"Feature","properties":{"id":"OSM-way-386790074","tags":{"osm_way_id":"386790074","landuse":"grass"}},"geometry":{"type":"MultiPolygon","coordinates":[[[[2151.0499094480183,-1982.3780485130847],[2145.2564884879394,-1967.1056579696015],[2142.9208897677017,-1967.9585534418002],[2132.4754616584396,-1992.0363275241107],[2140.3496016570716,-1995.556368375197],[2142.1308797437814,-1992.3455574344844],[2143.2858764186967,-1989.348909534514],[2145.263544719026,-1987.3466640179977],[2147.4219071884872,-1984.0051033981144],[2151.0499094480183,-1982.3780485130847]]]]}},{"type":"Feature","properties":{"id":"OSM-way-386790077","tags":{"osm_way_id":"386790077","landuse":"grass"}},"geometry":{"type":"MultiPolygon","coordinates":[[[[2136.357639071648,-2018.74571505934],[2126.316805959912,-2022.7848095558584],[2126.585086818901,-2023.8693773709238],[2144.396778466704,-2031.2532351650298],[2146.514075473766,-2030.961553688161],[2147.481147875078,-2031.4297604011372],[2149.2141140175518,-2027.2630446879193],[2142.5409803965013,-2025.274270865135],[2139.425580553594,-2023.696353821084],[2136.845758789452,-2020.2593937916681],[2136.357639071648,-2018.74571505934]]]]}},{"type":"Feature","properties":{"id":"OSM-way-386790079","tags":{"osm_way_id":"386790079","landuse":"grass"}},"geometry":{"type":"MultiPolygon","coordinates":[[[[2060.5257208042312,-1943.065890116617],[2055.6111141119036,-1930.7229491062462],[2054.624878083996,-1931.5348625835031],[2035.1077664504992,-1975.5097830137238],[2042.6464903482702,-1978.8924438171089],[2043.3571383708622,-1976.9738701786846],[2047.8982079311972,-1975.2152290679514],[2046.4608535033767,-1972.5096787204966],[2046.2983708070242,-1970.0763259809464],[2045.756602368725,-1967.0616126684472],[2045.612849401543,-1965.4735455391929],[2046.2082450945745,-1961.1094455923885],[2048.1434990794514,-1957.1941458601505],[2050.9669941635802,-1950.1879377495497],[2052.3474665585672,-1947.8761847335845],[2053.55392482545,-1947.2040505735204],[2054.2777610466,-1946.1865254417062],[2055.324785094883,-1945.3621372971684],[2059.160693730635,-1943.3186853919178],[2060.5257208042312,-1943.065890116617]]]]}},{"type":"Feature","properties":{"id":"OSM-way-386790080","tags":{"osm_way_id":"386790080","landuse":"grass"}},"geometry":{"type":"MultiPolygon","coordinates":[[[[2175.1941677475115,-2034.2992769032717],[2179.9054434467107,-2046.057061436586],[2179.169425853761,-2046.2180098332465],[2159.855391280609,-2038.0883498368785],[2159.2505119895795,-2036.510487832129],[2158.390966205392,-2035.9953881511465],[2159.7976731014205,-2031.8025155290961],[2162.2297079080017,-2033.1618911018595],[2167.629228245234,-2034.3220533737913],[2171.0409562570276,-2034.8808147190139],[2175.1941677475115,-2034.2992769032717]]]]}},{"type":"Feature","properties":{"id":"OSM-way-1094763930","tags":{"osm_way_id":"1094763930","landuse":"grass"}},"geometry":{"type":"MultiPolygon","coordinates":[[[[2082.9179210029542,-1996.0937718572095],[2096.837148932391,-2002.0391994705424],[2104.7365372776985,-1984.0266498504207],[2098.5315388866,-1981.4266736293212],[2097.6910288444487,-1983.3036041604355],[2096.812684073637,-1984.3913106862456],[2095.280707603437,-1989.6663576737046],[2094.5630285136867,-1990.9619312798604],[2093.110558131244,-1992.474077156745],[2090.420220570173,-1993.5462805852294],[2085.807784411474,-1994.2270824136212],[2082.9179210029542,-1996.0937718572095]]]]}},{"type":"Feature","properties":{"id":"OSM-way-1094763931","tags":{"osm_way_id":"1094763931","landuse":"grass"}},"geometry":{"type":"MultiPolygon","coordinates":[[[[2102.20159216522,-1960.5589696587995],[2116.4211185398162,-1954.936193132773],[2116.9758195100003,-1957.0047774827108],[2106.4375309916795,-1980.5616677273065],[2100.0587940449477,-1977.7763672778383],[2100.974908381002,-1975.330253421329],[2103.0178395060357,-1971.6796551169828],[2103.8977316463715,-1968.2106017088518],[2103.501391385391,-1964.7141742445529],[2102.20159216522,-1960.5589696587995]]]]}},{"type":"Feature","properties":{"id":"OSM-way-1094763939","tags":{"osm_way_id":"1094763939","landuse":"flowerbed"}},"geometry":{"type":"MultiPolygon","coordinates":[[[[2151.354564927984,-2003.8031228976324],[2149.3453667619033,-2008.3654195172712],[2151.3856369801797,-2014.0954945776612],[2158.2005507021095,-2016.971352939494],[2156.418645358819,-2020.460362792015],[2147.284989473468,-2016.7456280207261],[2144.223222340166,-2008.0893462048844],[2146.7872290806845,-2001.9235135829076],[2151.354564927984,-2003.8031228976324]]]]}},{"type":"Feature","properties":{"id":"OSM-way-1094761273","tags":{"osm_way_id":"1094761273","landuse":"flowerbed"}},"geometry":{"type":"MultiPolygon","coordinates":[[[[2148.075647570775,-1998.8237644201145],[2150.9806387552526,-1991.8158134976402],[2161.946108557866,-1987.8564547151327],[2170.1272512400756,-1991.759214530699],[2168.067467826593,-1996.4895366616547],[2161.194830861059,-1993.4591547464952],[2154.8625631903997,-1995.83597691264],[2152.659503955627,-2000.836540880613],[2148.075647570775,-1998.8237644201145]]]]}},{"type":"Feature","properties":{"id":"OSM-way-1094761258","tags":{"osm_way_id":"1094761258","landuse":"grass"}},"geometry":{"type":"MultiPolygon","coordinates":[[[[2154.2009197383886,-1981.8854459412396],[2149.2251900613774,-1969.221071566455],[2150.3516153537203,-1968.9179450357333],[2202.7909021750093,-1991.436971266754],[2202.9520249258494,-1992.2791058942676],[2190.05315291608,-1997.4829399446025],[2189.1887621029164,-1994.9093306809664],[2187.650858207955,-1992.5620509535074],[2186.6204205374816,-1991.6835161969066],[2182.905637432472,-1989.6959856422618],[2181.5183295386378,-1989.2481995280832],[2177.908606643905,-1987.10256076511],[2173.080711246119,-1985.4067354416475],[2168.1252358401543,-1982.5453373845667],[2163.241488781525,-1980.4724182467908],[2160.2654639988905,-1980.5939298216254],[2154.2009197383886,-1981.8854459412396]]]]}},{"type":"Feature","properties":{"id":"OSM-way-1094761257","tags":{"osm_way_id":"1094761257","landuse":"grass"}},"geometry":{"type":"MultiPolygon","coordinates":[[[[2190.975845366949,-2000.5448748497292],[2204.0110859463457,-1995.371408519335],[2204.6704848911613,-1996.3471774281934],[2183.9107287359075,-2044.3104033786803],[2182.783691011544,-2044.8917270712554],[2178.4769548226614,-2033.9373038532212],[2180.782692087465,-2032.9626812906936],[2184.255281587015,-2028.9132661754265],[2189.286520418478,-2020.7900321492925],[2190.434646364127,-2017.481974429451],[2191.574760234391,-2011.3588042650372],[2192.7234102676157,-2010.2206232501194],[2192.6293931427645,-2005.9719495829195],[2192.138882886269,-2003.1230033533648],[2190.975845366949,-2000.5448748497292]]]]}},{"type":"Feature","properties":{"id":"OSM-relation-14583948","tags":{"dog":"no","protection_title":"Gesch\u00fctzte Gr\u00fcnanlage","osm_id":"14583948","type":"multipolygon","leisure":"park"}},"geometry":{"type":"MultiPolygon","coordinates":[[[[2115.134171263606,-1950.135298131965],[2058.582810809312,-1926.1170328045264],[2052.5654274821864,-1928.6205408954993],[2028.4280981462798,-1984.559925524518],[2034.0733202984557,-1987.0053045973182],[2070.9324752045795,-2003.013602762483],[2073.2401418195805,-2003.963968035765],[2090.171580966213,-2011.4227722864598],[2092.2597566532204,-2012.2667315239087],[2093.8565393335302,-2008.6927760317922],[2096.837148932391,-2002.0391994705424],[2104.7365372776985,-1984.0266498504207],[2106.4375309916795,-1980.5616677273065],[2116.9758195100003,-1957.0047774827108],[2116.4211185398162,-1954.936193132773],[2115.134171263606,-1950.135298131965]]],[[[2123.760696398909,-2025.9348905878142],[2178.9030607489403,-2049.8181295702234],[2182.9456976153306,-2048.226430761628],[2185.9939820858417,-2047.0795904593542],[2209.527885923744,-1991.7107605570927],[2150.0620957153733,-1965.3412568662316],[2145.2564884879394,-1967.1056579696015],[2142.9208897677017,-1967.9585534418002],[2132.4754616584396,-1992.0363275241107],[2131.1715170386015,-1995.0474037341774],[2121.0168638449395,-2018.4622388491407],[2121.969944028766,-2021.056128703989],[2123.760696398909,-2025.9348905878142]]]]}},{"type":"Feature","properties":{"id":"way/1065297613","tags":{"bicycle":"no","lit":"no","surface":"compacted","osm_id":"1065297613","highway":"footway"}},"geometry":{"type":"LineString","coordinates":[[2099.9512981346343,-2005.3975397851318],[2075.4895538176643,-1995.5461538285017],[2042.7844219458057,-1982.3612110791728],[2029.3115619679447,-1976.6619764138013]]}},{"type":"Feature","properties":{"id":"way/49210807","tags":{"bicycle":"no","lit":"no","smoothness":"bad","surface":"fine_gravel","osm_id":"49210807","highway":"footway"}},"geometry":{"type":"LineString","coordinates":[[2053.2303984909086,-1974.8634013002738],[2044.0197584708221,-1979.3182469708845]]}},{"type":"Feature","properties":{"id":"way/1094763937","tags":{"bicycle":"no","lit":"no","smoothness":"intermediate","surface":"compacted","osm_id":"1094763937","highway":"footway"}},"geometry":{"type":"LineString","coordinates":[[2043.5984043903882,-1980.2066672220826],[2042.7844219458057,-1982.3612110791728]]}},{"type":"Feature","properties":{"id":"way/1094763936","tags":{"handrail":"yes","incline":"down","lit":"no","ramp":"no","step_count":"3","surface":"compacted","osm_id":"1094763936","highway":"steps"}},"geometry":{"type":"LineString","coordinates":[[2044.0197584708221,-1979.3182469708845],[2043.5984043903882,-1980.2066672220826]]}},{"type":"Feature","properties":{"id":"way/1495800336","tags":{"osm_id":"1495800336","highway":"footway"}},"geometry":{"type":"LineString","coordinates":[[2071.195817212225,-2005.0997648285702],[2075.4895538176643,-1995.5461538285017]]}},{"type":"Feature","properties":{"id":"way/1495800337","tags":{"handrail":"yes","incline":"up","step_count":"4","surface":"concrete","tactile_paving":"no","osm_id":"1495800337","highway":"steps"}},"geometry":{"type":"LineString","coordinates":[[2075.4895538176643,-1995.5461538285017],[2077.2347021886962,-1990.3999092420563]]}},{"type":"Feature","properties":{"id":"way/1094761268","tags":{"lit":"yes","smoothness":"good","surface":"paving_stones","osm_id":"1094761268","highway":"footway"}},"geometry":{"type":"LineString","coordinates":[[2123.802578787436,-1950.9114566193894],[2109.522719825909,-1983.5311883892864],[2108.2502329312265,-1986.4302980797365],[2103.0124466218404,-1998.397226945497],[2099.9512981346343,-2005.3975397851318],[2095.3914081464754,-2015.8027234002948]]}},{"type":"Feature","properties":{"id":"way/1094761267","tags":{"lit":"yes","smoothness":"good","surface":"paving_stones","osm_id":"1094761267","highway":"footway"}},"geometry":{"type":"LineString","coordinates":[[2103.0124466218404,-1998.397226945497],[2109.0955939992564,-2001.011034176685],[2112.644073028292,-2002.5348316691816],[2115.850254392717,-2003.9215523209423],[2122.0496645488893,-2006.5773111656308]]}},{"type":"Feature","properties":{"id":"way/1094761264","tags":{"lit":"yes","smoothness":"good","surface":"paving_stones","osm_id":"1094761264","highway":"footway"}},"geometry":{"type":"LineString","coordinates":[[2112.644073028292,-2002.5348316691816],[2104.8770095878863,-2020.088205512613]]}},{"type":"Feature","properties":{"id":"way/767679227","tags":{"lit":"yes","smoothness":"good","surface":"paving_stones","osm_id":"767679227","highway":"footway"}},"geometry":{"type":"LineString","coordinates":[[2108.2502329312265,-1986.4302980797365],[2114.3951676923316,-1989.0761268418282]]}},{"type":"Feature","properties":{"id":"way/1094761261","tags":{"lit":"yes","smoothness":"good","surface":"sett","osm_id":"1094761261","highway":"footway"}},"geometry":{"type":"LineString","coordinates":[[2114.3951676923316,-1989.0761268418282],[2109.0955939992564,-2001.011034176685]]}},{"type":"Feature","properties":{"id":"way/1094761269","tags":{"lit":"yes","smoothness":"good","surface":"paving_stones","osm_id":"1094761269","highway":"footway"}},"geometry":{"type":"LineString","coordinates":[[2114.39305506472,-2024.2172443727031],[2122.0496645488893,-2006.5773111656308],[2127.2465491663897,-1994.600181817077],[2128.5829234164557,-1991.5216206395999],[2142.663362584135,-1959.084404559806]]}},{"type":"Feature","properties":{"id":"way/1094761260","tags":{"lit":"yes","smoothness":"good","surface":"sett","osm_id":"1094761260","highway":"footway"}},"geometry":{"type":"LineString","coordinates":[[2120.7934883197304,-1991.8276286618784],[2115.850254392717,-2003.9215523209423]]}},{"type":"Feature","properties":{"id":"way/1094761266","tags":{"lit":"yes","smoothness":"bad","surface":"sett","osm_id":"1094761266","highway":"footway"}},"geometry":{"type":"LineString","coordinates":[[2119.349319743749,-1987.5865958193317],[2120.7934883197304,-1991.8276286618784]]}},{"type":"Feature","properties":{"id":"way/1094761265","tags":{"lit":"yes","smoothness":"good","surface":"paving_stones","osm_id":"1094761265","highway":"footway"}},"geometry":{"type":"LineString","coordinates":[[2133.41590140044,-1955.1385308504105],[2119.349319743749,-1987.5865958193317]]}},{"type":"Feature","properties":{"id":"way/1094761263","tags":{"lit":"yes","smoothness":"good","surface":"paving_stones","osm_id":"1094761263","highway":"footway"}},"geometry":{"type":"LineString","coordinates":[[2120.7934883197304,-1991.8276286618784],[2127.2465491663897,-1994.600181817077]]}},{"type":"Feature","properties":{"id":"way/175637410","tags":{"bicycle":"no","lit":"no","smoothness":"bad","surface":"fine_gravel","osm_id":"175637410","highway":"footway"}},"geometry":{"type":"LineString","coordinates":[[2090.0361751493183,-1986.0102494610474],[2094.3823517445126,-1977.2900683768094],[2097.933959119895,-1968.231405264698],[2095.9244478134788,-1962.055563381873],[2093.1399356697802,-1956.1194399958476],[2070.5301484675147,-1946.2604357572272],[2064.6781447471003,-1948.571096197702],[2059.4785740312655,-1950.6225008498877],[2051.1800127661554,-1968.9889277238399],[2053.2303984909086,-1974.8634013002738],[2055.6331820128253,-1981.3309602560475],[2077.2347021886962,-1990.3999092420563],[2090.0361751493183,-1986.0102494610474]]}},{"type":"Feature","properties":{"id":"way/49215172","tags":{"bicycle":"no","lit":"no","smoothness":"bad","surface":"fine_gravel","osm_id":"49215172","highway":"footway"}},"geometry":{"type":"LineString","coordinates":[[2064.6781447471003,-1948.571096197702],[2053.9953292835853,-1920.5769598782063]]}},{"type":"Feature","properties":{"id":"way/49215173","tags":{"bicycle":"no","lit":"no","smoothness":"intermediate","surface":"compacted","osm_id":"49215173","highway":"footway"}},"geometry":{"type":"LineString","coordinates":[[2095.9244478134788,-1962.055563381873],[2123.802578787436,-1950.9114566193894]]}},{"type":"Feature","properties":{"id":"way/175638006","tags":{"bicycle":"no","lit":"no","smoothness":"intermediate","surface":"compacted","osm_id":"175638006","highway":"footway"}},"geometry":{"type":"LineString","coordinates":[[2115.3179632211104,-2024.6196127887815],[2144.2986172412056,-2013.6403657011688]]}},{"type":"Feature","properties":{"id":"way/27810634","tags":{"bicycle":"no","lit":"no","smoothness":"intermediate","surface":"compacted","osm_id":"27810634","highway":"footway"}},"geometry":{"type":"LineString","coordinates":[[2154.6527304224437,-1988.1959390928969],[2143.6568382262485,-1959.5186435496435]]}},{"type":"Feature","properties":{"id":"way/27810916","tags":{"bicycle":"no","lit":"no","smoothness":"intermediate","surface":"compacted","osm_id":"27810916","highway":"footway"}},"geometry":{"type":"LineString","coordinates":[[2094.3823517445126,-1977.2900683768094],[2109.522719825909,-1983.5311883892864]]}},{"type":"Feature","properties":{"id":"way/4606220","tags":{"lit":"yes","smoothness":"bad","surface":"sett","osm_id":"4606220","highway":"footway"}},"geometry":{"type":"LineString","coordinates":[[2119.349319743749,-1987.5865958193317],[2114.3951676923316,-1989.0761268418282]]}},{"type":"Feature","properties":{"id":"way/27810492","tags":{"bicycle":"no","lit":"no","smoothness":"intermediate","surface":"compacted","osm_id":"27810492","highway":"footway"}},"geometry":{"type":"LineString","coordinates":[[2142.1742475189967,-2007.78975121025],[2144.2986172412056,-2013.6403657011688],[2146.418416427041,-2019.5912308711559],[2168.0528716503177,-2028.938030736521],[2174.01603883144,-2026.747435410507],[2179.836817969044,-2023.9479791251943],[2187.1152990314877,-2007.6073292950168],[2185.0744666793616,-2001.5434243511409],[2182.6630875345436,-1995.5989968208596],[2161.922879275284,-1985.8873782586306],[2154.6527304224437,-1988.1959390928969],[2150.048743690946,-1990.1784258093685],[2145.844655747642,-1998.8842814257368],[2142.1742475189967,-2007.78975121025]]}},{"type":"Feature","properties":{"id":"way/27810607","tags":{"bicycle":"no","lit":"no","smoothness":"intermediate","surface":"compacted","osm_id":"27810607","highway":"footway"}},"geometry":{"type":"LineString","coordinates":[[2145.844655747642,-1998.8842814257368],[2128.5829234164557,-1991.5216206395999]]}},{"type":"Feature","properties":{"id":"way/27810617","tags":{"bicycle":"no","lit":"no","smoothness":"intermediate","surface":"compacted","osm_id":"27810617","highway":"footway"}},"geometry":{"type":"LineString","coordinates":[[2185.0744666793616,-2001.5434243511409],[2209.527885923744,-1991.7107605570927],[2214.0789765142254,-1990.0967124775052]]}},{"type":"Feature","properties":{"id":"way/49210812","tags":{"bicycle":"no","lit":"no","smoothness":"intermediate","surface":"compacted","osm_id":"49210812","highway":"footway"}},"geometry":{"type":"LineString","coordinates":[[2174.01603883144,-2026.747435410507],[2182.9456976153306,-2048.226430761628],[2185.7313939903397,-2054.529786051251]]}},{"type":"Feature","properties":{"id":"node/1302119815","tags":{"amenity":"marketplace","check_date:opening_hours":"2024-03-29","contact:website":"http://www.mv-perske.de/arkonaplatz.html","opening_hours":"Fr 12:00-19:00","wheelchair":"yes","osm_id":"1302119815","name":"Wochenmarkt Arkonaplatz"}},"geometry":{"type":"Point","coordinates":[2110.0135218591895,-2008.7577955154702]}},{"type":"Feature","properties":{"id":"node/1882972288","tags":{"leaf_cycle":"deciduous","leaf_type":"broadleaved","natural":"tree","osm_id":"1882972288"}},"geometry":{"type":"Point","coordinates":[2085.177308546845,-1967.6014855355024]}},{"type":"Feature","properties":{"id":"node/1882974534","tags":{"leaf_cycle":"deciduous","leaf_type":"broadleaved","natural":"tree","osm_id":"1882974534"}},"geometry":{"type":"Point","coordinates":[2060.9799299955484,-1973.3675134237856]}},{"type":"Feature","properties":{"id":"node/1882974548","tags":{"leaf_cycle":"deciduous","leaf_type":"broadleaved","natural":"tree","osm_id":"1882974548"}},"geometry":{"type":"Point","coordinates":[2064.834389407595,-1960.8302915487438]}},{"type":"Feature","properties":{"id":"node/1905184339","tags":{"leaf_cycle":"deciduous","leaf_type":"broadleaved","natural":"tree","osm_id":"1905184339"}},"geometry":{"type":"Point","coordinates":[2136.1482328226557,-1960.2523859143257]}},{"type":"Feature","properties":{"id":"node/1905185069","tags":{"leaf_cycle":"deciduous","leaf_type":"broadleaved","natural":"tree","osm_id":"1905185069"}},"geometry":{"type":"Point","coordinates":[2134.2694882170763,-1987.2562351105735]}},{"type":"Feature","properties":{"id":"node/1905185830","tags":{"leaf_cycle":"deciduous","leaf_type":"broadleaved","natural":"tree","osm_id":"1905185830"}},"geometry":{"type":"Point","coordinates":[2131.134037770389,-1971.9027568222955]}},{"type":"Feature","properties":{"id":"node/1905186422","tags":{"leaf_cycle":"deciduous","leaf_type":"broadleaved","natural":"tree","osm_id":"1905186422"}},"geometry":{"type":"Point","coordinates":[2133.6443999773473,-1966.0719344960526]}},{"type":"Feature","properties":{"id":"node/1905187252","tags":{"leaf_cycle":"deciduous","leaf_type":"broadleaved","natural":"tree","osm_id":"1905187252"}},"geometry":{"type":"Point","coordinates":[2129.2259850182454,-1998.8071098225191]}},{"type":"Feature","properties":{"id":"node/1905187681","tags":{"leaf_cycle":"deciduous","leaf_type":"broadleaved","natural":"tree","osm_id":"1905187681"}},"geometry":{"type":"Point","coordinates":[2110.655425844656,-2018.7473243772984]}},{"type":"Feature","properties":{"id":"node/1905188232","tags":{"leaf_cycle":"deciduous","leaf_type":"broadleaved","natural":"tree","osm_id":"1905188232"}},"geometry":{"type":"Point","coordinates":[2112.6543880712707,-2012.8054103255272]}},{"type":"Feature","properties":{"id":"node/1905189763","tags":{"leaf_cycle":"deciduous","leaf_type":"broadleaved","natural":"tree","osm_id":"1905189763"}},"geometry":{"type":"Point","coordinates":[2115.603045737196,-2007.46561441198]}},{"type":"Feature","properties":{"id":"node/1905190596","tags":{"leaf_cycle":"deciduous","leaf_type":"broadleaved","natural":"tree","osm_id":"1905190596"}},"geometry":{"type":"Point","coordinates":[2099.1964531575795,-2013.5930702928454]}},{"type":"Feature","properties":{"id":"node/1905191039","tags":{"leaf_cycle":"deciduous","leaf_type":"broadleaved","natural":"tree","osm_id":"1905191039"}},"geometry":{"type":"Point","coordinates":[2104.9771577469073,-2009.9042008863762]}},{"type":"Feature","properties":{"id":"node/1905191430","tags":{"leaf_cycle":"deciduous","leaf_type":"broadleaved","natural":"tree","osm_id":"1905191430"}},"geometry":{"type":"Point","coordinates":[2107.2208888677997,-2003.6786729469895]}},{"type":"Feature","properties":{"id":"node/1905194497","tags":{"leaf_cycle":"deciduous","leaf_type":"broadleaved","natural":"tree","osm_id":"1905194497"}},"geometry":{"type":"Point","coordinates":[2098.5890208769706,-1999.952914104797]}},{"type":"Feature","properties":{"id":"node/1905195151","tags":{"leaf_cycle":"deciduous","leaf_type":"broadleaved","natural":"tree","osm_id":"1905195151"}},"geometry":{"type":"Point","coordinates":[2103.754739512515,-1989.6344661237672]}},{"type":"Feature","properties":{"id":"node/1905198284","tags":{"leaf_cycle":"deciduous","leaf_type":"broadleaved","natural":"tree","osm_id":"1905198284"}},"geometry":{"type":"Point","coordinates":[2120.6772342676413,-1974.6268809214234]}},{"type":"Feature","properties":{"id":"node/1905199039","tags":{"leaf_cycle":"deciduous","leaf_type":"broadleaved","natural":"tree","osm_id":"1905199039"}},"geometry":{"type":"Point","coordinates":[2123.008429968031,-1968.3660422200337]}},{"type":"Feature","properties":{"id":"node/1905200386","tags":{"leaf_cycle":"deciduous","leaf_type":"broadleaved","natural":"tree","osm_id":"1905200386"}},"geometry":{"type":"Point","coordinates":[2125.1299983274075,-1962.4436754696071]}},{"type":"Feature","properties":{"id":"node/1915117738","tags":{"leaf_cycle":"deciduous","leaf_type":"broadleaved","natural":"tree","osm_id":"1915117738"}},"geometry":{"type":"Point","coordinates":[2205.66894863185,-1997.9274638174102]}},{"type":"Feature","properties":{"id":"node/1915119448","tags":{"leaf_cycle":"deciduous","leaf_type":"broadleaved","natural":"tree","osm_id":"1915119448"}},"geometry":{"type":"Point","coordinates":[2188.336648209195,-2038.882322408259]}},{"type":"Feature","properties":{"id":"node/1915119465","tags":{"leaf_cycle":"deciduous","leaf_type":"broadleaved","natural":"tree","osm_id":"1915119465"}},"geometry":{"type":"Point","coordinates":[2192.8190993020544,-2026.8098003305495]}},{"type":"Feature","properties":{"id":"node/1916894088","tags":{"leaf_cycle":"deciduous","leaf_type":"broadleaved","natural":"tree","osm_id":"1916894088"}},"geometry":{"type":"Point","coordinates":[2202.2883898705477,-1989.5786486556754]}},{"type":"Feature","properties":{"id":"node/1916894814","tags":{"leaf_cycle":"deciduous","leaf_type":"broadleaved","natural":"tree","osm_id":"1916894814"}},"geometry":{"type":"Point","coordinates":[2151.8088105712086,-1967.0051177423447]}},{"type":"Feature","properties":{"id":"node/1916895987","tags":{"leaf_cycle":"deciduous","leaf_type":"broadleaved","natural":"tree","osm_id":"1916895987"}},"geometry":{"type":"Point","coordinates":[2158.8432712367503,-1969.987395329401]}},{"type":"Feature","properties":{"id":"node/1916896205","tags":{"leaf_cycle":"deciduous","leaf_type":"broadleaved","natural":"tree","osm_id":"1916896205"}},"geometry":{"type":"Point","coordinates":[2165.0418244114844,-1972.9102912032977]}},{"type":"Feature","properties":{"id":"node/1916896518","tags":{"leaf_cycle":"deciduous","leaf_type":"broadleaved","natural":"tree","osm_id":"1916896518"}},"geometry":{"type":"Point","coordinates":[2170.002123721526,-1975.682558693923]}},{"type":"Feature","properties":{"id":"node/1916896660","tags":{"leaf_cycle":"deciduous","leaf_type":"broadleaved","natural":"tree","osm_id":"1916896660"}},"geometry":{"type":"Point","coordinates":[2182.426950206165,-1981.2495811814442]}},{"type":"Feature","properties":{"id":"node/1916897151","tags":{"leaf_cycle":"deciduous","leaf_type":"broadleaved","natural":"tree","osm_id":"1916897151"}},"geometry":{"type":"Point","coordinates":[2189.472609867691,-1983.8199313590303]}},{"type":"Feature","properties":{"id":"node/1916897241","tags":{"leaf_cycle":"deciduous","leaf_type":"broadleaved","natural":"tree","osm_id":"1916897241"}},"geometry":{"type":"Point","coordinates":[2196.1866595083848,-1987.043031600304]}},{"type":"Feature","properties":{"id":"node/1917310437","tags":{"leaf_cycle":"deciduous","leaf_type":"broadleaved","natural":"tree","osm_id":"1917310437"}},"geometry":{"type":"Point","coordinates":[2141.5137676507584,-1969.6811052132398]}},{"type":"Feature","properties":{"id":"node/1917310604","tags":{"leaf_cycle":"deciduous","leaf_type":"broadleaved","natural":"tree","osm_id":"1917310604"}},"geometry":{"type":"Point","coordinates":[2135.8368941136287,-1982.047183221206]}},{"type":"Feature","properties":{"id":"node/1917310770","tags":{"leaf_cycle":"deciduous","leaf_type":"broadleaved","natural":"tree","osm_id":"1917310770"}},"geometry":{"type":"Point","coordinates":[2125.7675690425676,-1983.8836353551596]}},{"type":"Feature","properties":{"id":"node/1917427697","tags":{"leaf_cycle":"deciduous","leaf_type":"broadleaved","natural":"tree","osm_id":"1917427697"}},"geometry":{"type":"Point","coordinates":[2139.5670150259975,-2031.004077538848]}},{"type":"Feature","properties":{"id":"node/1917428356","tags":{"leaf_cycle":"deciduous","leaf_type":"broadleaved","natural":"tree","osm_id":"1917428356"}},"geometry":{"type":"Point","coordinates":[2138.7554017359507,-1976.2629652824253]}},{"type":"Feature","properties":{"id":"node/1917428521","tags":{"leaf_cycle":"deciduous","leaf_type":"broadleaved","natural":"tree","osm_id":"1917428521"}},"geometry":{"type":"Point","coordinates":[2127.4102656428586,-1956.6401999946684]}},{"type":"Feature","properties":{"id":"node/1917428598","tags":{"leaf_cycle":"deciduous","leaf_type":"broadleaved","natural":"tree","osm_id":"1917428598"}},"geometry":{"type":"Point","coordinates":[2151.407744576223,-2037.1625867895782]}},{"type":"Feature","properties":{"id":"node/1936972917","tags":{"leaf_cycle":"deciduous","leaf_type":"broadleaved","natural":"tree","osm_id":"1936972917"}},"geometry":{"type":"Point","coordinates":[2067.435909068561,-1930.9394613439217]}},{"type":"Feature","properties":{"id":"node/1936973753","tags":{"leaf_cycle":"deciduous","leaf_type":"broadleaved","natural":"tree","osm_id":"1936973753"}},"geometry":{"type":"Point","coordinates":[2072.500021586078,-1933.186334577389]}},{"type":"Feature","properties":{"id":"node/1936974950","tags":{"leaf_cycle":"deciduous","leaf_type":"broadleaved","natural":"tree","osm_id":"1936974950"}},"geometry":{"type":"Point","coordinates":[2078.3270290037617,-1935.8725467184559]}},{"type":"Feature","properties":{"id":"node/1936976814","tags":{"leaf_cycle":"deciduous","leaf_type":"broadleaved","natural":"tree","osm_id":"1936976814"}},"geometry":{"type":"Point","coordinates":[2090.57673555566,-1940.8757128333673]}},{"type":"Feature","properties":{"id":"node/1936977320","tags":{"leaf_cycle":"deciduous","leaf_type":"broadleaved","natural":"tree","osm_id":"1936977320"}},"geometry":{"type":"Point","coordinates":[2113.732128828997,-1951.1678322115913]}},{"type":"Feature","properties":{"id":"node/1936978189","tags":{"leaf_cycle":"deciduous","leaf_type":"broadleaved","natural":"tree","osm_id":"1936978189"}},"geometry":{"type":"Point","coordinates":[2106.088238710072,-1947.6316045196727]}},{"type":"Feature","properties":{"id":"node/1936979671","tags":{"leaf_cycle":"deciduous","leaf_type":"broadleaved","natural":"tree","osm_id":"1936979671"}},"geometry":{"type":"Point","coordinates":[2096.443922479986,-1943.5388006828725]}},{"type":"Feature","properties":{"id":"node/1937626362","tags":{"leaf_cycle":"deciduous","leaf_type":"broadleaved","natural":"tree","osm_id":"1937626362"}},"geometry":{"type":"Point","coordinates":[2176.6228607320227,-2047.654196294956]}},{"type":"Feature","properties":{"id":"node/1937626377","tags":{"leaf_cycle":"deciduous","leaf_type":"broadleaved","natural":"tree","osm_id":"1937626377"}},"geometry":{"type":"Point","coordinates":[2185.781388979871,-2044.5249403277412]}},{"type":"Feature","properties":{"id":"node/1937626423","tags":{"leaf_cycle":"deciduous","leaf_type":"broadleaved","natural":"tree","osm_id":"1937626423"}},"geometry":{"type":"Point","coordinates":[2190.51943202893,-2032.6581843020394]}},{"type":"Feature","properties":{"id":"node/1937626669","tags":{"leaf_cycle":"deciduous","leaf_type":"broadleaved","natural":"tree","osm_id":"1937626669"}},"geometry":{"type":"Point","coordinates":[2197.593876572384,-2015.9882368864492]}},{"type":"Feature","properties":{"id":"node/1937626832","tags":{"leaf_cycle":"deciduous","leaf_type":"broadleaved","natural":"tree","osm_id":"1937626832"}},"geometry":{"type":"Point","coordinates":[2200.5700246327324,-2010.0469950474799]}},{"type":"Feature","properties":{"id":"node/1937626958","tags":{"leaf_cycle":"deciduous","leaf_type":"broadleaved","natural":"tree","osm_id":"1937626958"}},"geometry":{"type":"Point","coordinates":[2203.252098901663,-2004.0009858356789]}},{"type":"Feature","properties":{"id":"node/1937710669","tags":{"leaf_cycle":"deciduous","leaf_type":"broadleaved","natural":"tree","osm_id":"1937710669"}},"geometry":{"type":"Point","coordinates":[2102.9572499461938,-2015.5127531317994]}},{"type":"Feature","properties":{"id":"node/1937710911","tags":{"leaf_cycle":"deciduous","leaf_type":"broadleaved","natural":"tree","osm_id":"1937710911"}},"geometry":{"type":"Point","coordinates":[2121.2887992409524,-2016.953986656852]}},{"type":"Feature","properties":{"id":"node/1937711024","tags":{"leaf_cycle":"deciduous","leaf_type":"broadleaved","natural":"tree","osm_id":"1937711024"}},"geometry":{"type":"Point","coordinates":[2123.163466532249,-2011.5267008477822]}},{"type":"Feature","properties":{"id":"node/1937711157","tags":{"leaf_cycle":"deciduous","leaf_type":"broadleaved","natural":"tree","osm_id":"1937711157"}},"geometry":{"type":"Point","coordinates":[2125.212629265734,-2005.7060850216076]}},{"type":"Feature","properties":{"id":"node/1939667586","tags":{"leaf_cycle":"deciduous","leaf_type":"broadleaved","natural":"tree","osm_id":"1939667586"}},"geometry":{"type":"Point","coordinates":[2109.138423579512,-1977.2080746293068]}},{"type":"Feature","properties":{"id":"node/1939667844","tags":{"leaf_cycle":"deciduous","leaf_type":"broadleaved","natural":"tree","osm_id":"1939667844"}},"geometry":{"type":"Point","coordinates":[2112.212412405992,-1970.7861215770245]}},{"type":"Feature","properties":{"id":"node/1939668109","tags":{"leaf_cycle":"deciduous","leaf_type":"broadleaved","natural":"tree","osm_id":"1939668109"}},"geometry":{"type":"Point","coordinates":[2114.3775782159064,-1966.2203555544838]}},{"type":"Feature","properties":{"id":"node/1939669085","tags":{"leaf_cycle":"deciduous","leaf_type":"broadleaved","natural":"tree","osm_id":"1939669085"}},"geometry":{"type":"Point","coordinates":[2101.262209123466,-1994.430040627718]}},{"type":"Feature","properties":{"id":"node/1939669901","tags":{"leaf_cycle":"deciduous","leaf_type":"broadleaved","natural":"tree","osm_id":"1939669901"}},"geometry":{"type":"Point","coordinates":[2096.6456715443055,-2006.2608144525439]}},{"type":"Feature","properties":{"id":"node/1939671947","tags":{"leaf_cycle":"deciduous","leaf_type":"broadleaved","natural":"tree","osm_id":"1939671947"}},"geometry":{"type":"Point","coordinates":[2117.3250650444534,-1980.743414601311]}},{"type":"Feature","properties":{"id":"node/1939672700","tags":{"leaf_cycle":"deciduous","leaf_type":"broadleaved","natural":"tree","osm_id":"1939672700"}},"geometry":{"type":"Point","coordinates":[2128.36854542169,-1978.1620797188953]}},{"type":"Feature","properties":{"id":"node/1939673332","tags":{"leaf_cycle":"deciduous","leaf_type":"broadleaved","natural":"tree","osm_id":"1939673332"}},"geometry":{"type":"Point","coordinates":[2116.5826230211533,-1960.0847112284973]}},{"type":"Feature","properties":{"id":"node/1939674726","tags":{"leaf_cycle":"deciduous","leaf_type":"broadleaved","natural":"tree","osm_id":"1939674726"}},"geometry":{"type":"Point","coordinates":[2048.536648475507,-1938.8025750191882]}},{"type":"Feature","properties":{"id":"node/1939674970","tags":{"leaf_cycle":"deciduous","leaf_type":"broadleaved","natural":"tree","osm_id":"1939674970"}},"geometry":{"type":"Point","coordinates":[2051.1493918918422,-1933.614842420444]}},{"type":"Feature","properties":{"id":"node/1939681325","tags":{"leaf_cycle":"deciduous","leaf_type":"broadleaved","natural":"tree","osm_id":"1939681325"}},"geometry":{"type":"Point","coordinates":[2038.3096308572567,-1961.6961934408173]}},{"type":"Feature","properties":{"id":"node/1939682969","tags":{"leaf_cycle":"deciduous","leaf_type":"broadleaved","natural":"tree","osm_id":"1939682969"}},"geometry":{"type":"Point","coordinates":[2034.1797957772505,-1972.2143105342984]}},{"type":"Feature","properties":{"id":"node/1939684160","tags":{"leaf_cycle":"deciduous","leaf_type":"broadleaved","natural":"tree","osm_id":"1939684160"}},"geometry":{"type":"Point","coordinates":[2031.7725073951879,-1978.710562352091]}},{"type":"Feature","properties":{"id":"node/1939685086","tags":{"leaf_cycle":"deciduous","leaf_type":"broadleaved","natural":"tree","osm_id":"1939685086"}},"geometry":{"type":"Point","coordinates":[2055.3292601686553,-1994.2568831406534]}},{"type":"Feature","properties":{"id":"node/1944419156","tags":{"leaf_cycle":"deciduous","leaf_type":"broadleaved","natural":"tree","osm_id":"1944419156"}},"geometry":{"type":"Point","coordinates":[2170.2902477056487,-2044.8010219382122]}},{"type":"Feature","properties":{"id":"node/1944419349","tags":{"leaf_cycle":"deciduous","leaf_type":"broadleaved","natural":"tree","osm_id":"1944419349"}},"geometry":{"type":"Point","coordinates":[2164.085473504383,-2042.512535057962]}},{"type":"Feature","properties":{"id":"node/1944419521","tags":{"leaf_cycle":"deciduous","leaf_type":"broadleaved","natural":"tree","osm_id":"1944419521"}},"geometry":{"type":"Point","coordinates":[2157.4749258466763,-2039.3650827342644]}},{"type":"Feature","properties":{"id":"node/1944422209","tags":{"leaf_cycle":"deciduous","leaf_type":"broadleaved","natural":"tree","osm_id":"1944422209"}},"geometry":{"type":"Point","coordinates":[2144.7847149930894,-2034.371511648409]}},{"type":"Feature","properties":{"id":"node/1944422554","tags":{"leaf_cycle":"deciduous","leaf_type":"broadleaved","natural":"tree","osm_id":"1944422554"}},"geometry":{"type":"Point","coordinates":[2132.0894584106863,-2028.2319380007684]}},{"type":"Feature","properties":{"id":"node/1944422812","tags":{"leaf_cycle":"deciduous","leaf_type":"broadleaved","natural":"tree","osm_id":"1944422812"}},"geometry":{"type":"Point","coordinates":[2126.032120746211,-2025.8623401783407]}},{"type":"Feature","properties":{"id":"node/1944431440","tags":{"leaf_cycle":"deciduous","leaf_type":"broadleaved","natural":"tree","osm_id":"1944431440"}},"geometry":{"type":"Point","coordinates":[2035.6475869500428,-1986.7033544201404]}},{"type":"Feature","properties":{"id":"node/1944431555","tags":{"leaf_cycle":"deciduous","leaf_type":"broadleaved","natural":"tree","osm_id":"1944431555"}},"geometry":{"type":"Point","coordinates":[2042.5850595067022,-1989.2870209254324]}},{"type":"Feature","properties":{"id":"node/1944431669","tags":{"leaf_cycle":"deciduous","leaf_type":"broadleaved","natural":"tree","osm_id":"1944431669"}},"geometry":{"type":"Point","coordinates":[2049.8079752110643,-1992.1982014430687]}},{"type":"Feature","properties":{"id":"node/1944431767","tags":{"leaf_cycle":"deciduous","leaf_type":"broadleaved","natural":"tree","osm_id":"1944431767"}},"geometry":{"type":"Point","coordinates":[2073.774794820114,-2004.2080595968291]}},{"type":"Feature","properties":{"id":"node/1944432201","tags":{"leaf_cycle":"deciduous","leaf_type":"broadleaved","natural":"tree","osm_id":"1944432201"}},"geometry":{"type":"Point","coordinates":[2081.6343222789,-2006.1482061389834]}},{"type":"Feature","properties":{"id":"node/1944432335","tags":{"leaf_cycle":"deciduous","leaf_type":"broadleaved","natural":"tree","osm_id":"1944432335"}},"geometry":{"type":"Point","coordinates":[2088.1028949592146,-2010.233425472863]}},{"type":"Feature","properties":{"id":"node/2736078705","tags":{"amenity":"marketplace","check_date:opening_hours":"2024-03-29","contact:mobile":"+49 171 7101662; +49 171 6010904","contact:phone":"+49 30 7869764","contact:website":"http://www.troedelmarkt-arkonaplatz.de","opening_hours":"Su 10:00-16:00","wheelchair":"yes","osm_id":"2736078705","name":"Flohmarkt am Arkonaplatz"}},"geometry":{"type":"Point","coordinates":[2124.5251361271366,-1975.5765480613336]}},{"type":"Feature","properties":{"id":"node/9144786093","tags":{"amenity":"bench","backrest":"yes","osm_id":"9144786093"}},"geometry":{"type":"Point","coordinates":[2188.214290454751,-2008.5177298849449]}},{"type":"Feature","properties":{"id":"node/9144786094","tags":{"amenity":"bench","backrest":"yes","osm_id":"9144786094"}},"geometry":{"type":"Point","coordinates":[2147.661833227903,-1991.7780066449195]}},{"type":"Feature","properties":{"id":"node/9144786095","tags":{"amenity":"bench","backrest":"yes","osm_id":"9144786095"}},"geometry":{"type":"Point","coordinates":[2141.375393673312,-2006.3385895043612]}},{"type":"Feature","properties":{"id":"node/9144786096","tags":{"amenity":"bench","backrest":"yes","osm_id":"9144786096"}},"geometry":{"type":"Point","coordinates":[2166.1350161944865,-1986.739994241856]}},{"type":"Feature","properties":{"id":"node/9144786097","tags":{"amenity":"bench","backrest":"yes","osm_id":"9144786097"}},"geometry":{"type":"Point","coordinates":[2181.1459598514484,-2023.9301338950172]}},{"type":"Feature","properties":{"id":"node/9144786098","tags":{"amenity":"bench","backrest":"yes","osm_id":"9144786098"}},"geometry":{"type":"Point","coordinates":[2181.315429693437,-1993.5702099846676]}},{"type":"Feature","properties":{"id":"node/9155002303","tags":{"amenity":"bench","backrest":"yes","osm_id":"9155002303"}},"geometry":{"type":"Point","coordinates":[2085.984964723233,-1989.3603805387393]}},{"type":"Feature","properties":{"id":"node/9155002304","tags":{"amenity":"bench","backrest":"yes","osm_id":"9155002304"}},"geometry":{"type":"Point","coordinates":[2092.112174785987,-1985.9976506829262]}},{"type":"Feature","properties":{"id":"node/9155002305","tags":{"amenity":"bench","backrest":"yes","osm_id":"9155002305"}},"geometry":{"type":"Point","coordinates":[2097.8754635716323,-1965.283877428621]}},{"type":"Feature","properties":{"id":"node/9155002308","tags":{"amenity":"bench","backrest":"yes","osm_id":"9155002308"}},"geometry":{"type":"Point","coordinates":[2060.23408727505,-1984.7231015414]}},{"type":"Feature","properties":{"id":"node/9155002310","tags":{"amenity":"bench","backrest":"yes","osm_id":"9155002310"}},"geometry":{"type":"Point","coordinates":[2098.342205642897,-1969.2015954963863]}},{"type":"Feature","properties":{"id":"node/10026854529","tags":{"amenity":"bench","backrest":"yes","osm_id":"10026854529"}},"geometry":{"type":"Point","coordinates":[2166.8306401604787,-2029.5103373918682]}},{"type":"Feature","properties":{"id":"node/10026857481","tags":{"leaf_cycle":"deciduous","leaf_type":"broadleaved","natural":"tree","osm_id":"10026857481"}},"geometry":{"type":"Point","coordinates":[2039.681724980357,-1976.1539756758139]}},{"type":"Feature","properties":{"id":"node/10026857482","tags":{"leaf_cycle":"deciduous","leaf_type":"broadleaved","natural":"tree","osm_id":"10026857482"}},"geometry":{"type":"Point","coordinates":[2040.8793359441916,-1972.6333582578227]}},{"type":"Feature","properties":{"id":"node/10026857483","tags":{"leaf_cycle":"deciduous","leaf_type":"broadleaved","natural":"tree","osm_id":"10026857483"}},"geometry":{"type":"Point","coordinates":[2043.6539415224688,-1968.3211172381416]}},{"type":"Feature","properties":{"id":"node/10026857484","tags":{"leaf_cycle":"deciduous","leaf_type":"broadleaved","natural":"tree","osm_id":"10026857484"}},"geometry":{"type":"Point","coordinates":[2047.2720604250208,-1958.5932823140174]}},{"type":"Feature","properties":{"id":"node/10026857485","tags":{"leaf_cycle":"deciduous","leaf_type":"broadleaved","natural":"tree","osm_id":"10026857485"}},"geometry":{"type":"Point","coordinates":[2053.598816133337,-1946.7802056735381]}},{"type":"Feature","properties":{"id":"node/10026857486","tags":{"leaf_cycle":"deciduous","leaf_type":"broadleaved","natural":"tree","osm_id":"10026857486"}},"geometry":{"type":"Point","coordinates":[2056.376491250703,-1937.7052757991478]}},{"type":"Feature","properties":{"id":"node/10026857487","tags":{"leaf_cycle":"deciduous","leaf_type":"broadleaved","natural":"tree","osm_id":"10026857487"}},"geometry":{"type":"Point","coordinates":[2066.8007350323023,-1937.7970296898857]}},{"type":"Feature","properties":{"id":"node/10026857488","tags":{"leaf_cycle":"deciduous","leaf_type":"broadleaved","natural":"tree","osm_id":"10026857488"}},"geometry":{"type":"Point","coordinates":[2077.904612124781,-1939.7765766195953]}},{"type":"Feature","properties":{"id":"node/10026857489","tags":{"leaf_cycle":"deciduous","leaf_type":"broadleaved","natural":"tree","osm_id":"10026857489"}},"geometry":{"type":"Point","coordinates":[2084.4673816743307,-1948.1104642432183]}},{"type":"Feature","properties":{"id":"node/10026857490","tags":{"leaf_cycle":"deciduous","leaf_type":"broadleaved","natural":"tree","osm_id":"10026857490"}},"geometry":{"type":"Point","coordinates":[2085.5398992686532,-1943.5355047108606]}},{"type":"Feature","properties":{"id":"node/10026857491","tags":{"leaf_cycle":"deciduous","leaf_type":"broadleaved","natural":"tree","osm_id":"10026857491"}},"geometry":{"type":"Point","coordinates":[2094.0367132097017,-1947.8985104653984]}},{"type":"Feature","properties":{"id":"node/10026857492","tags":{"leaf_cycle":"deciduous","leaf_type":"broadleaved","natural":"tree","osm_id":"10026857492"}},"geometry":{"type":"Point","coordinates":[2099.079841808416,-1949.812045905739]}},{"type":"Feature","properties":{"id":"node/10026857493","tags":{"leaf_cycle":"deciduous","leaf_type":"broadleaved","natural":"tree","osm_id":"10026857493"}},"geometry":{"type":"Point","coordinates":[2093.0919145523803,-1953.3385947085917]}},{"type":"Feature","properties":{"id":"node/10026857494","tags":{"leaf_cycle":"deciduous","leaf_type":"broadleaved","natural":"tree","osm_id":"10026857494"}},"geometry":{"type":"Point","coordinates":[2097.548772396869,-1957.5796616105363]}},{"type":"Feature","properties":{"id":"node/10026857495","tags":{"leaf_cycle":"deciduous","leaf_type":"broadleaved","natural":"tree","osm_id":"10026857495"}},"geometry":{"type":"Point","coordinates":[2105.9712995279115,-1953.687627369538]}},{"type":"Feature","properties":{"id":"node/10026857496","tags":{"leaf_cycle":"deciduous","leaf_type":"broadleaved","natural":"tree","osm_id":"10026857496"}},"geometry":{"type":"Point","coordinates":[2103.4279084212612,-1978.2470058286563]}},{"type":"Feature","properties":{"id":"node/10026857497","tags":{"leaf_cycle":"deciduous","leaf_type":"broadleaved","natural":"tree","osm_id":"10026857497"}},"geometry":{"type":"Point","coordinates":[2109.9418793136138,-1960.1761287404224]}},{"type":"Feature","properties":{"id":"node/10026857498","tags":{"leaf_cycle":"deciduous","leaf_type":"broadleaved","natural":"tree","osm_id":"10026857498"}},"geometry":{"type":"Point","coordinates":[2096.786395689007,-1995.1523168366402]}},{"type":"Feature","properties":{"id":"node/10026857499","tags":{"leaf_cycle":"deciduous","leaf_type":"broadleaved","natural":"tree","osm_id":"10026857499"}},"geometry":{"type":"Point","coordinates":[2099.991492126719,-1986.3795200744644]}},{"type":"Feature","properties":{"id":"node/10026857500","tags":{"leaf_cycle":"deciduous","leaf_type":"broadleaved","natural":"tree","osm_id":"10026857500"}},"geometry":{"type":"Point","coordinates":[2156.0842986656353,-1978.9950818130746]}},{"type":"Feature","properties":{"id":"node/10026857501","tags":{"leaf_cycle":"deciduous","leaf_type":"broadleaved","natural":"tree","osm_id":"10026857501"}},"geometry":{"type":"Point","coordinates":[2159.850454159663,-1976.2522124890238]}},{"type":"Feature","properties":{"id":"node/10026857502","tags":{"leaf_cycle":"deciduous","leaf_type":"broadleaved","natural":"tree","osm_id":"10026857502"}},"geometry":{"type":"Point","coordinates":[2164.4401709397207,-1976.9963208921254]}},{"type":"Feature","properties":{"id":"node/10026857503","tags":{"leaf_cycle":"deciduous","leaf_type":"broadleaved","natural":"tree","osm_id":"10026857503"}},"geometry":{"type":"Point","coordinates":[2177.5575780939544,-1983.5049776248634]}},{"type":"Feature","properties":{"id":"node/10026857504","tags":{"leaf_cycle":"deciduous","leaf_type":"broadleaved","natural":"tree","osm_id":"10026857504"}},"geometry":{"type":"Point","coordinates":[2187.1121028315974,-1987.5331575591117]}},{"type":"Feature","properties":{"id":"node/10026857505","tags":{"leaf_cycle":"deciduous","leaf_type":"broadleaved","natural":"tree","osm_id":"10026857505"}},"geometry":{"type":"Point","coordinates":[2196.6806395376916,-1992.1953203463927]}},{"type":"Feature","properties":{"id":"node/10026857506","tags":{"leaf_cycle":"deciduous","leaf_type":"broadleaved","natural":"tree","osm_id":"10026857506"}},"geometry":{"type":"Point","coordinates":[2198.898770573258,-2001.0594687759876]}},{"type":"Feature","properties":{"id":"node/10026857507","tags":{"leaf_cycle":"deciduous","leaf_type":"broadleaved","natural":"tree","osm_id":"10026857507"}},"geometry":{"type":"Point","coordinates":[2195.7413400487276,-2007.3941898168996]}},{"type":"Feature","properties":{"id":"node/10026857508","tags":{"leaf_cycle":"deciduous","leaf_type":"broadleaved","natural":"tree","osm_id":"10026857508"}},"geometry":{"type":"Point","coordinates":[2192.7367291438277,-2015.7285047322512]}},{"type":"Feature","properties":{"id":"node/10026857509","tags":{"leaf_cycle":"deciduous","leaf_type":"broadleaved","natural":"tree","osm_id":"10026857509"}},"geometry":{"type":"Point","coordinates":[2189.0075396157335,-2025.0469601750374]}},{"type":"Feature","properties":{"id":"node/10026857510","tags":{"leaf_cycle":"deciduous","leaf_type":"broadleaved","natural":"tree","osm_id":"10026857510"}},"geometry":{"type":"Point","coordinates":[2186.399687202298,-2031.9926738794893]}},{"type":"Feature","properties":{"id":"node/10026857511","tags":{"leaf_cycle":"deciduous","leaf_type":"broadleaved","natural":"tree","osm_id":"10026857511"}},"geometry":{"type":"Point","coordinates":[2182.122945056588,-2040.7891268571839]}},{"type":"Feature","properties":{"id":"node/10026857512","tags":{"leaf_cycle":"deciduous","leaf_type":"broadleaved","natural":"tree","osm_id":"10026857512"}},"geometry":{"type":"Point","coordinates":[2174.6379325595335,-2043.5030106212944]}},{"type":"Feature","properties":{"id":"node/10026857513","tags":{"leaf_cycle":"deciduous","leaf_type":"broadleaved","natural":"tree","osm_id":"10026857513"}},"geometry":{"type":"Point","coordinates":[2168.728493843577,-2040.7628761306405]}},{"type":"Feature","properties":{"id":"node/10026857514","tags":{"leaf_cycle":"deciduous","leaf_type":"broadleaved","natural":"tree","osm_id":"10026857514"}},"geometry":{"type":"Point","coordinates":[2163.417694637261,-2031.6556202061474]}},{"type":"Feature","properties":{"id":"node/10026857515","tags":{"leaf_cycle":"deciduous","leaf_type":"broadleaved","natural":"tree","osm_id":"10026857515"}},"geometry":{"type":"Point","coordinates":[2161.3179379861103,-2037.6442534793168]}},{"type":"Feature","properties":{"id":"node/10026857516","tags":{"leaf_cycle":"deciduous","leaf_type":"broadleaved","natural":"tree","osm_id":"10026857516"}},"geometry":{"type":"Point","coordinates":[2145.42886949447,-2030.674004573375]}},{"type":"Feature","properties":{"id":"node/10026861317","tags":{"leaf_cycle":"deciduous","leaf_type":"broadleaved","natural":"tree","osm_id":"10026861317"}},"geometry":{"type":"Point","coordinates":[2138.9767381474376,-2027.634345547296]}},{"type":"Feature","properties":{"id":"node/10026861318","tags":{"leaf_cycle":"deciduous","leaf_type":"broadleaved","natural":"tree","osm_id":"10026861318"}},"geometry":{"type":"Point","coordinates":[2130.704128900077,-2023.8894508052617]}},{"type":"Feature","properties":{"id":"node/10026861319","tags":{"leaf_cycle":"deciduous","leaf_type":"broadleaved","natural":"tree","osm_id":"10026861319"}},"geometry":{"type":"Point","coordinates":[2126.318188162404,-2017.9442581068724]}},{"type":"Feature","properties":{"id":"node/10026861320","tags":{"leaf_cycle":"deciduous","leaf_type":"broadleaved","natural":"tree","osm_id":"10026861320"}},"geometry":{"type":"Point","coordinates":[2129.11934352963,-2009.9259769907221]}},{"type":"Feature","properties":{"id":"node/10026861321","tags":{"leaf_cycle":"deciduous","leaf_type":"broadleaved","natural":"tree","osm_id":"10026861321"}},"geometry":{"type":"Point","coordinates":[2134.031302329211,-2001.0152630498633]}},{"type":"Feature","properties":{"id":"node/10026861322","tags":{"leaf_cycle":"deciduous","leaf_type":"broadleaved","natural":"tree","osm_id":"10026861322"}},"geometry":{"type":"Point","coordinates":[2138.0770551522146,-1991.9011795353144]}},{"type":"Feature","properties":{"id":"node/10026861323","tags":{"leaf_cycle":"deciduous","leaf_type":"broadleaved","natural":"tree","osm_id":"10026861323"}},"geometry":{"type":"Point","coordinates":[2145.0959521521,-1977.3243778459728]}},{"type":"Feature","properties":{"id":"node/10026877490","tags":{"amenity":"bench","backrest":"yes","osm_id":"10026877490"}},"geometry":{"type":"Point","coordinates":[2059.8271860093228,-1949.5131410593167]}},{"type":"Feature","properties":{"id":"node/10026877491","tags":{"amenity":"bench","backrest":"yes","osm_id":"10026877491"}},"geometry":{"type":"Point","coordinates":[2057.5875035668723,-1951.632503126748]}},{"type":"Feature","properties":{"id":"node/10026877492","tags":{"amenity":"bench","backrest":"yes","osm_id":"10026877492"}},"geometry":{"type":"Point","coordinates":[2050.8023541741422,-1966.9498099945486]}},{"type":"Feature","properties":{"id":"node/10026877493","tags":{"amenity":"bench","backrest":"yes","osm_id":"10026877493"}},"geometry":{"type":"Point","coordinates":[2050.827944452991,-1970.5545980716124]}},{"type":"Feature","properties":{"id":"node/10026881136","tags":{"leaf_cycle":"deciduous","leaf_type":"broadleaved","natural":"tree","osm_id":"10026881136"}},"geometry":{"type":"Point","coordinates":[2043.5032598164398,-1985.405383400619]}},{"type":"Feature","properties":{"id":"node/10026881137","tags":{"leaf_cycle":"deciduous","leaf_type":"broadleaved","natural":"tree","osm_id":"10026881137"}},"geometry":{"type":"Point","coordinates":[2053.0688429053407,-1983.8024751264602]}},{"type":"Feature","properties":{"id":"node/10026881138","tags":{"leaf_cycle":"deciduous","leaf_type":"broadleaved","natural":"tree","osm_id":"10026881138"}},"geometry":{"type":"Point","coordinates":[2058.6126991027268,-1985.960809419863]}},{"type":"Feature","properties":{"id":"node/10026881139","tags":{"leaf_cycle":"deciduous","leaf_type":"broadleaved","natural":"tree","osm_id":"10026881139"}},"geometry":{"type":"Point","coordinates":[2069.7559287007316,-1994.3155990662053]}},{"type":"Feature","properties":{"id":"node/10026881140","tags":{"leaf_cycle":"deciduous","leaf_type":"broadleaved","natural":"tree","osm_id":"10026881140"}},"geometry":{"type":"Point","coordinates":[2086.8069141573505,-2000.7368743037805]}},{"type":"Feature","properties":{"id":"node/10026881141","tags":{"leaf_cycle":"deciduous","leaf_type":"broadleaved","natural":"tree","osm_id":"10026881141"}},"geometry":{"type":"Point","coordinates":[2080.001295197115,-1998.2837574016303]}}]}
