{"type":"FeatureCollection","features":[{"type":"Feature","properties":{"revision":"v1.0.83","lobesCrs84":{"steglitz_friedenau_schoeneberg_suedkreuz":[13.305,52.451,13.378,52.493],"charlottenburg_palace_tegeler_weg":[13.285,52.517,13.307,52.531],"molecule_man_treptowers":[13.447,52.488,13.462,52.502]},"scope":"Finite city blocks and mapped streets in the owner-requested south corridor and two landmark lobes","preservation":"Subtract exact union of unchanged bounds.geojson and bounds-ring-v182.geojson"},"geometry":{"type":"MultiPolygon","coordinates":[[[[13.305,52.45100000000001],[13.305,52.493],[13.378,52.492999999999995],[13.378,52.45100000000001],[13.305,52.45100000000001]]],[[[13.447,52.501999999999995],[13.462,52.501999999999995],[13.462,52.488],[13.447,52.48799999999999],[13.447,52.501999999999995]]],[[[13.285,52.531],[13.307,52.53099999999999],[13.307,52.51699999999999],[13.285,52.517],[13.285,52.531]]]]}}]}
