{
  "type": "FeatureCollection",
  "name": "regierungsviertel_bounds",
  "crs": {
    "type": "name",
    "properties": {
      "name": "urn:ogc:def:crs:OGC:1.3:CRS84"
    }
  },
  "features": [
    {
      "type": "Feature",
      "properties": {
        "name": "Regierungsviertel bounds — v1.0.48 eastern outline extension",
        "description": "Complete retained task-13 polygon plus a narrow eastern lobe for the explicitly requested Alexanderplatz station, Fernsehturm and Rotes Rathaus outlines. The existing 93-place tour and full-detail map remain unchanged; this lobe is only an initial outline preview.",
        "source": "Owner-requested eastern extension, 2026-09-30. Union of the archived task-13 polygon and EPSG:25833 rectangle [391600,5819770,392305,5820360]. No previous area is removed. Nine-decimal CRS84 storage only.",
        "previous_area_m2": 30977268.666,
        "added_area_m2": 307790.537
      },
      "geometry": {
        "type": "Polygon",
        "coordinates": [
          [
            [
              13.339967973,
              52.499500483
            ],
            [
              13.314771488,
              52.498778901
            ],
            [
              13.314761208,
              52.529524084
            ],
            [
              13.342989174,
              52.530436531
            ],
            [
              13.343459777,
              52.530500723
            ],
            [
              13.344078916,
              52.532359795
            ],
            [
              13.340346398,
              52.550986251
            ],
            [
              13.387334485,
              52.550987285
            ],
            [
              13.393350507,
              52.534431783
            ],
            [
              13.398753792,
              52.529100933
            ],
            [
              13.40427426,
              52.525132052
            ],
            [
              13.404637605,
              52.52258311
            ],
            [
              13.412652079,
              52.522690889
            ],
            [
              13.412843214,
              52.517388731
            ],
            [
              13.405659066,
              52.51729215
            ],
            [
              13.407233016,
              52.511776578
            ],
            [
              13.407226772,
              52.493209212
            ],
            [
              13.374741773,
              52.493210978
            ],
            [
              13.353970812,
              52.497191573
            ],
            [
              13.35269636,
              52.499102798
            ],
            [
              13.339967973,
              52.499500483
            ]
          ]
        ]
      }
    }
  ]
}
