{"type":"FeatureCollection","features":[{"type":"Feature","properties":{"revision":"v1.0.82","scope":"Ringbahn interior plus 100 m and named lobes","sourceRingIds":["relation/14981"],"bufferM":100,"lobesCrs84":{"steglitz_schlossstrasse":[13.312,52.451,13.34,52.471],"theodor_heuss_rbb":[13.269,52.505,13.277,52.512],"estrel":[13.455,52.47,13.462,52.476]},"preservation":"Independent supplement; original bounds.geojson is unchanged"},"geometry":{"type":"MultiPolygon","coordinates":[[[[13.312,52.471],[13.34,52.471],[13.34,52.45100000000001],[13.312,52.45100000000001],[13.312,52.471]]],[[[13.455000001160967,52.47098684392355],[13.454720855347789,52.47083326296501],[13.454651518070715,52.47079741885893],[13.454408019422807,52.47067922074203],[13.454326956613686,52.47064256724551],[13.454050658971003,52.470526369200556],[13.453957567768837,52.47049028137135],[13.453652771228457,52.470381683296445],[13.453591041671332,52.470360882892976],[13.453420043882469,52.47030648388649],[13.453376953947691,52.470293318765044],[13.453197856440012,52.47024081974218],[13.453149454827837,52.47022728378848],[13.453045856373322,52.47019968431242],[13.452977643778885,52.47018273919852],[13.452589850044916,52.47009324094133],[13.452522973717928,52.47007892029901],[13.452272678021908,52.47002942128533],[13.452244646876029,52.47002406585142],[13.451989751357456,52.46997706679667],[13.451962724583586,52.469972255151454],[13.451309336297042,52.46986005742801],[13.451278310061317,52.46985495210262],[13.450138735277584,52.46967555470423],[13.449036243233662,52.469498144863245],[13.447918951908893,52.46931722479015],[13.447913818424544,52.46931639955856],[13.447278980703139,52.46921509168529],[13.446521136023765,52.469090705277885],[13.446504377550854,52.46908801910469],[13.445226100964316,52.46888802320741],[13.445215088985627,52.46888632785393],[13.444871675630925,52.468834316620374],[13.444240662239377,52.46873651918848],[13.444228155366334,52.46873461633426],[13.442962586295716,52.46854564939096],[13.442750286308561,52.46851054327637],[13.442731851479783,52.46850757298451],[13.442535981648376,52.4684768407502],[13.442355067148055,52.46844753966518],[13.442345138991252,52.468445789741885],[13.442051820006245,52.46838922255445],[13.441977219603896,52.46837487605668],[13.441571677836187,52.4682890024426],[13.441544614597827,52.468283450703645],[13.441264619405233,52.46822785181112],[13.441235859381827,52.46822233908505],[13.44094046457099,52.468167740183034],[13.440899321636877,52.46816053262646],[13.440598627074921,52.46811073364152],[13.440565100475851,52.46810543892093],[13.439701770873523,52.467975690832034],[13.439510124207183,52.46794625208071],[13.439505138854154,52.46794549192682],[13.43885155893618,52.46784657355925],[13.438567669985916,52.46780295942653],[13.438566175951236,52.467802730402134],[13.437526695078056,52.467643733672695],[13.43752313763437,52.467643192391],[13.435694376263896,52.46736639883461],[13.43563228071297,52.46735699952833],[13.434792905313548,52.46723012789227],[13.434776814984554,52.467227754338545],[13.434762915243276,52.46722575437997],[13.434760620277766,52.467225425354165],[13.433849237263068,52.46709522805261],[13.433782807555056,52.46708671946438],[13.433265417513473,52.467028020710245],[13.43323169402372,52.46702444188425],[13.432681035976712,52.466970024026814],[13.432541875871603,52.46695605140131],[13.432373946054666,52.46693825918245],[13.432181454301135,52.46691241313599],[13.431963094542352,52.46688113868527],[13.430726071355677,52.4666985540769],[13.43070222675154,52.466694991097526],[13.430403777008369,52.46665032864353],[13.430398108486765,52.466649487620735],[13.430301810813756,52.46663532352699],[13.430301571243731,52.46663528646651],[13.430290822878938,52.46663353054906],[13.43025924140245,52.466628599420375],[13.42994323375278,52.46658152817317],[13.429501528461032,52.466515657350435],[13.42947440502766,52.46651177815779],[13.428827417170716,52.46642318000261],[13.428803555184757,52.466420038979464],[13.428264565422227,52.46635194040937],[13.428246056147916,52.46634967730841],[13.427067349635873,52.46621034774172],[13.426971906722104,52.46619901752015],[13.42468209995173,52.46592035920329],[13.424174308080289,52.46585220125556],[13.423874132064727,52.46580539129742],[13.423549206653776,52.465748499986134],[13.423209543857713,52.4656850363393],[13.42318423863258,52.465680074542796],[13.42225870409031,52.46549792568234],[13.422226002194053,52.46549174511682],[13.42143151622767,52.465347748021],[13.421384299312429,52.465339709990396],[13.421027805815305,52.46528291115386],[13.420978324643533,52.46527558329917],[13.42043363486567,52.465200984852835],[13.420391945983877,52.465195660938264],[13.41998355380418,52.46514726196148],[13.419952631067192,52.46514380609446],[13.419543239008412,52.46510080701473],[13.419518635562412,52.46509835367443],[13.418352558387813,52.464988256056564],[13.41834920519208,52.46498794185659],[13.416284369961595,52.46479593197803],[13.41543241076664,52.46471602038528],[13.415429735126919,52.46471577094496],[13.414524252876031,52.4646318727641],[13.414506633666582,52.464630306703576],[13.412750617898823,52.4644808312233],[13.409875226410849,52.46423540076847],[13.40874175096999,52.464138145984506],[13.40873261940261,52.46413738023177],[13.408468924613299,52.46411578070641],[13.408455564403647,52.46411472433795],[13.408256168359129,52.464099524674616],[13.408229173921963,52.4640976213169],[13.40750238844094,52.4640505223802],[13.407424495841363,52.46404674836177],[13.406675311021516,52.464022648969646],[13.406620727127352,52.464021512783475],[13.406135337009507,52.46401691295527],[13.406077997084164,52.46401705179155],[13.405589207041048,52.464024051729304],[13.405531566005651,52.464025567983285],[13.405051275749855,52.46404396768936],[13.404996605176846,52.464046687526896],[13.404585013459142,52.4640718870856],[13.404534194682386,52.46407554440821],[13.404130602710303,52.46410894380254],[13.404062348460592,52.46411559241423],[13.403413361089873,52.46418839106619],[13.40332994834523,52.46419928241877],[13.402848057375014,52.46427118107753],[13.402792625409159,52.464280153898365],[13.402213835904917,52.46438125201536],[13.402160712582992,52.46439119728275],[13.40158192268631,52.46450689513844],[13.401471854279023,52.46453190830298],[13.400278973026039,52.464836602764635],[13.400247165627665,52.46484499705216],[13.39850649194981,52.465319288497845],[13.398477355848735,52.46532746062892],[13.398227859475966,52.46539945934065],[13.398191757328897,52.46541024821612],[13.39751366665898,52.46561994450505],[13.397474112961776,52.465632640471064],[13.396849620974773,52.465840536841355],[13.39680263643752,52.46585686864607],[13.396070444944165,52.46612236409444],[13.396024389596828,52.4661397715182],[13.395444495569835,52.466368067682986],[13.395410607097565,52.46638181755023],[13.39485561222585,52.46661381371707],[13.394827011246251,52.466626076244665],[13.393684809853658,52.46712824527078],[13.39270060893441,52.46755911689578],[13.39269557878971,52.46756132879847],[13.392446073828893,52.46767153085935],[13.391075286891812,52.46826783296536],[13.390851711926672,52.468352532290105],[13.390374241179433,52.46852715883605],[13.390129476261023,52.46860914157811],[13.389665496360575,52.46875327867159],[13.389318007092417,52.46885040323035],[13.388950443198016,52.46894491940225],[13.388269104741415,52.4691124983382],[13.388146275675094,52.4691426616098],[13.387101996526281,52.46939801142726],[13.387095517503504,52.46939960656161],[13.38633992957326,52.46958690314649],[13.38630852711839,52.4695949467324],[13.385937664578256,52.4696930365602],[13.385449903877026,52.469822025819866],[13.385443818664875,52.46982364500889],[13.38536742746724,52.46984409687653],[13.385335054447232,52.469852575501335],[13.3853221000314,52.46985601334567],[13.384865294344852,52.469978833869256],[13.384763183318714,52.4700062561869],[13.384740754750469,52.470012416512205],[13.384731179175626,52.470015105536206],[13.384411881214257,52.47009792844167],[13.3843577845667,52.47011051416643],[13.383994659966472,52.47018841486601],[13.383964874251799,52.47019502553693],[13.38363552455643,52.470270582146235],[13.3834100045061,52.4703161034609],[13.383315876968433,52.470331673407514],[13.383290558583422,52.470336009999215],[13.383127800263646,52.470364847595334],[13.3830210901917,52.47038181651067],[13.383011029077403,52.470383439625834],[13.3828460855414,52.47041043038011],[13.382737940734573,52.4704281213472],[13.382726020609836,52.47043010408403],[13.38262264888597,52.470447583299965],[13.382521293992022,52.470464100387],[13.382519735796981,52.470464354872774],[13.382393431762123,52.47048502817191],[13.382302128578262,52.470499804996486],[13.381895051735938,52.47056581463103],[13.381887426426799,52.47056706448051],[13.381574938896486,52.47061883228186],[13.380919491918394,52.4707254751952],[13.380394232699318,52.47081024266015],[13.380385333332804,52.47081169704646],[13.380201045512983,52.470842191993526],[13.379931942837558,52.47088046989991],[13.379739584905984,52.47090652911079],[13.379511193647167,52.47093252219395],[13.379320945488079,52.47095039572441],[13.37913636207527,52.47096409593934],[13.378938459109346,52.47097589598006],[13.378636513465448,52.470988931511364],[13.378205724800305,52.47099574350777],[13.377572998927793,52.47100016549374],[13.376334448564544,52.47100826014561],[13.372686589881978,52.47103115422367],[13.372529423078635,52.47103204950342],[13.372242279857911,52.47103364867794],[13.372230203254354,52.47103374618138],[13.371842611153607,52.471037846162666],[13.371817431209715,52.47103824410734],[13.371408539535791,52.471046844001116],[13.371340617098971,52.47104923319808],[13.370967824638676,52.47106763288824],[13.370901180260143,52.47107185640069],[13.370685584563697,52.471088556100405],[13.370639186273124,52.47109260935819],[13.370431590362928,52.47111280898772],[13.3703452434991,52.4711228334103],[13.37002844953165,52.471165632613584],[13.369931878522948,52.47118079155852],[13.36966518332987,52.47122859066932],[13.36958626185526,52.47124422367228],[13.369336366091579,52.47129852267132],[13.369256261292914,52.47131755493996],[13.369020164981146,52.47137855383293],[13.368941117515408,52.47140067984755],[13.368676921224749,52.471480478429974],[13.368608950584907,52.471502375048935],[13.368394553251434,52.4715758737734],[13.368345362487966,52.471593511098234],[13.368132364856045,52.47167330974077],[13.368074285960489,52.47169623242883],[13.367904787547443,52.47176663126351],[13.367874964624521,52.47177934969349],[13.367702966063806,52.47185464846652],[13.367669746299713,52.47186962680701],[13.367506047474468,52.471945625592],[13.367461735263227,52.47196702965553],[13.36729373617594,52.4720514283437],[13.367249324585732,52.472074658031985],[13.367040125314244,52.472188556317114],[13.366996492414815,52.472213297312116],[13.366838992624505,52.47230629596058],[13.366795454426782,52.47233310692224],[13.366643954260844,52.47243040556378],[13.366603710931322,52.47245732354028],[13.366385410135695,52.47260942150454],[13.366325274633686,52.47265414588015],[13.366163173308506,52.47278294428065],[13.366141386983987,52.472800704110526],[13.366083886403638,52.47284880353173],[13.366052264371664,52.4728763215617],[13.365900462364536,52.473013819989504],[13.365860621713937,52.473051941498184],[13.36571241905682,52.473201939907966],[13.365683372075507,52.473232695995726],[13.365531868725595,52.47340069432798],[13.365500429725213,52.47343754714002],[13.365360025836715,52.47361184555101],[13.365335924117131,52.47364328396683],[13.365194319432076,52.47383768232933],[13.365169019971313,52.47387460649994],[13.365087716687547,52.47400110553763],[13.365072544949976,52.474025767731945],[13.364985940963459,52.47417306669187],[13.36496799704617,52.47420551725864],[13.364922894578546,52.474292516706974],[13.36485124367588,52.47443099271188],[13.364843319347733,52.474446812962434],[13.364704811069961,52.47473271125311],[13.364689286155443,52.47476727506739],[13.364660275923367,52.47483730617466],[13.36463676752665,52.47488831910573],[13.364633099214933,52.47489642449706],[13.364539684529904,52.47510665485805],[13.364299531358407,52.475491648517476],[13.363976690414404,52.47599298442788],[13.36384906964803,52.47617417995648],[13.363790929701356,52.47625353356869],[13.363753929164293,52.47630367580295],[13.363653806887395,52.47642768728039],[13.36352888804366,52.47657080777492],[13.363469534868033,52.4766353845072],[13.363422425022941,52.4766837939464],[13.363368731189755,52.47673504578286],[13.36330431476349,52.47679530730339],[13.36323876888992,52.47685216984766],[13.363184332106348,52.47689526473429],[13.363123922309216,52.47694249457729],[13.363073843113298,52.47697801110742],[13.362971725268025,52.4770470000899],[13.362867905986695,52.477112540821146],[13.362746829167566,52.47718499757228],[13.362557413410446,52.47728532256262],[13.362373244661269,52.477378432004784],[13.362211380398652,52.47745504934008],[13.362044622968321,52.47753202704925],[13.361809198886592,52.47763406657218],[13.361518097230578,52.47775283593615],[13.361431850772302,52.477786913205904],[13.361229200732959,52.47786271789196],[13.361004003199358,52.477943925601224],[13.360533704819153,52.47810881802297],[13.35972801674608,52.47838904724817],[13.359717674634306,52.47839267828241],[13.359633131728657,52.47842263953953],[13.359359944483261,52.47851367210531],[13.359036969201775,52.47861380737771],[13.358842527213703,52.478669385539476],[13.358626532799676,52.4787261992826],[13.358392262305625,52.47878332993882],[13.358189844654424,52.47882844006743],[13.358169828702131,52.4788328144098],[13.357976820530151,52.4788710173627],[13.357810935115598,52.47890096341176],[13.357669858177267,52.47892152094267],[13.357498981268304,52.478942386397705],[13.357340913156976,52.478956742988714],[13.357221312708262,52.47896529616552],[13.357116607247356,52.478970657416845],[13.356949023558151,52.47897458463056],[13.356768663610957,52.47897375175665],[13.356518806288165,52.47896761493764],[13.35619592632335,52.47895669404379],[13.355821358507816,52.478942152515955],[13.355198505150476,52.47891628743357],[13.35519295760023,52.4789160634715],[13.354735873303751,52.478898138676435],[13.354397689582669,52.47888433729703],[13.354283075438987,52.478878672574545],[13.354110972083605,52.4788668716843],[13.354003775955588,52.47885747783443],[13.35387260817225,52.47884464283514],[13.35374351247628,52.478829265172216],[13.353723699250033,52.47882665359326],[13.353673557929856,52.478819024743466],[13.353536917479731,52.47879714164764],[13.3532995948177,52.47875624894833],[13.353252174371004,52.4787475261433],[13.353227781655878,52.47874317903334],[13.353103475744566,52.4787217350194],[13.352443698997487,52.4785965970912],[13.352111626304156,52.47852820722697],[13.35178899021694,52.47846046922967],[13.351478270463543,52.4783856409699],[13.351197746525346,52.47831270502419],[13.351012655726231,52.47826234417793],[13.350680526212248,52.47817091675996],[13.350598642466164,52.47814773180002],[13.35058524171555,52.4781439870872],[13.350493886553792,52.47811879560883],[13.34926223248945,52.47777273061167],[13.34925747053537,52.47777139884515],[13.349104072754296,52.47772869965004],[13.349097238305921,52.47772681006225],[13.34859544563452,52.47758901266703],[13.348555931856477,52.47757858303285],[13.348329435338458,52.4775211841349],[13.34828254904334,52.47750987276519],[13.348019953297477,52.47744967394128],[13.347988848449324,52.47744278576658],[13.347850350762382,52.47741318635128],[13.347797697482372,52.47740260844628],[13.347661699857763,52.47737700896116],[13.347596189725806,52.47736568360752],[13.34722339654125,52.47730688481639],[13.34715045126302,52.47729658009696],[13.346929655463228,52.47726898067906],[13.3468733611121,52.477262637520376],[13.346671265049052,52.4772423379584],[13.346618198799082,52.47723761209633],[13.346398203160323,52.47722051247577],[13.346346439599388,52.47721705585175],[13.346187142798025,52.47720815605761],[13.346155014139896,52.477206577387825],[13.34603241661629,52.47720137751329],[13.345977174685757,52.47719967045433],[13.345827777723942,52.47719677053813],[13.345792961594249,52.47719634631483],[13.345027577191413,52.47719254652065],[13.344973892213687,52.47719287759695],[13.344031811409359,52.4772091774258],[13.344007073674067,52.477209732468935],[13.34348128437249,52.477224232264156],[13.34345360487581,52.47722515504795],[13.342965454394143,52.477244244282126],[13.342881870614015,52.477246959124734],[13.342734249890349,52.47725051626962],[13.342706563593163,52.47725134286414],[13.342554966672568,52.477256742780504],[13.342551015082742,52.47725688678981],[13.342548487986438,52.47725698096789],[13.342282670540945,52.477263880510414],[13.342069677905096,52.47726840053513],[13.341785250105278,52.47727155133152],[13.341497084626441,52.47727444365036],[13.341418052194374,52.47727461528484],[13.341179619675861,52.47727442327582],[13.340914829615311,52.47727283102669],[13.34069693067519,52.47726941749216],[13.34046130239017,52.477265672836886],[13.340303984050442,52.47726193143047],[13.340102159681004,52.47725548823756],[13.339438664431052,52.47723353482395],[13.338835844458488,52.47721389486479],[13.33883059252068,52.47721372948878],[13.338326636818772,52.477198410596024],[13.33755093908674,52.477168859387334],[13.33680037551804,52.47713702850736],[13.336160954997615,52.47709411505798],[13.335284573644223,52.47703291706754],[13.334963370217041,52.47700901863945],[13.334953695259246,52.47700831861251],[13.33311343191478,52.476878921520054],[13.333111166032888,52.4768787632636],[13.332757973072054,52.47685426381506],[13.332732913484795,52.47685265801893],[13.33246081894006,52.47683665838679],[13.332407229348545,52.47683410913027],[13.332135034858627,52.47682420937625],[13.332129795377375,52.47682402453178],[13.33197769845851,52.47681882466258],[13.331918945156305,52.47681753391093],[13.331253658706702,52.47681103415541],[13.33122490237455,52.47681092465107],[13.331096116171393,52.47681120223513],[13.330859731636838,52.47680966978795],[13.330855468881248,52.47680964591781],[13.330558674929424,52.47680824599659],[13.330548236024635,52.47680821934526],[13.330295866316721,52.47680812111806],[13.329881899802466,52.47680643919412],[13.329880029885784,52.47680643231867],[13.32897641582287,52.47680345682258],[13.328869402728955,52.47680244987177],[13.328298132188655,52.47679587905653],[13.328179325725978,52.476794566601086],[13.328152699616412,52.476794419568904],[13.32813509997517,52.47679441957188],[13.328107950774848,52.47679441957769],[13.327829802114508,52.47679203084318],[13.327395039358345,52.47678735924985],[13.327023879649369,52.47678335974665],[13.326257589647929,52.47677554529631],[13.32625409537938,52.47677551218625],[13.325203316783941,52.47676631255149],[13.325040479297476,52.47676494893089],[13.325022271418245,52.47676471649255],[13.32499038075222,52.47676452036297],[13.324557789570543,52.47676472043272],[13.324545537805287,52.47676475720738],[13.322394981648776,52.47677665733355],[13.322393494628388,52.47677666600713],[13.320485833519964,52.47678836609631],[13.320481066049394,52.47678840001229],[13.32006137460546,52.476791800015235],[13.320053661875415,52.47679187482475],[13.320035962236213,52.47679207482372],[13.320016199337005,52.476792379200226],[13.319790603932658,52.476796779149744],[13.319767150568758,52.476797350870534],[13.3193979580786,52.476808150715165],[13.319361574953126,52.476809490798885],[13.31914097942324,52.476819290638524],[13.319087523955613,52.476822264422],[13.318928162870586,52.4768329217214],[13.318726802659569,52.476846279312824],[13.318686309067571,52.47684931269983],[13.318454013689019,52.4768687123495],[13.318404491967959,52.476873373525656],[13.318137297203364,52.47690137301092],[13.318073656847254,52.4769089262519],[13.317578566302444,52.47697462503153],[13.317525442257006,52.47698230702675],[13.317036351347177,52.47705890560094],[13.316996895151197,52.47706544275282],[13.316559303091475,52.477141941330586],[13.316504306096515,52.477152269817516],[13.316143512389333,52.47722476847619],[13.316098645609301,52.477234276448556],[13.315691052451163,52.47732517477742],[13.31564450440411,52.47733610457886],[13.315259110579518,52.47743120284568],[13.315196803497596,52.477447607149024],[13.314853408601175,52.4775438054217],[13.31480882900658,52.47755685140604],[13.314545532672634,52.47763724998101],[13.314515448581425,52.477646701634335],[13.314329751039223,52.47770670058131],[13.314278378916775,52.477724108770275],[13.313987382393904,52.47782740699145],[13.313941703213738,52.47784430640854],[13.3136253065916,52.47796620434971],[13.313584251831024,52.47798261174422],[13.313315154364856,52.47809410989758],[13.313273104929173,52.478112195616276],[13.313139106000898,52.478171994647816],[13.31311823009667,52.478181484798206],[13.312775932575308,52.478339982262085],[13.312730552707661,52.478361865060236],[13.312379954621914,52.478537862323776],[13.312361578591194,52.478547240859555],[13.312350978640806,52.47855274077513],[13.312347516499203,52.478554542782014],[13.31216671731814,52.47864894133628],[13.31212925840998,52.47866918193281],[13.311758859449723,52.47887627884912],[13.311724509535724,52.478896112837866],[13.311150610148959,52.47923830788603],[13.311097120839595,52.479271908220326],[13.310758220159947,52.47949620513519],[13.310742856661468,52.479506532868896],[13.310703198261205,52.47953361152391],[13.310448145407038,52.479706591555654],[13.310446862487012,52.47970746278431],[13.310439362465603,52.47971256271515],[13.310417893116975,52.47972749021038],[13.310233823970226,52.47985836064039],[13.310087369253125,52.47995760011719],[13.310071225856532,52.47996872256646],[13.309983725522663,52.480030021748156],[13.309969817643209,52.48003990883029],[13.30982474220134,52.480144567911324],[13.309637320261162,52.480271421832285],[13.30962304227346,52.480281228623326],[13.308662238766106,52.480950919658675],[13.308658025383792,52.48095386930284],[13.308185723524467,52.48128596487824],[13.308178983993766,52.48129073736767],[13.307714581948536,52.48162193298896],[13.307696714502121,52.48163492137843],[13.306845309650797,52.48226581321374],[13.306340589103375,52.482640366350445],[13.305488873838982,52.48327219169246],[13.304974983076857,52.48365337772352],[13.304973310286936,52.48365462079091],[13.303615782394118,52.48466522481485],[13.30313876006756,52.48501973749056],[13.301280015365103,52.486401144849076],[13.301280157043122,52.48640121589673],[13.301269896020772,52.48640869020959],[13.301060194658065,52.48656768817855],[13.301046361899362,52.48657834016898],[13.300822360196431,52.48675353797132],[13.30079143789041,52.486778613604784],[13.300596335880492,52.486942711635535],[13.30057753778895,52.48695889513446],[13.300389535509154,52.48712459320428],[13.300384059229572,52.48712945376349],[13.300048893793262,52.48742903332121],[13.30001148582409,52.487458400244094],[13.299542018853938,52.48782646669918],[13.299188543070322,52.488088624544176],[13.298818795734993,52.48836278037733],[13.298645509573586,52.4884913539096],[13.298582182607252,52.48853494370561],[13.298580192797047,52.488536270224365],[13.298553628600642,52.488554468772975],[13.298543828561595,52.48856136868107],[13.298539175335367,52.488564660929384],[13.2984420829202,52.488633692429374],[13.298306282620644,52.48872906806514],[13.298102986410019,52.488862935258936],[13.297885956021656,52.489000749869895],[13.297545689617985,52.48921494070802],[13.297517730238097,52.48923303478236],[13.297183929512054,52.48945513173495],[13.297138783760033,52.48948660975505],[13.296484380335192,52.489964903515684],[13.296480450333615,52.48996778806687],[13.296327149487006,52.49008078659977],[13.296322766945108,52.490084032402876],[13.29567200240663,52.49056829926627],[13.295195139416963,52.490922468059786],[13.29517993366678,52.49093395234324],[13.294596529607853,52.49138204666132],[13.294531102880072,52.49143636156022],[13.29418369839078,52.49174865796829],[13.294137590086274,52.49179282191456],[13.293811584091625,52.492126118402496],[13.29379164041988,52.492147148587705],[13.293660221332075,52.49229015049876],[13.293448648523388,52.492513511629035],[13.293241258025265,52.492715360380004],[13.293090253199995,52.49285085375674],[13.29285099916536,52.49304230453844],[13.292369397106972,52.493402279174674],[13.292171625591282,52.49354611045675],[13.291770921874651,52.49380725165899],[13.29173137982305,52.493834080963566],[13.29122127773078,52.49419447617268],[13.291200133979538,52.49420975472671],[13.290448029753383,52.4947656475197],[13.290436536143051,52.49477425013162],[13.29039642291129,52.49480465501155],[13.290277445674587,52.494893377190024],[13.290271700268809,52.494897688693186],[13.290189195200611,52.49495999502723],[13.289986234169428,52.49511052244971],[13.289973827187536,52.495119850492955],[13.289557073188147,52.495437494079155],[13.28884779223388,52.49593294255537],[13.2887201221076,52.49602210894296],[13.28864524969084,52.49607187981484],[13.288618742927888,52.49608998480809],[13.288548565259285,52.49613924145982],[13.288487692677336,52.49618132549578],[13.288182565717785,52.496392033397576],[13.28817155150484,52.496399726973706],[13.287975151116028,52.49653849849895],[13.287706888932016,52.496724889755974],[13.287637624714886,52.49677306441752],[13.287488019386615,52.49687492578818],[13.287451626721852,52.49690066761603],[13.287357007695059,52.49697021176916],[13.287031023650869,52.4971928404998],[13.287011412267061,52.49720650942877],[13.286819811437486,52.4973428076235],[13.286809642677976,52.49735011987451],[13.286626541752618,52.49748321813256],[13.286619008941518,52.497488738445966],[13.286282425480522,52.49773741103153],[13.286108694694274,52.49786138531714],[13.285940498404932,52.49797689597995],[13.28580628949822,52.49806480664474],[13.285641215654628,52.49816921519155],[13.285364676905713,52.49833147350593],[13.284679432219615,52.49872522042635],[13.284669238148133,52.498730963179675],[13.284599438288867,52.498771162588476],[13.284583187623339,52.49878066602462],[13.284308187947168,52.49894396365587],[13.284266201570587,52.49896992824178],[13.284001001257705,52.499140725858624],[13.283935540711493,52.4991858193918],[13.283790539908999,52.49929271800368],[13.283740951069177,52.49933137886744],[13.28354024914568,52.49949697685558],[13.283479563904836,52.49955106738726],[13.283310761224614,52.499713965600066],[13.283272361338271,52.4997531952816],[13.283153458836885,52.49988199397915],[13.283139377553242,52.49989760712145],[13.283021874819523,52.50003100581819],[13.283018170954064,52.500035237776125],[13.282739464296208,52.50035573467478],[13.282730321421933,52.50036642081572],[13.282518816028098,52.50061771844299],[13.2825085706937,52.50063012626013],[13.282223527331778,52.500982073013354],[13.282059889322369,52.501183549264844],[13.282054022789044,52.5011906140857],[13.282042094935575,52.5012049270034],[13.281967883515966,52.50129391763297],[13.281943074334126,52.501325144504406],[13.281870672082034,52.50142094367208],[13.281860101967599,52.50143525685597],[13.281728097522192,52.50161825532385],[13.281704729494509,52.50165255545223],[13.281574424214273,52.50185555390664],[13.28155948271304,52.501879858324884],[13.281440077208654,52.50208295688789],[13.281423363072603,52.50211304897461],[13.281330158029633,52.50229114783345],[13.281311055458383,52.50233076802491],[13.281258251906792,52.502450367364],[13.28124903673004,52.50247233942768],[13.281175231092192,52.50265803849239],[13.28116784294913,52.50267757618607],[13.28108973622686,52.502895175185],[13.281072923798687,52.50295014065134],[13.281033518805733,52.50310564012702],[13.28102982811453,52.5031210917033],[13.28099512310556,52.503275791235225],[13.280993042082574,52.50328545726641],[13.280988030842693,52.503309753152216],[13.28098242677561,52.50333624959295],[13.280976031439566,52.503372155971405],[13.280940423337169,52.503617955463405],[13.280936369346918,52.50365434128072],[13.280916760987388,52.50390554096697],[13.2809151203315,52.50395381453139],[13.280917113690116,52.50415241449923],[13.280919120325017,52.50419413298896],[13.280962503544034,52.504697333381145],[13.280966980730968,52.5047345330129],[13.281046863637046,52.50525123385021],[13.281048869400202,52.50526333176169],[13.28105256871136,52.50528423180129],[13.281055825282701,52.505301130712226],[13.281112316406348,52.50557213132935],[13.281117308853858,52.50559394292569],[13.28120469748857,52.50594434389692],[13.281208962060688,52.50596045823929],[13.281284853342225,52.506231559089876],[13.281292401194364,52.506256411098626],[13.281361494516004,52.50646731187943],[13.281374162693101,52.50650233067384],[13.281494053365133,52.506804932035266],[13.28150091816524,52.506821562299926],[13.281581012501908,52.50700806320972],[13.281600992293297,52.50705033830763],[13.281641889995555,52.50712953877041],[13.281651347084654,52.507147213022556],[13.28168164553317,52.50720191336427],[13.281683959655968,52.50720605793329],[13.281704558623698,52.50724265816539],[13.281706928399972,52.50724683531451],[13.281762625668806,52.50734423594154],[13.2817781551394,52.507370110971365],[13.281884050598865,52.50753851215526],[13.281896458640498,52.50755758990713],[13.281997954700401,52.507708591034806],[13.28201806916273,52.507737103699455],[13.282091919174048,52.50783700116362],[13.282141156298177,52.50790809536162],[13.282152049644022,52.50792342541657],[13.282203055460679,52.507993415361284],[13.282437824284692,52.50831964069049],[13.282556475029464,52.50848457928594],[13.282590100636813,52.508531316880664],[13.282592230973238,52.50853426356372],[13.282669528318745,52.508640664415005],[13.282737478327304,52.508734049750956],[13.282743270674025,52.50874190847513],[13.2827942223615,52.50881016022173],[13.283097968075118,52.509228777196704],[13.28355368939488,52.509863562678476],[13.283554372834628,52.50986451315022],[13.28371244454498,52.510084000563324],[13.283876514198456,52.510315029906316],[13.284032209742001,52.5105465562725],[13.284200458639958,52.51084223424046],[13.284280656989482,52.51099778810442],[13.284350047382688,52.51114188108034],[13.284410403403996,52.51127318023243],[13.284492914936635,52.51147209779389],[13.284545969407901,52.51161114314585],[13.284614639402562,52.51182534598374],[13.284670911760918,52.512044014737384],[13.284734401413932,52.5123444480233],[13.284771541071601,52.5126295145908],[13.28477889795822,52.51285992114333],[13.284781138749164,52.51304851114899],[13.284745811446644,52.513379295077215],[13.284723039793077,52.51351932884743],[13.284693769283582,52.51366027583394],[13.284640884385674,52.51386192286508],[13.284574012051754,52.51406668801005],[13.284501465482338,52.51425651663901],[13.284425138294294,52.51443212933549],[13.284348290885783,52.51460383053992],[13.284041409119546,52.51528081864465],[13.284037506165468,52.515289601311295],[13.283996003324127,52.515384900790906],[13.283983538400904,52.51541570353974],[13.283714216289857,52.516135600103325],[13.283710574430403,52.51614559676505],[13.283687863962601,52.5162096562136],[13.283349427197887,52.51715861175544],[13.283348490931822,52.517161256075866],[13.283320872558559,52.517239832000115],[13.283205947571053,52.51756490693681],[13.283203606246108,52.517571655049174],[13.283109997676553,52.51784665384233],[13.283096146571305,52.51788739696434],[13.2830636150901,52.51796893026311],[13.283047721440457,52.51801369957069],[13.282882377343666,52.51854447506012],[13.282868763869505,52.51858369113594],[13.282867150500977,52.518588400890614],[13.282854949374869,52.518624500733196],[13.282848613363466,52.51864437666077],[13.282800608292776,52.51880457603336],[13.282742895411728,52.518997197922054],[13.282742629448391,52.5189980881275],[13.282517770742967,52.51975285215997],[13.282516554295531,52.519756821194974],[13.28251530343202,52.519760956034496],[13.282389790119181,52.520181354393394],[13.282389525026906,52.52018224483579],[13.28234372013764,52.52033654423653],[13.282285552195571,52.52053275156187],[13.282281580798974,52.52054678108743],[13.282259106492162,52.52063010484489],[13.282166724813315,52.5209703277634],[13.28216474561423,52.520977812346324],[13.282139242432562,52.52107691200749],[13.282136348917946,52.52108866190745],[13.282034301347684,52.52152255176292],[13.281938576540334,52.521914443614726],[13.281937648200056,52.52191830153959],[13.281773925885616,52.52260909934462],[13.281580357779545,52.52342969565615],[13.281580067598297,52.5234309318954],[13.281382942310351,52.524274892485174],[13.281331437938846,52.524493855092174],[13.281329473546917,52.524502505031464],[13.281279566147694,52.52473040435631],[13.281276708500911,52.52474427463428],[13.281240002288891,52.52493437413029],[13.281235416265096,52.52496171777315],[13.281217912206921,52.52508461752277],[13.281216467619384,52.52509553073363],[13.281198962878417,52.52523863047721],[13.281196893623015,52.52525851408797],[13.281185889354894,52.52538671391558],[13.281184285717716,52.52541245742463],[13.28117948157584,52.525536357329834],[13.281179194579327,52.52556931437699],[13.281181690665118,52.52568621437441],[13.28118210653047,52.52569885862958],[13.281187202691639,52.52581355865982],[13.281190853630116,52.52585695597343],[13.28120275043669,52.52595295609291],[13.2812065437212,52.52597865266489],[13.281228839423646,52.52610875290251],[13.281234881831155,52.526139032838124],[13.28126217791961,52.52625883313917],[13.281265951129686,52.52627439350954],[13.281303446404587,52.52642019392742],[13.281318711203706,52.52647024643165],[13.281362307327969,52.52659364692576],[13.28137207399462,52.52661944104508],[13.281414470768159,52.52672434152676],[13.281428812511262,52.526757147427304],[13.28149190851627,52.52689124814347],[13.281509027490605,52.52692510081785],[13.281583023577877,52.52706180165368],[13.281623327759098,52.52712752331321],[13.281690202986805,52.527224818221775],[13.281753145079986,52.52731899623934],[13.281775613616864,52.5273508435932],[13.281850911123362,52.52745214442029],[13.281866205183293,52.52747206808726],[13.28194820274926,52.52757556897983],[13.281974923483993,52.52760764211537],[13.282057421449714,52.527701942998426],[13.28207521707681,52.52772168483772],[13.282188014615487,52.52784318603096],[13.282201100136641,52.52785699404432],[13.282271898725272,52.52793019478668],[13.282317739775245,52.527974578519995],[13.282408238477487,52.52805677943839],[13.282416149546632,52.52806389142587],[13.282503248370707,52.52814139230459],[13.282531712512805,52.52816583538492],[13.282641111339876,52.52825653646508],[13.282663647640039,52.52827473278441],[13.282759646800296,52.528350233715734],[13.2827940332283,52.52837626344003],[13.282889532650769,52.528445864341144],[13.282907039839156,52.52845838893554],[13.283022239286748,52.528539290006805],[13.283043773773983,52.528554081051425],[13.283154073404237,52.528628182058576],[13.283197241997263,52.52865597060977],[13.283286241931698,52.52871087139215],[13.283310879595035,52.52872571643259],[13.283411979657131,52.52878521730161],[13.283428943003646,52.52879504341645],[13.28355874319732,52.52886904451466],[13.283600928281075,52.52889218310323],[13.283722228707026,52.528956184088656],[13.28375741253809,52.5289741712169],[13.283894513228907,52.529042072291986],[13.283916744832235,52.529052867539576],[13.284044045588253,52.52911346851502],[13.284060089919212,52.5291209987504],[13.284179390701798,52.529176199649115],[13.284232666036464,52.52919972666018],[13.28438936736295,52.52926572777312],[13.284432104567433,52.529283065742895],[13.284536343050606,52.52932377514161],[13.284581594096688,52.52934167169434],[13.284606492380306,52.52935130443576],[13.284687893224666,52.52938210497385],[13.284723167696473,52.52939503965243],[13.28479089795619,52.529419096569725],[13.284916373070136,52.52946630534573],[13.28496693364993,52.52948449060453],[13.285157335909936,52.5295498917797],[13.285231237683265,52.52957361984702],[13.285422340294847,52.529630820910896],[13.285446583859004,52.52963791088509],[13.285614257681916,52.52968580426323],[13.285811474291751,52.52974384338886],[13.285870823506121,52.52976033217534],[13.286146727668774,52.52983253355673],[13.286198523498232,52.52984538396662],[13.286360426093836,52.52988338470811],[13.286364823425881,52.52988441190227],[13.28653602618346,52.52992421268017],[13.286613609630622,52.52994075337915],[13.286795812784739,52.52997615409022],[13.286862325600124,52.529988033957224],[13.287060929208726,52.53002043462287],[13.28709277743754,52.5300253989634],[13.287255580453964,52.53004959946603],[13.28732767128166,52.53005915661631],[13.287513674856248,52.53008085707909],[13.287528890856017,52.530082581815215],[13.287705194266204,52.530101982231535],[13.287773901400731,52.53010852605359],[13.287983705558858,52.53012542642885],[13.28802769420149,52.530128560483035],[13.288300399669444,52.53014546087063],[13.288568281305569,52.53016199689235],[13.288620938336656,52.53016466669379],[13.288908044152352,52.530176066974036],[13.288923996757259,52.5301766474435],[13.289426006949126,52.530193247866464],[13.289442004477824,52.53019372368499],[13.289967919433352,52.53020761849862],[13.290144085929189,52.530212856661834],[13.290505413103313,52.53022706620317],[13.290781096453507,52.530238124633314],[13.291050448677215,52.53025062900285],[13.291815773917023,52.53029503892791],[13.292063582269268,52.53031332065211],[13.292578586881989,52.530353326714106],[13.293173837668636,52.53040892558673],[13.29358391931745,52.53045054982243],[13.293965569368495,52.53049586904605],[13.294038124393918,52.53050450014781],[13.294579826471033,52.53057269262196],[13.295109345765525,52.530646483722265],[13.295390872022544,52.530688246165724],[13.296030533984828,52.530790771274994],[13.296042645630566,52.53079276613876],[13.296392787891735,52.53085045676309],[13.296429498574012,52.53085619747639],[13.297680521772648,52.5310414013237],[13.297708918785725,52.53104542416609],[13.299611954628238,52.53130292956884],[13.299870901382212,52.53133794949559],[13.299875035913054,52.53133850484584],[13.299967545417156,52.53135084575551],[13.300117866019074,52.53137165941836],[13.30013956003707,52.53137455855927],[13.300265823721789,52.53139082508631],[13.30029445743861,52.531394540228455],[13.302335268715163,52.531662792520194],[13.302384837974724,52.53166876732479],[13.303499526285592,52.531791051992336],[13.304369364723065,52.531890727329255],[13.305625401807198,52.53205174531094],[13.306159348448544,52.53212011911892],[13.307300117814934,52.53227301729945],[13.307613085200108,52.53231494603802],[13.312235215821124,52.532936770751526],[13.312238346685248,52.53293718970969],[13.313365064340239,52.53308717324979],[13.314004147719505,52.533174456112505],[13.31575135330953,52.533417467950734],[13.315762637995705,52.533419009026886],[13.317599258356418,52.533665198876186],[13.320309733761885,52.534028742703065],[13.32180910052895,52.53423029833342],[13.3218110387247,52.53423055803201],[13.324421856419187,52.534579226387955],[13.325535550464876,52.53473490437277],[13.326612966820012,52.534889945099906],[13.326616582708043,52.53489046247796],[13.32737149681188,52.53499786471719],[13.327377839159205,52.53499875802598],[13.327707045330923,52.53504465898507],[13.328438138051256,52.53514649999778],[13.328482296898155,52.53515221876353],[13.329718020578378,52.53530022190655],[13.329722257930234,52.535300725463586],[13.330166040371381,52.53535305143301],[13.334052082678967,52.535830656978284],[13.338090244707614,52.53632686562823],[13.33809195582583,52.53632707521597],[13.338653766566408,52.53639567666941],[13.33865754490799,52.53639613489414],[13.338684592365285,52.536399392718906],[13.342366530322826,52.53687079734436],[13.342368400712736,52.53687103601018],[13.34247491510538,52.53688458349202],[13.342859432873576,52.53693416353236],[13.343974107066547,52.53707837831077],[13.344421376429507,52.537137842557094],[13.34443011417181,52.53713898730993],[13.344637259264672,52.53716572538507],[13.345007007896088,52.53721386256936],[13.345056182066717,52.53722023889759],[13.34506504971461,52.53722145700692],[13.345106750503401,52.537226957122485],[13.345127186351505,52.53722956027099],[13.345138341066894,52.537230930980996],[13.345216342084491,52.53724137140017],[13.345252600975375,52.53724593438713],[13.345658108762109,52.53729373540337],[13.345706018808498,52.537298884376014],[13.346185828200849,52.537345485386936],[13.346224770927561,52.537348943234726],[13.347155889211995,52.53742389145436],[13.347649471757167,52.53747173568465],[13.348042281112667,52.537522780718234],[13.348394319256183,52.537579308687334],[13.348597091605964,52.537615396883346],[13.348711224301587,52.53763629581406],[13.348742607271353,52.537641812002725],[13.349157514756648,52.537711713431165],[13.349161037251942,52.5377123040119],[13.349629145717056,52.53779040560974],[13.34966805391289,52.53779655078349],[13.350128162437196,52.53786515220542],[13.350195326111397,52.53787415916374],[13.350624634343822,52.53792536025073],[13.35070542745262,52.53793358191649],[13.351180436844581,52.53797368279937],[13.351185611769079,52.53797411396641],[13.352101529907753,52.538049415629125],[13.35210900983402,52.538050018676806],[13.352793821507653,52.53810414069665],[13.353295455747661,52.53814420961856],[13.353410665959647,52.53815494890709],[13.353552456254002,52.53817000116212],[13.353687761094363,52.53818597362475],[13.353920511626347,52.53821903574565],[13.354053849930615,52.5382429202794],[13.354207420355056,52.53827417329414],[13.354469174988704,52.53833269014939],[13.3547485240637,52.53842002281025],[13.35493724490175,52.538486181880906],[13.355117007693643,52.53855816151742],[13.35518494664452,52.53858801154284],[13.355916737397553,52.538909690575444],[13.357852578720872,52.53976171973341],[13.358243818023709,52.53993727111469],[13.358430843116627,52.54002113011086],[13.358931110952556,52.54025661554318],[13.358979539318938,52.54027846330682],[13.35948881751493,52.54049854086685],[13.359959316410508,52.540704900118705],[13.360009964635733,52.540726151145584],[13.360737612445101,52.54101801172066],[13.361291770254871,52.54125557678288],[13.362180315244542,52.54166353747754],[13.362984775832269,52.54204414837666],[13.363004657309348,52.54205339105933],[13.363588561307933,52.54232009542323],[13.36360881404726,52.54232918260262],[13.364449897611937,52.54269986139599],[13.364783091755278,52.542853659563264],[13.364812974895488,52.54286709560032],[13.364908314070568,52.54290884212477],[13.364937397102995,52.542921850892895],[13.364948723939985,52.542926867094636],[13.365377753164909,52.543114974677835],[13.365539238051722,52.54318594518009],[13.365688774985307,52.54325354599089],[13.365695003929575,52.54325634646861],[13.365790504626084,52.54329904717301],[13.365956728590414,52.543373269485855],[13.36600578672293,52.543395247731716],[13.366007457848264,52.543395995299704],[13.366221259411923,52.54349149687574],[13.366749541402465,52.54372743566394],[13.367098033523625,52.54388302288056],[13.367112491625775,52.54388939620111],[13.367137244918549,52.54390016932502],[13.367314133562633,52.543978614609486],[13.367316589029043,52.543979701184405],[13.367473789773234,52.54404911382967],[13.36753378979589,52.54407562570701],[13.367544603129451,52.54408035848319],[13.367600740586507,52.54410469530263],[13.368248193043472,52.5444015772632],[13.368282988614604,52.54441705226766],[13.368576183773229,52.544543488818306],[13.369321474612015,52.54486715804937],[13.369827123278501,52.54509316750373],[13.369841204742189,52.545099504221035],[13.369852566282061,52.545104566073874],[13.370286924581912,52.54529615015812],[13.370349637236144,52.54532448390636],[13.370390734936887,52.54534239517801],[13.370742092018018,52.54549004427588],[13.371032555256198,52.545616300051684],[13.37103970532116,52.54561938845863],[13.37168181053149,52.54589499307428],[13.371690288263931,52.54589860479758],[13.37301279937944,52.54645781421304],[13.373016365818156,52.54645931747395],[13.37316052116378,52.546519888268364],[13.374081417937619,52.54691443386056],[13.374085054131353,52.546915986729566],[13.374687484804761,52.547172433725564],[13.375009614469093,52.54731007755928],[13.375015626256074,52.54731263277997],[13.375545930714766,52.54753683655514],[13.375559559975997,52.54754253004191],[13.375967034218318,52.54771070948974],[13.376172141972592,52.547797055992675],[13.376230277387325,52.54782031502988],[13.376297269268477,52.54784576019874],[13.376576063493918,52.54795180660916],[13.376624322823423,52.54796939289838],[13.376930226390936,52.548076094806845],[13.376963363736282,52.54808731118381],[13.37721496688592,52.548169912685246],[13.37726786330231,52.54818644881651],[13.377630868299006,52.54829435082524],[13.377660354450255,52.54830287054171],[13.378414865315682,52.54851467453398],[13.378478394833738,52.54853141786541],[13.379479910495311,52.548778522640504],[13.379502620690408,52.54878399284724],[13.379648123024126,52.54881819351369],[13.37966414393116,52.548821894223515],[13.379706444621059,52.5488314944117],[13.379739113793978,52.548838642963666],[13.380191321404668,52.548933944853026],[13.380261609254733,52.548947567942676],[13.3807510179744,52.549034269702645],[13.380843530296525,52.54904869571688],[13.381598744537296,52.54915069785265],[13.38169709428072,52.549161862063464],[13.381990900057907,52.54918896265375],[13.382049498328026,52.54919434534755],[13.38209552427823,52.549198122172676],[13.382455131450731,52.54922412275437],[13.38250342211602,52.549227123758584],[13.383454682451408,52.54927660641157],[13.38369920832266,52.54929294221917],[13.383933837412819,52.549313626049084],[13.384296447097435,52.54935619113723],[13.384694655687449,52.54941360945532],[13.385136069316838,52.54948148181205],[13.385141789721775,52.549482353964954],[13.386142236518701,52.549633585790986],[13.386304768817867,52.54965822331375],[13.386480512405969,52.549686538663195],[13.386501116099927,52.54968976152119],[13.38690312352629,52.54975076278217],[13.386907169236624,52.54975137297715],[13.387662983232314,52.54986467532242],[13.387664784366104,52.54986494458776],[13.387692284875877,52.5498690446727],[13.387736010516186,52.549875135679954],[13.38777151118983,52.549879735776656],[13.387774085741672,52.54988006791739],[13.387837681617041,52.54988823621222],[13.387955079464362,52.54990350190222],[13.387985901132659,52.54990730075607],[13.388344708036058,52.54994910164467],[13.38840120902079,52.549954992436064],[13.388726889186207,52.54998498809357],[13.388966282309381,52.55000905207936],[13.389039077563902,52.550016401137704],[13.389138576097391,52.55002433628348],[13.389337780101913,52.55003603655187],[13.389394934216217,52.55003871112163],[13.38990255545448,52.5500564223712],[13.390191078095256,52.55006847658806],[13.390201437219135,52.55006888704285],[13.390265733458572,52.550071296088994],[13.390542050396528,52.55008466321303],[13.390572219396052,52.550085933010656],[13.390608520132963,52.550087233042895],[13.390619974189148,52.550087615996624],[13.390620529159797,52.55008763323188],[13.390661606709116,52.550089439578386],[13.390777712994096,52.55009500962347],[13.39079255261355,52.55009567562043],[13.391749872005876,52.55013567658535],[13.391760185090943,52.55013608533945],[13.39216559750298,52.550151283445],[13.39252711159002,52.55016645743057],[13.392548701447284,52.55016726665689],[13.393773326330033,52.55020766767423],[13.393956662545154,52.55021368205275],[13.39395857041348,52.550213743883226],[13.395911510106727,52.55027624546642],[13.395948790702702,52.550277150149334],[13.396922110558647,52.55029325063409],[13.396956792454827,52.55029357541855],[13.397914544468144,52.5502956730646],[13.399025334258075,52.5502991684888],[13.39922827301384,52.550299867277516],[13.399290909953203,52.55030006907636],[13.399453130955376,52.55030057011508],[13.399455024030242,52.55030057521975],[13.40100625182855,52.55030414092791],[13.401467603409605,52.55031095993042],[13.401916941781016,52.55032409592449],[13.402506104842043,52.55035563613363],[13.40250989055428,52.550355835792125],[13.404847864303063,52.55047726730247],[13.40501229443172,52.550485994621006],[13.406531658045683,52.55056641413957],[13.406546112275754,52.55056713546703],[13.407181725125339,52.55059693617176],[13.407219970324203,52.55059842473215],[13.407713980368191,52.55061372512172],[13.407744910771344,52.55061448470792],[13.407976315490732,52.55061868483043],[13.40799793710293,52.55061898053305],[13.408421745758158,52.5506228806806],[13.40845899740188,52.550622936564],[13.408781503993817,52.5506209365755],[13.408793297506744,52.550620834667384],[13.409127204330785,52.55061713464621],[13.409180693691535,52.550615949597635],[13.40951460049498,52.55060484942639],[13.409529697994039,52.55060430016284],[13.409863704788794,52.55059109994913],[13.409887363854885,52.55059004833285],[13.410227570754202,52.55057324804742],[13.41025899403853,52.55057148974948],[13.410852206004028,52.550534389094786],[13.410864752468342,52.55053357130024],[13.411436425521055,52.550494798779276],[13.411949193957838,52.55046210688931],[13.411955320501724,52.55046170838448],[13.412741857705328,52.550409531598056],[13.41350539281051,52.550361045385834],[13.413535166579921,52.55035896794755],[13.414096577824798,52.550316267176086],[13.414106066270133,52.55031552640345],[13.414203468216439,52.55030772626183],[13.414222131146175,52.55030615769636],[13.414536663199046,52.550278472522855],[13.414593390215316,52.55027348773134],[13.414593382215397,52.550273453902335],[13.414625307582762,52.55027052794835],[13.414630307681316,52.550270027939106],[13.414681041485519,52.550264934377324],[13.414703802822455,52.55026253733218],[13.414754603815474,52.55025693722815],[13.414796126002226,52.55025198395737],[13.41495422904095,52.550231683578104],[13.414965464383355,52.55023021306155],[13.415143167781403,52.55020651261835],[13.415201308717046,52.550198001774824],[13.41542761291521,52.55016190109899],[13.415488354953224,52.55015135907321],[13.415682758420218,52.55011485839244],[13.415776475872635,52.550095136159214],[13.416220283181287,52.549991434251304],[13.416290894216415,52.549973642512384],[13.416719100729448,52.549857740413586],[13.416720746686657,52.5498572941664],[13.416869148939105,52.54981699343692],[13.416932519848585,52.549798670941044],[13.41707482182043,52.54975497016439],[13.41709329062492,52.5497491987034],[13.417277293097007,52.54969069767005],[13.417293281026584,52.54968553821866],[13.417334088156272,52.549672173379285],[13.41773293095384,52.54954394524891],[13.417985083239648,52.549463403151684],[13.417999757345992,52.54945865151758],[13.418182559727386,52.54939865046401],[13.418626524161361,52.549252830144276],[13.418631686221767,52.549251126556754],[13.418803888441847,52.549194025556126],[13.420207324519502,52.54872811235072],[13.420678140403227,52.54857177314819],[13.420709123967102,52.548561187691384],[13.420966127073317,52.54847088612787],[13.421036994728947,52.548444334778964],[13.421430198689087,52.54828753214681],[13.421494359669609,52.54826044097205],[13.42187146266752,52.54809203823836],[13.421986570506862,52.54803499520303],[13.424099377337647,52.54687557776788],[13.424102244608099,52.54687400011592],[13.42489944707607,52.546434193517165],[13.424901815692603,52.546432883908935],[13.425302513768322,52.54621085285503],[13.425520269909756,52.5460923952511],[13.425529134616363,52.546087533504995],[13.425680335075745,52.54600393225189],[13.425683240867544,52.54600232128067],[13.425842500273871,52.54591379101496],[13.42603212685772,52.54581281763925],[13.426229984622523,52.545713842576475],[13.426413073231412,52.54562345517643],[13.426658693742104,52.545516487871],[13.426844237030759,52.54544052334827],[13.427006300678963,52.545379197165154],[13.427160323879484,52.54532371192968],[13.427280255445192,52.54528060693945],[13.427683519659016,52.54514008210813],[13.42780465830359,52.54509821151016],[13.427814230529151,52.54509494984665],[13.42782107107929,52.54509260439202],[13.42824337629298,52.54494690185948],[13.43018465396946,52.54427594841251],[13.430520644026391,52.54417275477459],[13.430834082935394,52.54408219955051],[13.43095490572163,52.54405047409912],[13.430957846405168,52.544049699627124],[13.43109032834318,52.544014704302796],[13.431632413822014,52.54387152091713],[13.43229898913065,52.543697376410634],[13.432822668285713,52.54356152247587],[13.432850007460774,52.54355422990945],[13.433335914789094,52.543421027501324],[13.433389564279574,52.54340552118325],[13.433814270209991,52.54327631888349],[13.433891332266686,52.543251107791036],[13.434432338815824,52.543061304503816],[13.434461983115039,52.54305062128718],[13.434589597731152,52.54300339667603],[13.43482911203651,52.5429151697588],[13.434833854359752,52.54291341544648],[13.435319459818475,52.54273301236292],[13.435698908856454,52.542592004806764],[13.437135413686013,52.5420589483286],[13.437137887888742,52.54205802814487],[13.437297727469822,52.54199845031413],[13.437814771101348,52.541805770185384],[13.437854764757345,52.54179032290916],[13.43823716858558,52.54163732034336],[13.438291925202783,52.541614318060454],[13.438584427605042,52.54148541595935],[13.438619386147058,52.54146952495837],[13.438675138643484,52.54144339074227],[13.438870958853371,52.54135322882235],[13.43887391169051,52.54135186568138],[13.439357015173561,52.54112826209474],[13.439364805879801,52.54112463118101],[13.439378096586584,52.54111839414543],[13.440381539218986,52.54065513252445],[13.440546633049673,52.54057897279597],[13.44071609757668,52.540501176997914],[13.440896844445627,52.540418246535765],[13.44090236137851,52.54041570286059],[13.441254963001953,52.540252334641934],[13.441279658084161,52.54024096548537],[13.441399030406787,52.540185992157596],[13.441759124385978,52.54002520248527],[13.442051796406366,52.53989979618665],[13.44227247283767,52.539812849069605],[13.442471270288221,52.539735971365864],[13.442802011100552,52.53961038383847],[13.443387562854124,52.53939292578022],[13.444546770839754,52.53896334266253],[13.44582235735583,52.5384902707899],[13.446344835868786,52.538296651739145],[13.446363637969476,52.538289565782264],[13.446859443294228,52.53809956255971],[13.446908740288684,52.53807982104458],[13.447104842096117,52.537997819686545],[13.447158252252605,52.53797440046587],[13.447343253614742,52.53788939909915],[13.447377135420634,52.53787335502792],[13.447555036498825,52.53778655366127],[13.447593460702997,52.537767146284004],[13.447760661446676,52.53767974494357],[13.447814902831928,52.53764993869348],[13.44808520334091,52.53749383639808],[13.448126563704681,52.53746898979879],[13.448310763641025,52.53735388816748],[13.448362631828966,52.537319752202485],[13.448559231128876,52.53718345037088],[13.4485689058002,52.53717667493705],[13.44866050541339,52.53711187407577],[13.448705911048878,52.537078129141506],[13.4487927103849,52.53701032829],[13.448804100379173,52.537001314244065],[13.448945899158941,52.53688761283842],[13.449003388295283,52.53683813619102],[13.449355283294906,52.5365125325177],[13.449383253215293,52.536485626216184],[13.451765411384873,52.53410150072928],[13.451767254530555,52.534099650932404],[13.451798040727162,52.53406866962054],[13.453178899619468,52.532686472529626],[13.453926513850083,52.53193753737388],[13.454734375108728,52.531129753278826],[13.454735316473252,52.53112881068216],[13.455034511196537,52.53082880747965],[13.455175191955501,52.530687742279575],[13.455193645964894,52.53067000030114],[13.455208580650083,52.53065533228041],[13.455236931616502,52.530626881378616],[13.455526824266887,52.530336389527655],[13.455785981936634,52.530082920657975],[13.456394213751922,52.52948975854576],[13.45651571639347,52.52937129515082],[13.456625744870712,52.5292653788693],[13.456634530978828,52.5292568150387],[13.457249176844925,52.52865015412884],[13.457862886753123,52.52806997359405],[13.458622106962466,52.52736850979157],[13.458637190316754,52.52735455756886],[13.45874594331022,52.52725468387641],[13.458875872755101,52.52713541728704],[13.459023231428764,52.52700297449728],[13.4591726090991,52.526880224146886],[13.45932959899666,52.52675806343973],[13.459479337611802,52.52665214000967],[13.459734809319933,52.52649430575899],[13.459910646505696,52.52639533689888],[13.460172930207788,52.52626824210947],[13.460349828142096,52.52618722548278],[13.460489649801652,52.526130134984996],[13.460641386148074,52.5260708599198],[13.46080675588299,52.526009218743184],[13.460935070129999,52.52596490422795],[13.461578799083464,52.52574223356807],[13.46246532307596,52.52544590070664],[13.463005360851772,52.525266219827],[13.463070725859607,52.5252444648154],[13.463859446338278,52.52498135699931],[13.464092019572352,52.52490386551101],[13.46409566601443,52.52490264646349],[13.464426995152243,52.52479150752485],[13.46468140290987,52.52471174267721],[13.464922927833184,52.524641185544816],[13.46515039817786,52.52458152637187],[13.465395018990371,52.52452358528833],[13.465794725047667,52.52443701500927],[13.46613599857648,52.524365022903986],[13.466139580679274,52.52436426409963],[13.466298171473536,52.52433052982355],[13.466708866561191,52.52424329446485],[13.466821435483718,52.52421937978972],[13.466829305738566,52.52421769254045],[13.46748341685421,52.52407618992104],[13.467527909437855,52.52406606965443],[13.467853814745869,52.523988268225864],[13.467913747294034,52.52397302372804],[13.468234152166845,52.523886422159734],[13.468303789367898,52.52386625480614],[13.468572693066461,52.523783053329794],[13.468653845054002,52.5237559578366],[13.468919148171404,52.52366065619527],[13.468959746454503,52.52364552890857],[13.469188348878832,52.5235572274144],[13.469305628429922,52.523506888363855],[13.469517529837573,52.52340618676386],[13.469537061419828,52.52339674177271],[13.469725262524763,52.52330414031972],[13.46977329632344,52.52327945703808],[13.469954097011723,52.52318245556649],[13.470000393337807,52.523156528272914],[13.470182093621013,52.523050326720266],[13.470230575879036,52.523020636482165],[13.470404975682118,52.522908734917415],[13.470449549861423,52.522878814771914],[13.470658849028966,52.52273181281116],[13.470719408993316,52.522686368617386],[13.47091580729991,52.52252876667071],[13.470948437244699,52.52250153659818],[13.471114635312459,52.52235723490157],[13.471166445523165,52.522309036053144],[13.471319842846139,52.5221558344137],[13.471341660338423,52.522133314430874],[13.471472357666324,52.521993813007114],[13.471513457184862,52.52194675789499],[13.471631353951935,52.52180155656375],[13.47166384002955,52.52175875890118],[13.471810634908978,52.521551257195256],[13.471830714148082,52.52152141301715],[13.471964708661782,52.52131161143124],[13.471983937832318,52.521279735452566],[13.472197227493186,52.5209044328815],[13.472201473792248,52.52089685207296],[13.472328970139166,52.52066587587482],[13.472619484204587,52.52014612859917],[13.472684709494143,52.520051555100174],[13.473541051998494,52.518841598857705],[13.47354226343467,52.51883988222291],[13.474529928688604,52.51743627073463],[13.47453096778956,52.51743479031606],[13.474918854033426,52.51688078580012],[13.47493483360495,52.51685702855949],[13.475118326212574,52.516572726391885],[13.475133026771212,52.51654897031601],[13.475232922206716,52.51638036911953],[13.475236753911894,52.51637382296702],[13.475270752303654,52.516315022558274],[13.475274698797506,52.51630810741001],[13.475306856203884,52.5162510124568],[13.47534431194995,52.51618481714101],[13.475348875611703,52.51617662415368],[13.475515232724588,52.51587318002246],[13.475681020637525,52.51558052146924],[13.475681724170817,52.51557927658926],[13.475685538234474,52.5155725116465],[13.475796782073056,52.51537910642873],[13.476016630942139,52.51499707063496],[13.47602318394959,52.514986825876996],[13.476073240641353,52.51490859091154],[13.47615752322941,52.5147813913971],[13.476161081771526,52.51477597020302],[13.476172981297596,52.51475767006262],[13.47617661734801,52.51475202268832],[13.476248014417711,52.51464002184317],[13.4762597220629,52.514621023782574],[13.476380016602981,52.514418922342834],[13.476408467927381,52.51436608092655],[13.47646746437463,52.51424388019973],[13.47649377329091,52.51418112531684],[13.476532169959263,52.51407352482755],[13.476549104409743,52.51401761599123],[13.476658790265894,52.51357811454286],[13.47666120633655,52.51356805119943],[13.476675936253242,52.51350418073248],[13.47694999108595,52.51237700323468],[13.476959121691488,52.51233939586118],[13.47705849382552,52.51193556756123],[13.47706413041532,52.51191020758685],[13.477100424452216,52.51172740709601],[13.47710712313146,52.51168544694313],[13.477135515355553,52.51145064653392],[13.477139015613242,52.511407760946916],[13.477145610420301,52.51125226082596],[13.477145754496814,52.511209447731],[13.47714044952365,52.511060747758805],[13.477137598397194,52.51102109559327],[13.47712289387358,52.51088519574036],[13.477118347172901,52.51085234971085],[13.477088041245029,52.51067275003861],[13.47707910974543,52.51062993655373],[13.477040904763637,52.510476336982975],[13.477029143314368,52.51043544186651],[13.47698113866327,52.51028854241334],[13.47696168891982,52.510236985826225],[13.476870482456054,52.51002408686829],[13.476841789008567,52.50996536687994],[13.47673198333962,52.509765768124126],[13.476696688056919,52.50970821133115],[13.47654008206541,52.509477213075115],[13.47650091736524,52.509424342355274],[13.476396614369166,52.50929484349005],[13.476384257345506,52.509279856359804],[13.476242253603045,52.509111557892574],[13.47620635228831,52.5090715379348],[13.475882421153356,52.50873124092202],[13.475803571688498,52.508648161142126],[13.475789046247982,52.50863278173887],[13.475785849408274,52.508629413827364],[13.474936148710642,52.50773867413172],[13.474833160896706,52.50763022741666],[13.4748323041279,52.507629326435776],[13.474623370329049,52.507409902675356],[13.474274433657305,52.507043280435695],[13.47427230043619,52.507041046476466],[13.474126631252474,52.5068890007822],[13.47359945340392,52.506337259414956],[13.473516981553368,52.50625106853755],[13.47351485559014,52.50624885397587],[13.472972044715162,52.5056852596796],[13.472943418431472,52.505656763324815],[13.472675714051839,52.50540106608094],[13.472658241825693,52.50538476924354],[13.472575040629298,52.505308970089196],[13.472535569432265,52.505274759982825],[13.472432568354277,52.505189760998654],[13.47228035335981,52.505064171596935],[13.472048505134007,52.504871349723786],[13.472045000718063,52.504868447400185],[13.471606973142082,52.50450719255461],[13.471380645883308,52.5043198364663],[13.471361302889795,52.50430435181071],[13.471289079041835,52.504242242193506],[13.47107201626794,52.504046057522956],[13.470896941555631,52.50385862933206],[13.470890241071134,52.50385091180279],[13.470790639578592,52.50373824902857],[13.470781604373432,52.503726112226936],[13.47065712277602,52.50355868687897],[13.47045678464456,52.50322253826269],[13.470390027162214,52.503084341804694],[13.470389388016562,52.5030830224116],[13.47036608059125,52.503035043758274],[13.47035457685418,52.50300593381115],[13.470303715698904,52.50284828886131],[13.470277268100407,52.502758933758706],[13.470229228399006,52.502596978510866],[13.470215340367384,52.50253956696566],[13.470204292990966,52.50246118209198],[13.470198476476753,52.50242740112782],[13.470172635550265,52.50230045159726],[13.470167201010531,52.502271784751045],[13.47012357766725,52.50195930525385],[13.47011412179077,52.501908621965484],[13.470047712549253,52.50162462270777],[13.470039407107002,52.501593114359075],[13.469992501993561,52.50143331489089],[13.46998533191617,52.50141057849254],[13.469928126569432,52.5012409791445],[13.469919721459739,52.501217635957744],[13.469786410680703,52.500869537480426],[13.469780520206797,52.50085472417487],[13.469699451345578,52.50065814029176],[13.46969745639174,52.500653227839855],[13.469660721587083,52.50056410464026],[13.469366647758424,52.49982873094743],[13.469186150335394,52.4993771741867],[13.469185227092359,52.4993748775775],[13.46916242536209,52.499318477837996],[13.469061205029806,52.49906814769776],[13.469058768350598,52.49906220848951],[13.468919258122604,52.49872701008315],[13.468911329139944,52.4987087642076],[13.468802421933438,52.49846836545032],[13.468772328231251,52.49840980028545],[13.46863242145085,52.49816690186548],[13.468579087457702,52.49808683505491],[13.468399081735656,52.497849937030175],[13.468366524681668,52.4978097473217],[13.468257621926986,52.49768334849237],[13.468214849716901,52.497637077603336],[13.468030046239782,52.497450279532686],[13.467996969954894,52.49741837967289],[13.467870268077093,52.49730168096436],[13.467852477262323,52.49728567150192],[13.46775397629456,52.49719905409412],[13.467567310337284,52.49703126426569],[13.467527544160902,52.49699724819157],[13.467321942110956,52.496829750210296],[13.467273946301427,52.4967927175509],[13.466933444229147,52.49654372076709],[13.466903440512782,52.49652246332412],[13.46671393975895,52.496392365069354],[13.466707398790811,52.496387904468975],[13.465875276839071,52.49582421859448],[13.465519946829293,52.49558175316456],[13.465065956077112,52.495261877524186],[13.464394023208198,52.49477665124712],[13.464333567275819,52.49473561735512],[13.464220881709224,52.49466370102956],[13.464027754620712,52.49451950327205],[13.46384842885748,52.494374722549296],[13.463691898869351,52.494240655119256],[13.463680949290463,52.4942305936007],[13.46357184480033,52.49412949276381],[13.463564948778304,52.49412277041213],[13.463546935880998,52.49410564522847],[13.463476443362678,52.49404026648389],[13.463370601697083,52.49393768573035],[13.46336666824405,52.49393389447312],[13.463008079509658,52.49359016680991],[13.462859454219736,52.493440774465],[13.462683528034475,52.49324523012594],[13.462566960499425,52.493105320650876],[13.462510404853802,52.49303085180065],[13.462455856758886,52.49295861329758],[13.462374448291659,52.49283492053293],[13.462275614093794,52.49267646939617],[13.462265900635977,52.4926609280567],[13.46210243950658,52.49238968508228],[13.462086213288003,52.49236398204535],[13.461849103854105,52.49200488469171],[13.4618402915076,52.491991834907644],[13.461456377244245,52.491435739171806],[13.461442861750669,52.491416172794466],[13.461435226047074,52.491405318387905],[13.460854505697128,52.49059452480957],[13.460852672635822,52.49059197622174],[13.460523054267789,52.49013560861138],[13.460509918029057,52.49011602724334],[13.460439828635106,52.490004369184085],[13.46036300170589,52.48986870369856],[13.460328140306478,52.48979854889763],[13.460289747821573,52.48970040049268],[13.460242695741671,52.48957483543235],[13.46022226317776,52.489493999329795],[13.460208779292271,52.48938778230655],[13.460199439655948,52.48924620288704],[13.460202175969492,52.48911419138963],[13.460218133998,52.488926412496134],[13.460264772687012,52.48851213836842],[13.460265495869121,52.488505337747185],[13.460279819775728,52.48836225002149],[13.46032383236792,52.48793376178608],[13.460324709389166,52.48792445014178],[13.460348600123222,52.48764554977554],[13.460350206324447,52.48761963532351],[13.46035899867251,52.487390235156],[13.460359394964282,52.487371898020264],[13.460360388194102,52.48716919795591],[13.460360196857051,52.48715177128789],[13.460356191876675,52.487002671299074],[13.460355730253442,52.48699050777475],[13.460349526030539,52.48686400781891],[13.460348530700658,52.486848304073604],[13.460333024051474,52.48664880421392],[13.460330590881272,52.48662447351415],[13.460306384313798,52.48642657376202],[13.460303231379095,52.48640447319323],[13.460260022636497,52.48613947365747],[13.460257300872549,52.48612412024608],[13.460206892234623,52.485860920798544],[13.460205741086341,52.48585507623437],[13.460163071178362,52.4856442595159],[13.46009614033031,52.485312457001086],[13.459872946922301,52.484201573397854],[13.459872360326996,52.484198692223934],[13.459807927443872,52.48388633761462],[13.459359925238997,52.48166028773317],[13.459312103814305,52.481423924718655],[13.458757757925689,52.478683047608094],[13.458646996810293,52.478133331177546],[13.458217839193066,52.47600005144755],[13.462,52.47599999999999],[13.462,52.470000000000006],[13.455,52.470000000000006],[13.455000001160967,52.47098684392355]]],[[[13.269,52.51199999999999],[13.277,52.51200000000001],[13.277000000000001,52.504999999999995],[13.269,52.50499999999999],[13.269,52.51199999999999]]]]}}]}
