{"type":"FeatureCollection","features":[{"type":"Feature","properties":{"name":"tegel","osmIdentity":"way/7249400","contextM":12,"scope":"Exact site plus 12 m immediate context only"},"geometry":{"type":"Polygon","coordinates":[[[13.294445075240443,52.57108565018562],[13.294558763328228,52.57115850287041],[13.2965284546964,52.57179346905182],[13.296604498546717,52.57181871719033],[13.297121257130813,52.57198448676851],[13.297317769727528,52.572047097785465],[13.29628992795053,52.57310988184028],[13.2962776569545,52.57333280563291],[13.296205758708602,52.5735531487427],[13.296112501670837,52.573676457238605],[13.295993150312949,52.573765654217],[13.2958426141578,52.57384155251434],[13.295580484206186,52.57388456386926],[13.294487148244055,52.57506975355931],[13.294315798915784,52.57513678944934],[13.294029319924855,52.57517400616111],[13.293391925408642,52.57496286175929],[13.2929216310133,52.57480418629322],[13.291495171348423,52.573823084990856],[13.291377092158974,52.57376736027024],[13.290309303831377,52.57339192293893],[13.288842890491013,52.57284949175591],[13.289016601871584,52.57269591419932],[13.290663043858485,52.57123879650025],[13.293177731753703,52.57079545990162],[13.29425171483358,52.57103566253601],[13.294445075240443,52.57108565018562]]]}},{"type":"Feature","properties":{"name":"hq","osmIdentity":"way/46839070","contextM":12,"scope":"Exact site plus 12 m immediate context only"},"geometry":{"type":"Polygon","coordinates":[[[13.487677274398214,52.51562275593838],[13.487465566577042,52.51564295867984],[13.485092314455038,52.51587180803792],[13.48497835789258,52.51542796445936],[13.484817784996473,52.51478456143507],[13.484772572792235,52.51459187999288],[13.484359156605528,52.512829247718706],[13.485950607580872,52.51266532262679],[13.48823706427088,52.51243211500253],[13.488898762422131,52.514937949011575],[13.48901815982152,52.51539023479565],[13.487677274398214,52.51562275593838]]]}},{"type":"Feature","properties":{"name":"hsh","osmIdentity":"way/367216314","contextM":12,"scope":"Exact site plus 12 m immediate context only"},"geometry":{"type":"Polygon","coordinates":[[[13.500194247352082,52.5423828669797],[13.499975407009947,52.5419050278336],[13.499741266913814,52.5412854088318],[13.499843184747029,52.54117324566309],[13.503006196562634,52.54116063311215],[13.502846456009312,52.54133906828075],[13.502846856302684,52.54141896266275],[13.50286388173341,52.54142712274887],[13.502864118791473,52.541517785687724],[13.502864218513709,52.54157509295716],[13.502864460326338,52.54159781475479],[13.502761330579025,52.54184971215904],[13.50277966130819,52.5419969209051],[13.502792486165069,52.54211074988389],[13.502817551712322,52.542283479015154],[13.502515644263351,52.54229477253873],[13.502363886631237,52.542300249353985],[13.501821958855029,52.54232293376013],[13.501766152152923,52.5423250920292],[13.501727615583638,52.54232630260165],[13.501255141468658,52.542343472578494],[13.500194247352082,52.5423828669797]]]}}]}
