{"type":"FeatureCollection","features":[{"type":"Feature","properties":{"scope":"Immutable prior delivered areas; subtraction input only"},"geometry":{"type":"MultiPolygon","coordinates":[[[[13.34,52.45100000000001],[13.312,52.45100000000001],[13.312,52.471],[13.34,52.471],[13.34,52.45100000000001]]],[[[13.454651518070715,52.47079741885893],[13.454408019422807,52.47067922074203],[13.454326956613686,52.470642567245505],[13.454050658971003,52.470526369200556],[13.453957567768837,52.470490281371355],[13.453652771228457,52.470381683296445],[13.453591041671332,52.470360882892976],[13.45342004388247,52.47030648388649],[13.453376953947691,52.47029331876504],[13.453197856440012,52.47024081974218],[13.453149454827837,52.470227283788475],[13.453045856373322,52.47019968431242],[13.452977643778887,52.47018273919852],[13.452589850044916,52.47009324094133],[13.452522973717928,52.47007892029901],[13.452272678021908,52.470029421285325],[13.452244646876029,52.47002406585142],[13.451989751357456,52.469977066796666],[13.451962724583586,52.469972255151454],[13.451309336297042,52.46986005742801],[13.451278310061317,52.46985495210264],[13.450138735277585,52.469675554704224],[13.449036243233662,52.469498144863245],[13.447918951908893,52.46931722479015],[13.447913818424544,52.46931639955856],[13.447278980703139,52.4692150916853],[13.446521136023767,52.46909070527788],[13.446504377550854,52.46908801910468],[13.445226100964316,52.46888802320741],[13.445215088985627,52.46888632785393],[13.444871675630925,52.468834316620374],[13.444240662239377,52.46873651918848],[13.444228155366334,52.46873461633426],[13.442962586295716,52.46854564939096],[13.442750286308561,52.46851054327636],[13.442731851479783,52.46850757298451],[13.442535981648378,52.4684768407502],[13.442355067148055,52.46844753966517],[13.442345138991252,52.468445789741885],[13.442051820006245,52.46838922255446],[13.441977219603897,52.468374876056664],[13.441571677836187,52.4682890024426],[13.441544614597827,52.468283450703645],[13.441264619405233,52.46822785181112],[13.441235859381827,52.46822233908505],[13.44094046457099,52.46816774018303],[13.440899321636877,52.468160532626456],[13.440598627074921,52.46811073364152],[13.440565100475851,52.46810543892093],[13.439701770873524,52.467975690832034],[13.439510124207183,52.4679462520807],[13.439505138854154,52.46794549192682],[13.43885155893618,52.46784657355925],[13.438567669985916,52.46780295942653],[13.438566175951236,52.467802730402134],[13.437526695078056,52.4676437336727],[13.43752313763437,52.467643192390994],[13.435694376263896,52.46736639883461],[13.43563228071297,52.46735699952833],[13.43479290531355,52.467230127892265],[13.434776814984556,52.467227754338545],[13.434762915243278,52.46722575437995],[13.434760620277766,52.467225425354165],[13.433849237263068,52.46709522805261],[13.433782807555056,52.467086719464376],[13.433265417513473,52.46702802071025],[13.43323169402372,52.46702444188425],[13.432681035976712,52.466970024026814],[13.432541875871603,52.46695605140131],[13.432373946054666,52.46693825918245],[13.432181454301137,52.46691241313599],[13.431963094542352,52.46688113868527],[13.430726071355677,52.4666985540769],[13.43070222675154,52.466694991097526],[13.430403777008369,52.46665032864352],[13.430398108486765,52.466649487620735],[13.430301810813756,52.46663532352698],[13.430301571243731,52.46663528646651],[13.430290822878938,52.46663353054906],[13.43025924140245,52.466628599420375],[13.429943233752782,52.46658152817317],[13.429501528461032,52.466515657350435],[13.42947440502766,52.46651177815779],[13.428827417170716,52.46642318000261],[13.428803555184757,52.466420038979464],[13.428264565422227,52.46635194040937],[13.428246056147916,52.4663496773084],[13.427067349635873,52.46621034774172],[13.426971906722104,52.466199017520154],[13.42468209995173,52.46592035920329],[13.424174308080289,52.46585220125556],[13.423874132064727,52.46580539129742],[13.423549206653776,52.46574849998613],[13.423209543857713,52.4656850363393],[13.42318423863258,52.465680074542796],[13.42225870409031,52.46549792568234],[13.422226002194053,52.46549174511682],[13.42143151622767,52.465347748021],[13.421384299312429,52.46533970999039],[13.421027805815305,52.46528291115386],[13.420978324643533,52.46527558329917],[13.420433634865672,52.46520098485283],[13.420391945983877,52.465195660938264],[13.41998355380418,52.46514726196147],[13.419952631067192,52.46514380609446],[13.419543239008412,52.46510080701473],[13.419518635562412,52.46509835367443],[13.418352558387813,52.464988256056564],[13.418349205192081,52.46498794185659],[13.416284369961595,52.46479593197803],[13.415432410766641,52.46471602038528],[13.415429735126919,52.46471577094496],[13.414524252876031,52.4646318727641],[13.414506633666582,52.46463030670357],[13.412750617898821,52.464480831223305],[13.409875226410849,52.46423540076847],[13.40874175096999,52.464138145984506],[13.408732619402612,52.464137380231776],[13.408468924613299,52.46411578070641],[13.408455564403647,52.46411472433795],[13.408256168359129,52.464099524674616],[13.408229173921963,52.464097621316895],[13.40750238844094,52.4640505223802],[13.407424495841363,52.46404674836177],[13.406675311021516,52.46402264896964],[13.406620727127352,52.46402151278346],[13.406135337009507,52.46401691295527],[13.406077997084164,52.46401705179155],[13.40558920704105,52.46402405172931],[13.405531566005651,52.464025567983285],[13.405051275749857,52.464043967689356],[13.404996605176846,52.46404668752689],[13.404585013459142,52.4640718870856],[13.404534194682387,52.46407554440821],[13.404130602710303,52.46410894380254],[13.404062348460592,52.46411559241423],[13.403413361089873,52.46418839106619],[13.40332994834523,52.464199282418775],[13.402848057375014,52.46427118107752],[13.402792625409159,52.46428015389836],[13.402213835904917,52.46438125201536],[13.402160712582992,52.46439119728275],[13.401581922686312,52.46450689513844],[13.401471854279023,52.46453190830298],[13.40027897302604,52.46483660276462],[13.400247165627665,52.46484499705217],[13.39850649194981,52.465319288497845],[13.398477355848735,52.46532746062892],[13.398227859475966,52.46539945934065],[13.398191757328897,52.46541024821613],[13.39751366665898,52.46561994450506],[13.397474112961774,52.46563264047106],[13.396849620974773,52.46584053684135],[13.39680263643752,52.46585686864607],[13.396070444944165,52.46612236409444],[13.396024389596828,52.46613977151821],[13.395444495569835,52.466368067682986],[13.395410607097565,52.46638181755023],[13.39485561222585,52.46661381371707],[13.394827011246251,52.466626076244665],[13.39368480985366,52.46712824527078],[13.39270060893441,52.46755911689578],[13.39269557878971,52.46756132879847],[13.392446073828893,52.467671530859334],[13.391075286891812,52.46826783296536],[13.390851711926672,52.468352532290105],[13.390374241179433,52.46852715883605],[13.390129476261023,52.46860914157811],[13.389665496360575,52.46875327867159],[13.389318007092417,52.46885040323034],[13.388950443198016,52.46894491940223],[13.388269104741415,52.4691124983382],[13.388146275675094,52.4691426616098],[13.387101996526281,52.46939801142725],[13.387095517503504,52.46939960656161],[13.38633992957326,52.46958690314649],[13.386308527118391,52.46959494673239],[13.385937664578256,52.46969303656019],[13.385449903877026,52.469822025819866],[13.385443818664875,52.46982364500889],[13.38536742746724,52.469844096876535],[13.385335054447232,52.469852575501335],[13.3853221000314,52.46985601334567],[13.384865294344852,52.46997883386926],[13.384763183318714,52.470006256186906],[13.384740754750469,52.4700124165122],[13.384731179175626,52.4700151055362],[13.384411881214257,52.47009792844167],[13.384357784566701,52.47011051416643],[13.383994659966472,52.47018841486601],[13.383964874251799,52.47019502553693],[13.38363552455643,52.470270582146235],[13.3834100045061,52.4703161034609],[13.383315876968433,52.470331673407514],[13.383290558583424,52.4703360099992],[13.383127800263647,52.470364847595334],[13.3830210901917,52.47038181651067],[13.383011029077403,52.47038343962583],[13.3828460855414,52.47041043038011],[13.382737940734573,52.47042812134719],[13.382726020609836,52.47043010408403],[13.38262264888597,52.470447583299965],[13.382521293992022,52.470464100387],[13.382519735796981,52.47046435487277],[13.382393431762123,52.47048502817191],[13.382302128578262,52.470499804996486],[13.381895051735938,52.47056581463103],[13.381887426426799,52.470567064480505],[13.381574938896486,52.47061883228186],[13.380919491918396,52.470725475195195],[13.380394232699318,52.47081024266016],[13.380385333332804,52.47081169704646],[13.380201045512983,52.470842191993526],[13.379931942837558,52.47088046989991],[13.379739584905984,52.47090652911079],[13.379511193647167,52.47093252219395],[13.379320945488079,52.4709503957244],[13.37913636207527,52.47096409593934],[13.378938459109346,52.47097589598007],[13.378636513465448,52.470988931511364],[13.378205724800306,52.47099574350777],[13.377572998927795,52.47100016549374],[13.376334448564544,52.4710082601456],[13.372686589881978,52.47103115422367],[13.372529423078635,52.47103204950342],[13.372242279857913,52.47103364867793],[13.372230203254354,52.47103374618138],[13.371842611153607,52.47103784616265],[13.371817431209715,52.47103824410734],[13.371408539535791,52.471046844001116],[13.371340617098971,52.47104923319808],[13.370967824638676,52.47106763288824],[13.370901180260143,52.47107185640069],[13.370685584563697,52.471088556100405],[13.370639186273124,52.47109260935819],[13.370431590362928,52.47111280898772],[13.3703452434991,52.471122833410305],[13.370028449531652,52.471165632613584],[13.369931878522948,52.47118079155852],[13.369665183329872,52.47122859066932],[13.369586261855261,52.471244223672265],[13.369336366091579,52.47129852267132],[13.369256261292914,52.47131755493995],[13.369020164981146,52.47137855383292],[13.36894111751541,52.47140067984755],[13.368676921224749,52.47148047842997],[13.368608950584907,52.471502375048935],[13.368394553251434,52.4715758737734],[13.368345362487966,52.471593511098234],[13.368132364856045,52.47167330974077],[13.36807428596049,52.471696232428826],[13.367904787547443,52.47176663126351],[13.367874964624521,52.47177934969348],[13.367702966063808,52.47185464846652],[13.367669746299713,52.47186962680701],[13.36750604747447,52.471945625592],[13.367461735263227,52.47196702965553],[13.36729373617594,52.4720514283437],[13.367249324585732,52.472074658031985],[13.367040125314245,52.472188556317114],[13.366996492414815,52.472213297312116],[13.366838992624505,52.47230629596058],[13.366795454426782,52.47233310692224],[13.366643954260844,52.472430405563784],[13.366603710931324,52.47245732354028],[13.366385410135695,52.47260942150454],[13.366325274633686,52.47265414588015],[13.366163173308506,52.47278294428066],[13.366141386983987,52.472800704110526],[13.36608388640364,52.47284880353173],[13.366052264371664,52.4728763215617],[13.365900462364536,52.47301381998951],[13.365860621713937,52.473051941498184],[13.365712419056818,52.473201939907966],[13.365683372075507,52.473232695995726],[13.365531868725595,52.47340069432798],[13.365500429725213,52.47343754714002],[13.365360025836715,52.47361184555101],[13.365335924117131,52.47364328396683],[13.365194319432076,52.47383768232933],[13.365169019971313,52.47387460649994],[13.36508771668755,52.474001105537624],[13.365072544949976,52.474025767731945],[13.364985940963459,52.47417306669186],[13.36496799704617,52.47420551725863],[13.364922894578546,52.474292516706974],[13.36485124367588,52.47443099271188],[13.364843319347735,52.474446812962434],[13.364704811069961,52.474732711253104],[13.364689286155444,52.47476727506739],[13.364660275923367,52.47483730617466],[13.364636767526651,52.47488831910573],[13.364633099214933,52.47489642449706],[13.364539684529904,52.47510665485805],[13.364299531358409,52.47549164851747],[13.363976690414404,52.475992984427876],[13.36384906964803,52.47617417995649],[13.363790929701356,52.47625353356869],[13.363753929164293,52.47630367580293],[13.363653806887395,52.47642768728039],[13.36352888804366,52.47657080777492],[13.363469534868033,52.4766353845072],[13.363422425022941,52.476683793946385],[13.363368731189754,52.47673504578286],[13.36330431476349,52.47679530730339],[13.36323876888992,52.47685216984766],[13.363184332106348,52.47689526473429],[13.363123922309216,52.47694249457729],[13.363073843113298,52.47697801110742],[13.362971725268025,52.4770470000899],[13.362867905986695,52.477112540821146],[13.362746829167566,52.47718499757227],[13.362557413410446,52.47728532256262],[13.362373244661269,52.47737843200479],[13.362211380398652,52.477455049340065],[13.362044622968321,52.47753202704924],[13.361809198886593,52.47763406657218],[13.361518097230578,52.47775283593615],[13.361431850772302,52.477786913205904],[13.361229200732959,52.47786271789196],[13.361004003199358,52.477943925601224],[13.360533704819153,52.47810881802296],[13.35972801674608,52.47838904724816],[13.359717674634306,52.4783926782824],[13.359633131728657,52.47842263953953],[13.359359944483261,52.478513672105315],[13.359036969201775,52.47861380737772],[13.358842527213703,52.478669385539476],[13.358626532799676,52.4787261992826],[13.358392262305625,52.47878332993882],[13.358189844654424,52.47882844006743],[13.358169828702131,52.4788328144098],[13.357976820530153,52.4788710173627],[13.357810935115598,52.47890096341175],[13.35766985817727,52.47892152094266],[13.357498981268305,52.478942386397705],[13.357340913156976,52.478956742988714],[13.357221312708262,52.47896529616551],[13.357116607247356,52.478970657416845],[13.356949023558151,52.47897458463056],[13.356768663610957,52.478973751756655],[13.356518806288165,52.47896761493764],[13.35619592632335,52.47895669404379],[13.355821358507816,52.478942152515955],[13.355198505150476,52.47891628743357],[13.35519295760023,52.4789160634715],[13.354735873303751,52.478898138676435],[13.354397689582669,52.47888433729703],[13.354283075438987,52.478878672574545],[13.354110972083605,52.478866871684296],[13.354003775955588,52.47885747783442],[13.35387260817225,52.47884464283514],[13.35374351247628,52.47882926517222],[13.353723699250033,52.47882665359326],[13.353673557929856,52.47881902474346],[13.353536917479731,52.47879714164764],[13.353299594817702,52.47875624894833],[13.353252174371004,52.4787475261433],[13.353227781655878,52.47874317903333],[13.353103475744566,52.4787217350194],[13.352443698997487,52.4785965970912],[13.352111626304156,52.47852820722697],[13.35178899021694,52.47846046922967],[13.351478270463543,52.47838564096988],[13.351197746525346,52.47831270502419],[13.351012655726231,52.47826234417793],[13.350680526212248,52.47817091675996],[13.350598642466164,52.478147731800014],[13.350585241715551,52.47814398708719],[13.350493886553792,52.478118795608836],[13.34926223248945,52.47777273061167],[13.34925747053537,52.47777139884515],[13.349104072754296,52.47772869965003],[13.349097238305921,52.477726810062244],[13.34859544563452,52.47758901266703],[13.34855593185648,52.47757858303285],[13.348329435338458,52.477521184134886],[13.348282549043342,52.47750987276519],[13.348019953297477,52.477449673941265],[13.347988848449326,52.47744278576657],[13.347850350762382,52.47741318635127],[13.347797697482372,52.47740260844628],[13.347661699857763,52.47737700896116],[13.347596189725806,52.47736568360752],[13.347223396541247,52.4773068848164],[13.34715045126302,52.47729658009697],[13.346929655463228,52.477268980679064],[13.3468733611121,52.477262637520376],[13.346671265049054,52.4772423379584],[13.346618198799082,52.47723761209633],[13.346398203160323,52.47722051247577],[13.346346439599388,52.47721705585175],[13.346187142798025,52.4772081560576],[13.346155014139896,52.477206577387825],[13.34603241661629,52.47720137751328],[13.345977174685757,52.477199670454326],[13.345827777723942,52.47719677053813],[13.34579296159425,52.47719634631482],[13.345027577191415,52.477192546520634],[13.344973892213687,52.47719287759694],[13.344031811409359,52.4772091774258],[13.344007073674069,52.477209732468935],[13.34348128437249,52.477224232264156],[13.343453604875812,52.477225155047954],[13.342965454394143,52.477244244282126],[13.342881870614015,52.477246959124734],[13.342734249890349,52.47725051626962],[13.342706563593163,52.47725134286414],[13.342554966672568,52.4772567427805],[13.342551015082742,52.4772568867898],[13.342548487986438,52.47725698096789],[13.342282670540945,52.477263880510414],[13.342069677905098,52.47726840053513],[13.341785250105278,52.47727155133152],[13.341497084626441,52.47727444365036],[13.341418052194374,52.47727461528484],[13.341179619675861,52.47727442327581],[13.340914829615311,52.47727283102669],[13.340696930675191,52.47726941749216],[13.34046130239017,52.47726567283689],[13.340303984050442,52.47726193143047],[13.340102159681004,52.47725548823756],[13.339438664431052,52.47723353482395],[13.338835844458488,52.47721389486478],[13.33883059252068,52.47721372948878],[13.338326636818772,52.477198410596024],[13.33755093908674,52.477168859387334],[13.33680037551804,52.47713702850735],[13.336160954997615,52.47709411505797],[13.335284573644223,52.47703291706754],[13.334963370217041,52.47700901863945],[13.334953695259246,52.47700831861251],[13.33311343191478,52.476878921520054],[13.333111166032888,52.4768787632636],[13.332757973072054,52.47685426381506],[13.332732913484795,52.47685265801893],[13.33246081894006,52.47683665838679],[13.332407229348545,52.476834109130266],[13.332135034858627,52.47682420937625],[13.332129795377375,52.47682402453178],[13.33197769845851,52.47681882466258],[13.331918945156305,52.47681753391093],[13.331253658706702,52.47681103415542],[13.33122490237455,52.47681092465107],[13.331096116171395,52.47681120223513],[13.330859731636838,52.47680966978795],[13.330855468881248,52.47680964591781],[13.330558674929426,52.47680824599659],[13.330548236024635,52.47680821934526],[13.330295866316723,52.47680812111806],[13.329881899802466,52.47680643919412],[13.329880029885784,52.47680643231867],[13.32897641582287,52.47680345682258],[13.328869402728955,52.47680244987177],[13.328298132188655,52.47679587905653],[13.328179325725978,52.47679456660108],[13.328152699616412,52.476794419568904],[13.32813509997517,52.47679441957188],[13.328107950774848,52.47679441957769],[13.327829802114508,52.476792030843164],[13.327395039358345,52.47678735924985],[13.327023879649369,52.47678335974665],[13.326257589647929,52.476775545296306],[13.32625409537938,52.47677551218625],[13.325203316783941,52.47676631255149],[13.325040479297476,52.47676494893089],[13.325022271418245,52.47676471649255],[13.32499038075222,52.47676452036297],[13.324557789570543,52.47676472043272],[13.324545537805287,52.47676475720737],[13.322394981648776,52.47677665733355],[13.32239349462839,52.47677666600713],[13.320485833519964,52.47678836609631],[13.320481066049394,52.476788400012275],[13.32006137460546,52.476791800015235],[13.320053661875415,52.47679187482475],[13.320035962236213,52.47679207482372],[13.320016199337006,52.476792379200226],[13.319790603932658,52.47679677914974],[13.31976715056876,52.47679735087053],[13.3193979580786,52.47680815071517],[13.319361574953126,52.476809490798885],[13.319140979423242,52.47681929063851],[13.319087523955615,52.476822264422],[13.318928162870588,52.476832921721396],[13.318726802659569,52.47684627931282],[13.318686309067573,52.47684931269983],[13.318454013689019,52.4768687123495],[13.318404491967959,52.476873373525656],[13.318137297203364,52.47690137301092],[13.318073656847254,52.476908926251895],[13.317578566302444,52.47697462503153],[13.317525442257006,52.47698230702675],[13.317036351347177,52.47705890560094],[13.316996895151197,52.47706544275281],[13.316559303091475,52.477141941330586],[13.316504306096515,52.477152269817516],[13.316143512389333,52.47722476847619],[13.316098645609301,52.477234276448556],[13.315691052451163,52.47732517477743],[13.31564450440411,52.47733610457885],[13.315259110579518,52.477431202845665],[13.315196803497596,52.477447607149024],[13.314853408601175,52.4775438054217],[13.31480882900658,52.47755685140604],[13.314545532672634,52.477637249980994],[13.314515448581425,52.477646701634335],[13.314329751039223,52.47770670058131],[13.314278378916775,52.477724108770275],[13.313987382393904,52.47782740699145],[13.313941703213738,52.47784430640854],[13.313625306591602,52.47796620434971],[13.313584251831024,52.47798261174422],[13.313315154364856,52.47809410989758],[13.313273104929173,52.478112195616276],[13.313139106000898,52.478171994647816],[13.31311823009667,52.478181484798206],[13.312775932575308,52.478339982262085],[13.312730552707661,52.478361865060236],[13.312379954621914,52.47853786232378],[13.312361578591194,52.47854724085955],[13.312350978640806,52.47855274077513],[13.312347516499203,52.478554542782014],[13.31216671731814,52.47864894133628],[13.31212925840998,52.47866918193281],[13.311758859449723,52.47887627884912],[13.311724509535724,52.478896112837866],[13.311150610148959,52.47923830788603],[13.311097120839595,52.479271908220326],[13.310758220159949,52.47949620513519],[13.310742856661468,52.47950653286891],[13.310703198261205,52.47953361152392],[13.310448145407038,52.479706591555654],[13.310446862487014,52.479707462784305],[13.310439362465605,52.47971256271515],[13.310417893116975,52.47972749021038],[13.310233823970226,52.4798583606404],[13.310087369253125,52.47995760011719],[13.310071225856534,52.47996872256646],[13.309983725522663,52.480030021748156],[13.309969817643209,52.480039908830285],[13.30982474220134,52.480144567911324],[13.309637320261162,52.480271421832285],[13.30962304227346,52.48028122862332],[13.308662238766106,52.480950919658675],[13.308658025383792,52.48095386930284],[13.308185723524467,52.48128596487824],[13.308178983993766,52.48129073736767],[13.307714581948536,52.48162193298895],[13.307696714502121,52.48163492137843],[13.306845309650797,52.48226581321374],[13.306340589103375,52.482640366350445],[13.305488873838984,52.48327219169244],[13.304974983076857,52.48365337772351],[13.304973310286938,52.4836546207909],[13.303615782394118,52.48466522481485],[13.303158477909154,52.48500508377025],[13.282,52.485],[13.28200012191528,52.50125525900474],[13.281967883515966,52.50129391763298],[13.281943074334126,52.50132514450441],[13.281870672082036,52.50142094367208],[13.281860101967599,52.50143525685597],[13.281728097522192,52.50161825532385],[13.281704729494509,52.501652555452225],[13.281574424214273,52.50185555390664],[13.28155948271304,52.501879858324884],[13.281440077208654,52.50208295688789],[13.281423363072603,52.5021130489746],[13.281330158029633,52.50229114783345],[13.281311055458383,52.50233076802491],[13.281258251906792,52.502450367364],[13.28124903673004,52.50247233942769],[13.281175231092192,52.50265803849239],[13.28116784294913,52.50267757618607],[13.28108973622686,52.502895175184996],[13.281072923798687,52.50295014065134],[13.281033518805733,52.50310564012702],[13.281029828114532,52.50312109170329],[13.28099512310556,52.503275791235225],[13.280993042082574,52.50328545726641],[13.280988030842693,52.50330975315221],[13.28098242677561,52.50333624959295],[13.280976031439566,52.503372155971405],[13.280940423337169,52.50361795546341],[13.280936369346918,52.50365434128071],[13.280916760987388,52.50390554096697],[13.280915120331501,52.50395381453139],[13.280917113690117,52.50415241449923],[13.280919120325017,52.50419413298896],[13.280962503544034,52.504697333381145],[13.28096698073097,52.504734533012886],[13.281046863637046,52.50525123385021],[13.281048869400202,52.505263331761675],[13.28105256871136,52.50528423180129],[13.281055825282701,52.50530113071222],[13.281112316406348,52.50557213132935],[13.281117308853858,52.50559394292569],[13.28120469748857,52.505944343896914],[13.281208962060688,52.50596045823929],[13.281284853342225,52.506231559089876],[13.281292401194364,52.50625641109862],[13.281361494516004,52.50646731187943],[13.281374162693101,52.50650233067384],[13.281494053365133,52.506804932035266],[13.281500918165241,52.50682156229991],[13.281581012501908,52.50700806320972],[13.281600992293297,52.50705033830763],[13.281641889995555,52.50712953877041],[13.281651347084654,52.50714721302254],[13.28168164553317,52.50720191336427],[13.281683959655968,52.50720605793329],[13.281704558623698,52.50724265816539],[13.281706928399972,52.50724683531451],[13.281762625668808,52.50734423594154],[13.2817781551394,52.507370110971365],[13.281884050598865,52.50753851215525],[13.281896458640498,52.50755758990713],[13.281997954700401,52.507708591034806],[13.282000132091573,52.507711677533564],[13.28200007977972,52.52166265374408],[13.281938576540334,52.52191444361472],[13.281937648200056,52.52191830153959],[13.281773925885616,52.52260909934461],[13.281580357779546,52.523429695656134],[13.281580067598297,52.5234309318954],[13.281382942310351,52.524274892485174],[13.281331437938846,52.524493855092174],[13.281329473546917,52.524502505031464],[13.281279566147694,52.52473040435631],[13.281276708500911,52.52474427463428],[13.281240002288891,52.524934374130275],[13.281235416265096,52.52496171777315],[13.281217912206921,52.52508461752277],[13.281216467619384,52.52509553073363],[13.281198962878417,52.52523863047721],[13.281196893623015,52.52525851408797],[13.281185889354893,52.52538671391559],[13.281184285717716,52.52541245742463],[13.28117948157584,52.52553635732983],[13.281179194579327,52.52556931437699],[13.281181690665118,52.5256862143744],[13.28118210653047,52.52569885862958],[13.281187202691639,52.52581355865982],[13.281190853630116,52.52585695597343],[13.28120275043669,52.52595295609291],[13.2812065437212,52.52597865266489],[13.281228839423646,52.5261087529025],[13.281234881831155,52.526139032838124],[13.28126217791961,52.52625883313916],[13.281265951129686,52.52627439350954],[13.28130344640459,52.52642019392742],[13.281318711203706,52.52647024643165],[13.28136230732797,52.526593646925754],[13.28137207399462,52.52661944104508],[13.281414470768159,52.52672434152676],[13.281428812511262,52.526757147427304],[13.28149190851627,52.52689124814347],[13.281509027490605,52.52692510081785],[13.281583023577879,52.52706180165368],[13.281623327759098,52.5271275233132],[13.281690202986805,52.52722481822177],[13.281753145079986,52.52731899623934],[13.281775613616864,52.5273508435932],[13.281850911123364,52.52745214442028],[13.281866205183293,52.52747206808726],[13.28194820274926,52.52757556897982],[13.281974923483993,52.52760764211537],[13.282000026305457,52.52763633642551],[13.282,52.53000000000001],[13.286945029516346,52.53000152651722],[13.287060929208726,52.53002043462287],[13.28709277743754,52.5300253989634],[13.287255580453966,52.53004959946603],[13.28732767128166,52.53005915661631],[13.287513674856248,52.53008085707909],[13.287528890856017,52.530082581815215],[13.287705194266204,52.530101982231535],[13.287773901400733,52.53010852605358],[13.287983705558858,52.530125426428846],[13.28802769420149,52.53012856048304],[13.288300399669446,52.530145460870614],[13.288568281305569,52.53016199689235],[13.288620938336656,52.53016466669379],[13.288908044152352,52.530176066974036],[13.28892399675726,52.53017664744349],[13.289426006949128,52.530193247866464],[13.289442004477825,52.530193723684974],[13.289967919433352,52.53020761849862],[13.290144085929189,52.530212856661834],[13.290505413103313,52.53022706620317],[13.290781096453507,52.5302381246333],[13.291050448677217,52.53025062900284],[13.291815773917024,52.53029503892791],[13.292063582269268,52.530313320652105],[13.292578586881989,52.530353326714106],[13.293173837668636,52.53040892558671],[13.29358391931745,52.53045054982243],[13.293965569368497,52.53049586904604],[13.294038124393918,52.530504500147806],[13.294579826471033,52.53057269262196],[13.295109345765525,52.530646483722265],[13.295390872022544,52.530688246165724],[13.296030533984828,52.530790771274994],[13.296042645630566,52.530792766138745],[13.296392787891735,52.5308504567631],[13.296429498574012,52.53085619747639],[13.297680521772648,52.53104140132369],[13.297708918785725,52.53104542416609],[13.299611954628238,52.531302929568845],[13.299870901382212,52.53133794949559],[13.299875035913056,52.53133850484584],[13.299967545417156,52.53135084575551],[13.300117866019074,52.53137165941836],[13.30013956003707,52.53137455855927],[13.30026582372179,52.5313908250863],[13.30029445743861,52.531394540228455],[13.302335268715163,52.531662792520194],[13.302384837974724,52.53166876732478],[13.303499526285593,52.53179105199232],[13.304369364723065,52.531890727329255],[13.305625401807198,52.53205174531094],[13.306159348448544,52.53212011911891],[13.307300117814936,52.53227301729945],[13.307613085200108,52.53231494603802],[13.312235215821126,52.532936770751526],[13.312238346685248,52.53293718970969],[13.312428153543111,52.532962456757964],[13.312290821,52.533320922],[13.311955643,52.53419622300001],[13.31180243,52.53459644499999],[13.311608446,52.535103116],[13.311412898,52.535614286999994],[13.31888199,52.536677102],[13.320138705,52.536855888],[13.321918774,52.53710912999999],[13.325833752,52.53766587799999],[13.325851850000001,52.537668445],[13.325855602,52.537658571999984],[13.325858305,52.53765148000001],[13.325861443,52.537645743],[13.325865983000002,52.537640368],[13.325871801,52.53763547799999],[13.325878777,52.537631189],[13.325886758000001,52.53762758799999],[13.325895536,52.537624782],[13.3259049,52.53762281899999],[13.325914658,52.53762175200001],[13.325924573,52.537621595999994],[13.325934408,52.53762237299999],[13.325954881,52.53762529699999],[13.326072370000002,52.53764204599999],[13.326135829000002,52.53765109900001],[13.326384464999999,52.53768641700001],[13.326624801,52.53772054699999],[13.326688551,52.53772970200001],[13.326826812000002,52.537749279999986],[13.326836168000002,52.53775103],[13.326844945000001,52.53775366299999],[13.326852939,52.537757103],[13.326859932000001,52.53776127500001],[13.326865751,52.537766067999996],[13.326870253,52.53777136499999],[13.326873326000001,52.53777702800001],[13.326874886000002,52.53778292100001],[13.32687491,52.53778888199999],[13.326873374,52.537794777],[13.326870064,52.537803487],[13.327898895,52.537949946000005],[13.328077705,52.53797539899999],[13.328133262,52.537983278],[13.328188622,52.537991684999994],[13.328243755,52.538000618],[13.328298648,52.53801006999999],[13.328353299000002,52.53802004],[13.328407621,52.538030545000005],[13.328461672,52.538041567],[13.328515424,52.538053098],[13.328568891,52.538065145999994],[13.32862203,52.53807769200001],[13.328674956,52.538090757999996],[13.328727555,52.53810432199999],[13.328779795,52.538118384],[13.328831663,52.53813294499999],[13.328883158000002,52.538147994999996],[13.328934251,52.53816353399999],[13.328984943,52.53817955299999],[13.329035218,52.53819606],[13.329085077,52.538213037999995],[13.329134475,52.53823049499999],[13.32904984,52.538292102999996],[13.329036677,52.538301690000004],[13.329008137,52.53832246200001],[13.328949184,52.538365541999994],[13.328884902,52.53841228700001],[13.328858772,52.53843132099999],[13.328594759,52.538623644],[13.328530167,52.53867074499999],[13.328526876,52.53867315299999],[13.328509937000002,52.538685482999995],[13.328501626,52.538691543],[13.328395179000001,52.538769089],[13.328358403000001,52.538795876],[13.328310586,52.538830715],[13.328213723,52.538901276],[13.328208719000001,52.53890490999999],[13.32818321,52.538923493999995],[13.328172927,52.53893099999999],[13.328109688,52.538977030999995],[13.328051164,52.539019657999994],[13.327958161,52.53908718099999],[13.327870684,52.539150924],[13.327852288000003,52.53916432999999],[13.327656706,52.53930689],[13.327643709,52.53931635400001],[13.327191192,52.53964618199999],[13.327164173,52.53969478399999],[13.327158364,52.53970523900001],[13.327143295,52.539732323],[13.327199655,52.54026563699999],[13.327238182,52.540616395],[13.327240155,52.54063432399999],[13.327241293,52.540644707],[13.327253515000002,52.540758059999995],[13.327256407000002,52.540784778],[13.327260276,52.540820706999995],[13.327287873,52.54107653499999],[13.327313435,52.541312966999996],[13.32731677,52.54134393499999],[13.327317643,52.541351994],[13.327326131,52.54143052599999],[13.327879338,52.541231493],[13.327975503,52.541196896],[13.328060224,52.541179392],[13.328058885,52.541176603],[13.328054757,52.541168031000005],[13.328309343,52.541140086],[13.328691753,52.54109813099999],[13.328889607,52.541093507],[13.32911596,52.541094077],[13.329315927,52.541101755],[13.330057426000002,52.541159379],[13.33020362,52.541170747],[13.331080861,52.54123892],[13.331227071,52.541250287000004],[13.331511036000002,52.54127235400001],[13.331562924,52.541276385],[13.33208154,52.54129568],[13.332785865,52.541302403],[13.333174573,52.541293034000006],[13.333491165,52.541266283999995],[13.333543958000002,52.54126005099999],[13.333562,52.54125792199999],[13.33365227,52.541247253],[13.333750423,52.54122975300001],[13.33380797,52.54121948699999],[13.333880387000002,52.54120594100001],[13.334053604000001,52.541173547],[13.334114407,52.541162175],[13.334165856,52.541154033999995],[13.334207722,52.541147413000004],[13.334455770000002,52.54110818699999],[13.334489326,52.541100207],[13.334678339000002,52.541055240999995],[13.334832321000002,52.541018278],[13.334899894,52.540999844000005],[13.335021556,52.540966643],[13.335226004,52.54091086999999],[13.336205582000002,52.540625510999995],[13.336244424000002,52.540614197999986],[13.336723398000002,52.54047466299999],[13.336737459,52.540470572000004],[13.337704075,52.540188983],[13.337850779000002,52.540146240999995],[13.337936916,52.540121142000004],[13.337958640000002,52.540114820999996],[13.33864514,52.53991869800001],[13.338768745000001,52.53988541299999],[13.338802176000002,52.539876415],[13.338821439,52.539871218],[13.338843941000002,52.539865753],[13.338913309000002,52.539848906],[13.338990535,52.539830138],[13.339075004,52.539812495999996],[13.339350822,52.539754902999995],[13.339621025,52.539707751],[13.339650875,52.53970334999999],[13.339696754000002,52.53969659399999],[13.339850525,52.53967395400001],[13.340605142,52.539574243],[13.340642977,52.539569252999996],[13.341238559,52.53949055899999],[13.341382593,52.53947151999999],[13.341670676,52.539433452],[13.341705295,52.539428883999996],[13.342300991,52.53935016799999],[13.342445039000001,52.53933112899998],[13.342658084,52.53930308399999],[13.342688766,52.53929905299999],[13.340346398,52.550986251],[13.365000015,52.55098912],[13.365,52.553000000000004],[13.398027191,52.553003763],[13.397981689,52.55322797400001],[13.397830592,52.553762199],[13.397718352000002,52.55411164400001],[13.397644687,52.55441201699999],[13.397606286,52.554568812999996],[13.397595507,52.554612822],[13.397581088,52.554671725],[13.397569113,52.554720626999995],[13.397567763,52.554726102],[13.397565077000001,52.55473707099999],[13.397562547,52.554747394],[13.397561282,52.55475254699999],[13.397555355,52.55477677799999],[13.397547328,52.55480314799999],[13.397529531,52.554861636000005],[13.397497004,52.554968531],[13.397420506,52.55521946],[13.397308481000001,52.555664797000006],[13.397176963,52.55634373499999],[13.397175512,52.556791891],[13.397157178,52.557222843000005],[13.397156355000002,52.557242162999984],[13.39715223,52.557381629],[13.397137193,52.557889248],[13.397166692,52.557887777],[13.397097619,52.55826786299998],[13.397123726000002,52.558310492],[13.397669736,52.558543658],[13.397699383,52.558552295],[13.397729713,52.558559997],[13.397760639,52.558566736999985],[13.397792102,52.558572512],[13.397823999,52.55857729499999],[13.397856272000002,52.558581077],[13.397888803,52.558583855],[13.397921534,52.558585611],[13.398065914,52.558568216000005],[13.398510478000002,52.55851468399999],[13.398551285,52.55850976],[13.398664845000003,52.558496092999995],[13.398911993,52.558463589],[13.398918486,52.558462731999995],[13.399356545,52.558405459],[13.399424922,52.558396529],[13.399504906,52.558386066],[13.399520589,52.558384022000006],[13.399715672,52.558358508],[13.399729413,52.55835670700001],[13.399837263,52.55834260999998],[13.399911213000001,52.55833377399998],[13.400416744000001,52.55827332599999],[13.40053298,52.55825943300001],[13.400545471000001,52.558257938],[13.400577579,52.558254092000006],[13.40062637,52.558248269],[13.401113318000002,52.558190049000004],[13.401261025,52.558172381],[13.401302467,52.558167429],[13.401378224,52.55815837299999],[13.401508328,52.558142822],[13.401666081,52.558123949],[13.401840679,52.558103073999995],[13.402005098,52.558083418999985],[13.402128061,52.558068715],[13.402247497,52.558054431],[13.40244183,52.55803120499999],[13.402535929,52.55801995],[13.402554628,52.558017711999995],[13.40256575,52.558016935999994],[13.402825082,52.557998929],[13.40293096,52.557991573],[13.402984143,52.55798787599999],[13.403096654,52.557982264],[13.403289534,52.55797264699999],[13.403469939,52.557963653],[13.403603451,52.55795700200001],[13.403636482,52.55795534400001],[13.403784906,52.55794794900001],[13.403901482,52.557942131],[13.404048753,52.557934793],[13.404311551,52.557921684],[13.404470497,52.557913765999984],[13.404628483,52.557905878999996],[13.404834677,52.557895603],[13.404982361,52.557888233999996],[13.405145446,52.55788009999999],[13.405187506000003,52.55787799699999],[13.405337098,52.557870535],[13.405497758,52.557862522],[13.405588115000002,52.55785802100001],[13.405680527,52.55785341199999],[13.405728425,52.557851018],[13.405765963,52.55784915000001],[13.405854252000001,52.55784473799999],[13.405942496,52.557840333999984],[13.406030548,52.55783594500001],[13.406155976000003,52.557829695],[13.406246259,52.557825183],[13.406343489,52.557820332999995],[13.406452586,52.55781489699999],[13.406556939,52.557809684999995],[13.406671578,52.557803972],[13.40687684,52.557793734000015],[13.407048616,52.557784681],[13.408099324,52.55773227299999],[13.4081183,52.55773132299999],[13.408161115,52.55772917499999],[13.409378307,52.557664258],[13.413103967,52.557481970999994],[13.413662951,52.557453239],[13.413793083,52.55744654],[13.414373422000002,52.55740608800001],[13.414438998,52.55742439099999],[13.414493212,52.557439511000005],[13.414598267,52.55727689599999],[13.41462364,52.557237611999994],[13.414630164,52.557199056],[13.414653487,52.557056636999995],[13.414664740999998,52.55699492000001],[13.414702204000001,52.556773731],[13.414718642,52.556670887],[13.414722012,52.556649848],[13.414728296000002,52.55661055200001],[13.414744127,52.55651145799999],[13.414747804,52.556488446],[13.414754471000002,52.556446744999995],[13.414759768,52.556413549000006],[13.41478601,52.55624949100001],[13.414791114,52.556217587000006],[13.414795792,52.556187251],[13.414809493000002,52.556102614000004],[13.414809647,52.55610161799999],[13.41481771,52.556047771],[13.41483989,52.555899815000004],[13.414855213,52.55579761300002],[13.41487518,52.555664373],[13.414889147,52.55557115199999],[13.414894705000002,52.55553400400001],[13.414919743,52.55536689099999],[13.414944253,52.55520335800001],[13.414951614,52.555154257999995],[13.414977875,52.55497488799999],[13.414983947,52.554933295999994],[13.415005356000002,52.55478703899999],[13.415025102,52.55465212299999],[13.415027997,52.55463237299999],[13.415031977,52.554496977],[13.415033331,52.554450835],[13.415031997,52.55444323799999],[13.414996107,52.55423781599999],[13.414951409000002,52.55403367899999],[13.414947963,52.554017953000006],[13.414933862,52.553951231000006],[13.41543713,52.55389589499999],[13.415795384,52.55385650899999],[13.416147791,52.553817645],[13.416498946,52.553779141],[13.416851748,52.55374034399998],[13.417221625000002,52.55369967],[13.417573389,52.553660992],[13.418318959,52.553578988],[13.418390354,52.55357114],[13.418409606,52.553569022999994],[13.41849504,52.55355962699999],[13.418597668000002,52.55354833899999],[13.419101638,52.55349290699999],[13.420272548000002,52.553364126],[13.420652785000001,52.553322294],[13.420724949,52.553314364999984],[13.420753582,52.553311007000005],[13.420837483,52.553301157],[13.420858665000003,52.55329868],[13.420934076,52.55328824899999],[13.421403062,52.55323663800001],[13.421980049,52.553173149999985],[13.422075848,52.55316260400001],[13.422160629,52.55315325999999],[13.422258828,52.55314244899999],[13.422546905000003,52.553110747],[13.422726952,52.55309092899999],[13.422985811,52.553062450999995],[13.42324818,52.55303356999999],[13.42354998,52.553000358999995],[13.425,52.553],[13.425000001,52.55284069299999],[13.425192000000001,52.552819477999996],[13.425578468,52.552776787],[13.425742566,52.55275865],[13.426477855,52.55267742],[13.426586256000002,52.552665446],[13.427046914,52.552614548],[13.427276641,52.55258756099999],[13.427364203,52.55256061899999],[13.427439326000002,52.55253751199999],[13.42752814,52.552510199000004],[13.427850762,52.552382992000005],[13.42804738,52.55230546599999],[13.428244580000001,52.552227714],[13.428283703,52.552212284],[13.42845339,52.552145369],[13.428743766,52.55203087600001],[13.428774256,52.552018845999996],[13.429257354,52.55182834599999],[13.429309746,52.551807696999994],[13.429312873,52.55180646099999],[13.429420949,52.55176383999999],[13.429631251,52.551680901000005],[13.429708522,52.55165043000001],[13.42993688,52.551560384999995],[13.429940336,52.551559019],[13.429976421,52.55154478899999],[13.430071349000002,52.55175559199999],[13.430143981,52.551731956],[13.430221911,52.55170658299999],[13.430403544000002,52.55165362499999],[13.430598601,52.551596880000005],[13.430731655,52.551558175000004],[13.43103688,52.55147987299999],[13.431200262,52.55143943],[13.431419287,52.551383892],[13.431683918,52.551316755999984],[13.431705175,52.55131131000001],[13.431966105,52.55124497],[13.431991344,52.55123871399999],[13.432134508,52.55120346000001],[13.432289685,52.551181698],[13.432596185,52.55113866199999],[13.432908199000002,52.55109485399999],[13.433430859,52.551021473999995],[13.433715714,52.55098147499999],[13.433899664,52.550955623],[13.433962221,52.550946831],[13.433992026000002,52.550939060999994],[13.434251339,52.550872803],[13.434510649000002,52.550806633],[13.434769960000002,52.550740373],[13.4348842,52.55071126099999],[13.435230721,52.550625195],[13.435485784000003,52.550556422999996],[13.435632806000001,52.550517897999995],[13.435740195,52.550489764000005],[13.436137532,52.550385675],[13.436363267,52.55032652900001],[13.436558048,52.550275507],[13.436681261,52.550243238],[13.437429782,52.550047264],[13.437570085,52.550010527000005],[13.437826528,52.549943395999996],[13.437839137999998,52.549940083],[13.438127874,52.549862354],[13.438384621,52.54979322899999],[13.438539017,52.549751660000005],[13.438560595,52.54974584799999],[13.438668649,52.54971674899999],[13.438722125,52.54970234999999],[13.438717529,52.549690565],[13.438714694,52.54967857900001],[13.438713604000002,52.549666488999996],[13.4387143,52.549654378999996],[13.438716762,52.549642363],[13.438720973,52.54963052400001],[13.438726899,52.549618968],[13.438734494,52.549607775000005],[13.438742702,52.54959799299999],[13.438752178,52.54958865999999],[13.438762861,52.54957980999999],[13.438774674000001,52.54957152299998],[13.438787558,52.549563844],[13.438801420000003,52.54955682500001],[13.438816172,52.54955051899999],[13.438831709,52.549544952000005],[13.438847926,52.549540175999994],[13.438968992,52.54950555700001],[13.43907848,52.549474245999996],[13.439109741,52.549465307999995],[13.439224831,52.549432407999994],[13.439237323000002,52.54942868],[13.439250461,52.549425885999995],[13.43926405,52.54942406000001],[13.4392779,52.549423236],[13.439291816,52.549423428000004],[13.439305579,52.54942461699999],[13.439319026,52.54942680800001],[13.439331543000002,52.549431118],[13.439343342000003,52.54943611099999],[13.439354337000001,52.549441749],[13.43936444,52.549447977999996],[13.439373536,52.54945476000001],[13.439381567000002,52.54946202299999],[13.439388462,52.54946971100001],[13.439415817,52.54951557500001],[13.439575673000002,52.549472646999995],[13.439772429,52.54941978400001],[13.440039544,52.54934889599999],[13.440309598,52.549277424999985],[13.440495008,52.549228367],[13.440700591,52.549171519999994],[13.44085608,52.549132280999984],[13.440966798,52.54910450999999],[13.441010486,52.549093658000004],[13.441034785,52.54908762099999],[13.441035931,52.549087331],[13.441038148000002,52.549086785],[13.44218028,52.548802926],[13.442226318000001,52.548791493],[13.442741519,52.548663469999994],[13.442746698,52.548662154000006],[13.443563762000002,52.548376125999994],[13.44400853,52.54822052299999],[13.444388275,52.548087674],[13.444621685000001,52.54800601],[13.44462624,52.54800441599999],[13.444783234,52.54794950299999],[13.444935779,52.547896132],[13.445179923,52.547810724],[13.445271927,52.547778531000006],[13.445360034000002,52.547747707],[13.445423261,52.54772558399999],[13.445595038,52.547665486999996],[13.445758855000001,52.547608172],[13.445963125,52.547536706],[13.446034729,52.547511662],[13.446181790000002,52.54746020399999],[13.446218481,52.54744736999999],[13.446394213,52.547385877],[13.44657647,52.547322113],[13.446693126,52.54728129699999],[13.446755815,52.547259362999995],[13.44681586,52.54723834800001],[13.447010898000002,52.547170120999986],[13.447127967,52.547257135],[13.44723808,52.547338985999986],[13.447458513000003,52.54722903999999],[13.447658572000002,52.54712924799999],[13.447805287,52.54705615200001],[13.448023151,52.54681701599999],[13.448031804,52.54680751800001],[13.448086798,52.546786274000006],[13.448410615,52.546654441],[13.449184965000002,52.54633918799999],[13.449233086,52.546319598],[13.449845003,52.546067971999996],[13.450334475,52.545867041],[13.45124665,52.545492583999994],[13.451591512,52.545359381],[13.452884463,52.544860018],[13.453117557,52.544770043999996],[13.453366375,52.54464638799998],[13.453405117,52.544623734000005],[13.453597121,52.54453170199999],[13.453740359000001,52.544580919999994],[13.453811264,52.544605277],[13.454074675,52.544695786],[13.454420126,52.54481445599998],[13.45448108,52.544835391999996],[13.454504147,52.544810572],[13.454585748000001,52.54472275299999],[13.454640205,52.54466416],[13.454671195,52.54463082099999],[13.454758035,52.54453744199999],[13.455069362,52.54464474],[13.455399826,52.54428811999999],[13.455585035,52.544088266],[13.455609636,52.54406172200001],[13.455622236,52.54404812199999],[13.455058413,52.54367445300001],[13.455434299,52.543518348999996],[13.455804442,52.543364047],[13.456989879,52.542869854],[13.457324707,52.542730264],[13.457620512000002,52.542605836],[13.457751731,52.542551100999994],[13.457770618,52.542543219],[13.457921831,52.542480149000006],[13.458037378,52.542429911000006],[13.458271829000001,52.54233084599999],[13.458547995,52.54221414399999],[13.459487384,52.54181719499999],[13.45977881,52.54169364900001],[13.460070235,52.541570102],[13.460207488,52.541510893],[13.460344727,52.541451683000005],[13.460370912000002,52.541440434],[13.460397112,52.541429185999995],[13.460423297,52.541417928],[13.460449483000001,52.54140666999999],[13.460594617,52.541343464],[13.460739766,52.54128023899999],[13.461030033,52.54115380599998],[13.461429117,52.540979976],[13.461855586,52.54079421799999],[13.462156433,52.540663173],[13.462322843,52.540593974],[13.462359145,52.540578882],[13.46254808,52.540495976],[13.462583453,52.540480448999986],[13.462726292,52.540417759],[13.462891039,52.540345470999995],[13.463079133,52.54026292199999],[13.463116632,52.54024646999999],[13.463255533000002,52.54018883399999],[13.463303354,52.540168992],[13.463676383,52.540014038],[13.463711965000002,52.539999251000005],[13.464084649,52.53984439999999],[13.464351348,52.539733576],[13.464377727,52.539722617],[13.465573769,52.539222298999995],[13.465585935,52.53921720599999],[13.465728452,52.539157591999995],[13.465765906000001,52.539141920000006],[13.465772402,52.539139181],[13.465912782,52.53907991599999],[13.466023709,52.539033108999995],[13.466103792,52.538999288999996],[13.466160273,52.538975457],[13.46630595,52.538913967999996],[13.466398438,52.538874932],[13.466495581,52.538833923999995],[13.466633984,52.538775495999985],[13.466776726000003,52.53871525299999],[13.466779106,52.53871425900001],[13.46690449,52.53866253999999],[13.467036921000002,52.5386079],[13.467126848,52.538570799],[13.467300136000002,52.538499298999994],[13.467310159,52.538495166999994],[13.46745542,52.538435793],[13.467520017,52.53840498999999],[13.467520391,52.538404824],[13.467529564,52.538461092000006],[13.467557482,52.538458414],[13.467620109,52.53845240099999],[13.467647658,52.538449746],[13.467288581,52.537934418],[13.46727649,52.53791707100001],[13.466866952,52.537329295],[13.466832327,52.53727988199999],[13.466684165,52.537073921],[13.466586613,52.53693553599999],[13.466414133,52.536702637999994],[13.466385788000002,52.536664284000004],[13.466685182,52.53652253599999],[13.466711671000002,52.536510472],[13.466738504,52.536498699999996],[13.466765666,52.536487218999994],[13.466793157000001,52.536476031],[13.466820976000001,52.53646514399999],[13.466919442000002,52.536428729],[13.466955653,52.53641905599999],[13.467410302000001,52.536310418],[13.467433165,52.536303827],[13.467455787000002,52.536296945],[13.467478184,52.536289763],[13.467500310000002,52.536282299999996],[13.467522166,52.536274545],[13.467543752,52.536266517],[13.467565053,52.536258197],[13.467586068,52.53624961300001],[13.467698544,52.536197025],[13.467739809,52.536177275],[13.467775439,52.53615717399999],[13.467801798000002,52.53613399499999],[13.467815475,52.536117656],[13.467895383,52.53601498799999],[13.46806885,52.535771556],[13.468412432000001,52.535260056000006],[13.468641168,52.534904374999996],[13.468672359,52.534855885],[13.468689277,52.534827711],[13.468704777,52.534799230000004],[13.468718855,52.53477047900001],[13.468731497,52.53474148499999],[13.468742673,52.534712264999996],[13.46869266,52.534690237999996],[13.468506522,52.53460827699999],[13.468505817000002,52.534598441],[13.468189242,52.534454948],[13.467891901,52.534320154],[13.467396391,52.534095536],[13.467388377,52.53410211300001],[13.467353818,52.53408600299999],[13.467381691,52.534063356],[13.467346354000002,52.534047136999995],[13.467308159,52.53402959599999],[13.467252096,52.534062801999994],[13.467241713,52.534068402999985],[13.467230267,52.53407317299999],[13.467217939,52.534077042],[13.467204923,52.534079948],[13.46719141,52.53408185],[13.467177609,52.534082704999996],[13.467163756000001,52.534082517],[13.467150029000003,52.534081278],[13.467136676,52.53407900999999],[13.467123889,52.534075742000006],[13.467111856,52.534071540999996],[13.467024675,52.53403132799999],[13.467014749,52.534035677],[13.467004109,52.534039324000005],[13.466992862,52.53404222599999],[13.466981154,52.534044357999996],[13.466969136,52.534045686000006],[13.466958826,52.534054678],[13.466760995,52.533970352],[13.466679387,52.533936522],[13.466596987,52.533903411],[13.466513839,52.53387100900001],[13.466429944,52.533839335],[13.466345316,52.53380838799999],[13.466259985000002,52.53377817799999],[13.466173949,52.53374870599999],[13.466087239,52.533719979999994],[13.465966693,52.53368023200001],[13.46495687,52.53334508199999],[13.46493081,52.533336426999995],[13.46452462,52.533201607],[13.464541303,52.533150665],[13.464524186,52.533142207000004],[13.464508142,52.533133008],[13.464493242,52.533123112999995],[13.464479573,52.533112577999994],[13.464467208,52.533101466999994],[13.464456217,52.533089825000005],[13.464446658,52.533077725],[13.464438572,52.53306523],[13.464433987,52.533055919],[13.4644309,52.533046365999994],[13.46442935,52.53303669],[13.464429351,52.533026962],[13.464430898,52.53301728099999],[13.464433988,52.533007736],[13.464438588000002,52.532998426999995],[13.464444652,52.532989425000004],[13.463389441,52.532633739],[13.463360019,52.53259427300001],[13.463248754,52.532399512999994],[13.463058784000001,52.532169026],[13.462370573,52.531334022],[13.462207485,52.531136133],[13.461953852,52.530828393],[13.461614178,52.53041623699999],[13.461576713,52.530370777],[13.461336271,52.53007901400001],[13.461298595000002,52.53003328999999],[13.461253522000002,52.529978596],[13.461084758,52.529773826],[13.461006026,52.529678298],[13.460674497,52.52935789899999],[13.458058357,52.52877530999999],[13.457587066000002,52.528671723999985],[13.457294632340295,52.52860718268775],[13.457862886753123,52.52806997359405],[13.458622106962466,52.52736850979157],[13.458637190316756,52.52735455756886],[13.45874594331022,52.5272546838764],[13.458875872755101,52.52713541728704],[13.459023231428764,52.527002974497265],[13.4591726090991,52.526880224146886],[13.45932959899666,52.52675806343973],[13.459479337611802,52.52665214000967],[13.459734809319933,52.52649430575899],[13.459910646505696,52.52639533689888],[13.460172930207788,52.52626824210946],[13.460349828142096,52.52618722548278],[13.460489649801652,52.526130134984996],[13.460641386148074,52.5260708599198],[13.46080675588299,52.526009218743184],[13.460935070129999,52.52596490422794],[13.461578799083465,52.52574223356807],[13.46246532307596,52.52544590070663],[13.463005360851772,52.525266219826996],[13.463070725859607,52.5252444648154],[13.463859446338278,52.52498135699931],[13.464092019572352,52.524903865511],[13.46409566601443,52.52490264646349],[13.464426995152243,52.52479150752485],[13.46468140290987,52.52471174267721],[13.464922927833184,52.524641185544816],[13.46515039817786,52.52458152637187],[13.465395018990371,52.52452358528832],[13.465794725047667,52.524437015009276],[13.46613599857648,52.524365022903986],[13.466139580679274,52.52436426409963],[13.466298171473536,52.52433052982355],[13.466708866561193,52.52424329446484],[13.466821435483718,52.52421937978972],[13.466829305738566,52.52421769254045],[13.46748341685421,52.52407618992103],[13.467527909437857,52.52406606965443],[13.467853814745869,52.523988268225864],[13.467913747294036,52.52397302372805],[13.468234152166845,52.52388642215973],[13.468303789367898,52.52386625480614],[13.468572693066461,52.523783053329794],[13.468653845054002,52.5237559578366],[13.468919148171404,52.52366065619527],[13.468959746454503,52.52364552890857],[13.469188348878832,52.5235572274144],[13.469305628429922,52.523506888363855],[13.469517529837574,52.52340618676385],[13.469537061419828,52.5233967417727],[13.469725262524763,52.52330414031972],[13.46977329632344,52.52327945703808],[13.469954097011723,52.523182455566484],[13.47000039333781,52.5231565282729],[13.470182093621013,52.52305032672025],[13.470230575879036,52.523020636482165],[13.470404975682118,52.522908734917415],[13.470449549861423,52.522878814771914],[13.470658849028966,52.52273181281116],[13.470719408993316,52.522686368617386],[13.47091580729991,52.52252876667071],[13.470948437244699,52.52250153659818],[13.471114635312459,52.52235723490156],[13.471166445523165,52.522309036053144],[13.471319842846139,52.5221558344137],[13.471341660338423,52.522133314430874],[13.471472357666324,52.521993813007114],[13.471513457184862,52.52194675789499],[13.471631353951935,52.521801556563744],[13.47166384002955,52.52175875890118],[13.471810634908978,52.521551257195256],[13.471830714148082,52.52152141301715],[13.471964708661783,52.52131161143124],[13.471983937832318,52.521279735452566],[13.472197227493186,52.5209044328815],[13.47220147379225,52.52089685207296],[13.472328970139166,52.52066587587482],[13.472619484204587,52.52014612859916],[13.472684709494143,52.52005155510017],[13.473541051998494,52.518841598857705],[13.47354226343467,52.51883988222291],[13.474529928688604,52.51743627073463],[13.47453096778956,52.51743479031606],[13.474918854033426,52.51688078580012],[13.474934833604951,52.51685702855949],[13.475118326212574,52.516572726391885],[13.475133026771212,52.51654897031601],[13.475232922206716,52.51638036911953],[13.475236753911894,52.51637382296702],[13.475270752303654,52.516315022558274],[13.475274698797506,52.51630810741001],[13.475306856203886,52.5162510124568],[13.475344311949952,52.516184817141],[13.475348875611703,52.51617662415368],[13.47551523272459,52.51587318002246],[13.475681020637525,52.51558052146924],[13.475681724170817,52.51557927658926],[13.475685538234474,52.5155725116465],[13.475796782073056,52.51537910642873],[13.476016630942139,52.51499707063496],[13.476023183949591,52.514986825876996],[13.476073240641353,52.51490859091153],[13.476157523229412,52.5147813913971],[13.476161081771526,52.51477597020302],[13.476172981297596,52.51475767006261],[13.476176617348012,52.51475202268833],[13.476248014417711,52.51464002184317],[13.4762597220629,52.514621023782574],[13.476380016602981,52.514418922342834],[13.476408467927381,52.51436608092655],[13.476467464374632,52.51424388019973],[13.47649377329091,52.514181125316846],[13.476532169959263,52.51407352482755],[13.476549104409743,52.51401761599123],[13.476658790265894,52.51357811454286],[13.47666120633655,52.51356805119943],[13.476675936253244,52.51350418073249],[13.47694999108595,52.51237700323468],[13.476959121691488,52.51233939586118],[13.47705849382552,52.51193556756124],[13.47706413041532,52.51191020758685],[13.477100424452216,52.51172740709601],[13.47710712313146,52.51168544694313],[13.477135515355554,52.51145064653392],[13.477139015613242,52.511407760946916],[13.477145610420301,52.511252260825955],[13.477145754496815,52.511209447731005],[13.47714044952365,52.511060747758805],[13.477137598397194,52.51102109559327],[13.47712289387358,52.51088519574036],[13.477118347172901,52.51085234971085],[13.47708804124503,52.51067275003861],[13.47707910974543,52.51062993655373],[13.477040904763637,52.510476336982975],[13.477029143314368,52.51043544186651],[13.47698113866327,52.51028854241334],[13.47696168891982,52.51023698582622],[13.476870482456054,52.51002408686829],[13.476841789008567,52.50996536687994],[13.47673198333962,52.50976576812413],[13.476696688056919,52.50970821133115],[13.47654008206541,52.509477213075115],[13.47650091736524,52.509424342355274],[13.476396614369166,52.50929484349005],[13.476384257345506,52.509279856359804],[13.476242253603047,52.509111557892574],[13.47620635228831,52.5090715379348],[13.475882421153356,52.50873124092202],[13.475803571688498,52.508648161142126],[13.475789046247982,52.50863278173887],[13.475785849408274,52.508629413827364],[13.474936148710643,52.50773867413172],[13.474833160896706,52.50763022741666],[13.4748323041279,52.507629326435776],[13.474623370329049,52.507409902675356],[13.474274433657305,52.507043280435695],[13.47427230043619,52.507041046476466],[13.474126631252474,52.5068890007822],[13.47359945340392,52.50633725941494],[13.473516981553368,52.50625106853755],[13.47351485559014,52.50624885397587],[13.47297204471516,52.5056852596796],[13.472943418431473,52.505656763324815],[13.472675714051839,52.50540106608094],[13.472658241825695,52.50538476924354],[13.472575040629298,52.505308970089196],[13.472535569432265,52.50527475998283],[13.472432568354277,52.505189760998654],[13.472280353359812,52.50506417159694],[13.472048505134008,52.504871349723786],[13.472045000718063,52.50486844740018],[13.471606973142082,52.50450719255461],[13.471380645883308,52.5043198364663],[13.471361302889795,52.50430435181072],[13.471289079041835,52.504242242193506],[13.47107201626794,52.504046057522956],[13.470896941555633,52.50385862933206],[13.470890241071134,52.50385091180279],[13.470790639578592,52.50373824902857],[13.470781604373432,52.503726112226936],[13.47065712277602,52.50355868687897],[13.470456784644561,52.50322253826269],[13.470390027162216,52.50308434180469],[13.470389388016562,52.5030830224116],[13.47036608059125,52.503035043758274],[13.47035457685418,52.50300593381115],[13.470303715698904,52.50284828886131],[13.470277268100407,52.502758933758706],[13.470229228399008,52.502596978510866],[13.470215340367385,52.502539566965645],[13.470204292990966,52.50246118209198],[13.470198476476753,52.50242740112782],[13.470172635550265,52.50230045159726],[13.470167201010531,52.50227178475103],[13.47012357766725,52.501959305253855],[13.47011412179077,52.501908621965484],[13.470047712549253,52.501624622707766],[13.470039407107002,52.501593114359075],[13.469992501993561,52.50143331489089],[13.46998533191617,52.50141057849254],[13.469928126569434,52.50124097914449],[13.469919721459739,52.501217635957744],[13.469786410680703,52.50086953748042],[13.469780520206797,52.50085472417488],[13.469699451345578,52.50065814029176],[13.46969745639174,52.500653227839855],[13.469660721587083,52.50056410464026],[13.469366647758424,52.49982873094743],[13.469186150335394,52.4993771741867],[13.469185227092359,52.49937487757749],[13.46916242536209,52.499318477837996],[13.469061205029806,52.49906814769776],[13.469058768350598,52.49906220848951],[13.468919258122604,52.49872701008315],[13.468911329139944,52.49870876420759],[13.468802421933438,52.49846836545032],[13.468772328231251,52.49840980028545],[13.46863242145085,52.49816690186548],[13.468579087457702,52.49808683505491],[13.468399081735656,52.497849937030175],[13.468366524681668,52.49780974732171],[13.468257621926986,52.49768334849237],[13.468214849716901,52.49763707760332],[13.468030046239784,52.497450279532686],[13.467996969954894,52.49741837967288],[13.467870268077093,52.497301680964355],[13.467852477262323,52.49728567150191],[13.46775397629456,52.49719905409412],[13.467567310337284,52.49703126426569],[13.467527544160902,52.49699724819157],[13.467321942110958,52.496829750210296],[13.467273946301427,52.4967927175509],[13.466933444229147,52.4965437207671],[13.466903440512782,52.49652246332412],[13.46671393975895,52.496392365069354],[13.466707398790811,52.496387904468975],[13.465875276839071,52.49582421859448],[13.465519946829295,52.49558175316456],[13.465065956077112,52.495261877524186],[13.464394023208198,52.49477665124712],[13.464333567275819,52.494735617355126],[13.464220881709224,52.494663701029545],[13.464027754620712,52.49451950327204],[13.46384842885748,52.494374722549296],[13.463691898869351,52.494240655119256],[13.463680949290463,52.49423059360069],[13.46357184480033,52.49412949276381],[13.463564948778304,52.494122770412126],[13.463546935880998,52.49410564522847],[13.463476443362678,52.494040266483886],[13.463370601697083,52.493937685730344],[13.46336666824405,52.49393389447312],[13.46300807950966,52.49359016680991],[13.462859454219736,52.49344077446499],[13.462683528034475,52.49324523012594],[13.462566960499425,52.49310532065088],[13.462510404853804,52.49303085180065],[13.462455856758886,52.492958613297574],[13.462374448291659,52.49283492053293],[13.462275614093794,52.492676469396166],[13.462265900635977,52.49266092805671],[13.46210243950658,52.49238968508228],[13.462086213288003,52.49236398204535],[13.461849103854105,52.49200488469172],[13.461840291507603,52.491991834907644],[13.461456377244245,52.491435739171806],[13.461442861750669,52.49141617279446],[13.461435226047074,52.491405318387905],[13.46085450569713,52.49059452480957],[13.460852672635822,52.49059197622174],[13.460523054267789,52.49013560861138],[13.460509918029057,52.49011602724334],[13.460439828635106,52.490004369184085],[13.460363001705892,52.48986870369856],[13.460328140306478,52.48979854889763],[13.460289747821573,52.48970040049267],[13.460242695741671,52.48957483543235],[13.46022226317776,52.489493999329795],[13.460208779292271,52.48938778230655],[13.460199439655948,52.48924620288703],[13.460202175969492,52.489114191389625],[13.460218133998,52.488926412496134],[13.460264772687012,52.48851213836842],[13.460265495869121,52.488505337747185],[13.460279819775728,52.48836225002149],[13.46032383236792,52.48793376178608],[13.460324709389168,52.48792445014178],[13.460348600123222,52.487645549775536],[13.460350206324447,52.48761963532351],[13.46035899867251,52.48739023515599],[13.460359394964282,52.487371898020264],[13.460360388194102,52.48716919795591],[13.460360196857051,52.48715177128789],[13.460356191876675,52.48700267129907],[13.460355730253442,52.48699050777475],[13.460349526030539,52.48686400781891],[13.460348530700658,52.486848304073604],[13.460333024051474,52.48664880421392],[13.460330590881272,52.48662447351415],[13.460306384313798,52.48642657376202],[13.460303231379095,52.48640447319323],[13.460260022636497,52.48613947365747],[13.460257300872549,52.48612412024608],[13.460206892234623,52.485860920798544],[13.460205741086341,52.485855076234365],[13.460163071178362,52.485644259515894],[13.46009614033031,52.485312457001086],[13.459872946922301,52.48420157339785],[13.459872360326996,52.484198692223934],[13.459807927443872,52.48388633761462],[13.459359925239,52.48166028773317],[13.459312103814305,52.48142392471864],[13.458757757925689,52.478683047608094],[13.458646996810293,52.478133331177546],[13.458217839193066,52.47600005144754],[13.462,52.475999999999985],[13.462,52.470000000000006],[13.455,52.470000000000006],[13.455000001160967,52.47098684392355],[13.454720855347789,52.47083326296501],[13.454651518070715,52.47079741885893]]],[[[13.277000000000001,52.504999999999995],[13.269,52.50499999999999],[13.269,52.511999999999986],[13.277,52.512000000000015],[13.277000000000001,52.504999999999995]]]]}}]}
