{"type":"FeatureCollection","features":[{"type":"Feature","properties":{"sourceOwner":"way/943646072","scope":"Exact named Tegeler Hafenbruecke footprint; no surrounding land fill"},"geometry":{"type":"MultiPolygon","coordinates":[[[[13.2707508,52.5900927],[13.2710396,52.5899581],[13.2710602,52.5899485],[13.2710824,52.5899382],[13.2713373,52.5898194],[13.2718344,52.5895878],[13.2718862,52.5895636],[13.2720499,52.5894874],[13.2720318,52.5894731],[13.272008,52.5894542],[13.2718438,52.5895308],[13.271792,52.5895549],[13.2717051,52.5895954],[13.2712708,52.5897978],[13.271031,52.5899095],[13.2709858,52.5899306],[13.270709,52.5900596],[13.2707508,52.5900927]]]]}}]}
