{"type":"FeatureCollection","features":[{"type":"Feature","properties":{"revision":"v1.0.100","baselineRelease":"v1.0.99","step":10,"districtRelations":{"55756":"Adlershof","407652":"Niederschönhausen","409203":"Alt-Hohenschönhausen","413420":"Neu-Hohenschönhausen","413421":"Oberschöneweide"},"adminLevel":10,"scopeAreaM2":35275521.265982576,"addedAreaM2":33100175.805124056,"retainedScopes":[{"path":"bounds.geojson","sha256":"cc93f63bb8ff0bc2bc2f036bf7c4e939bac4bf65e9e6c751761b7fcbd5e27e2c"},{"path":"bounds-ring-v182.geojson","sha256":"755eb76022a7619095e72221446d62de2cd94fd6b2adae666d08b2fe56939aa4"},{"path":"bounds-city-v183.geojson","sha256":"e056fd0bf2336ad2276aead2d83cb18ecd0338963bb206f276a36b8ba8aaa5cd"},{"path":"bounds-outskirts-v187.geojson","sha256":"6e4a9f4122ac3dee1bcac504542187c134de4aa5da446ce32ba07b2156336152"},{"path":"bounds-north-v190.geojson","sha256":"618d68e7c9f72fd94e09926a70012083825e0096585e4a4ab089bcf302e9452b"},{"path":"bounds-named-v194.geojson","sha256":"28ed70575ac051faf6c2c8a5bf08d52e2c6922d59411c14048810d18158250b5"},{"path":"bounds-named-v198.geojson","sha256":"2c5a132a5dc129a17ca02df7a7ea05b71ec0cac2cc962ffbed7e405225687755"}],"baselineManifestSha256":"d18c3f4a9d08d840a5bbc50e68df4c5b68624eb41a2335c2859a3be44a538891","retainedChunkCount":1677,"retainedFootprintCount":90,"preservationPolicy":"Exact union of every earlier documented coverage polygon plus every delivered manifest footprint. No earlier descriptor or packet is edited.","heightPolicy":"Ordinary new terrain uses existing outline baseline y=3; full available LoD2 parent height envelopes, otherwise tagged/explicit estimated OSM heights. No invented detailed facade or roof survey."},"geometry":{"type":"MultiPolygon","coordinates":[[[[13.5202823,52.426620299999996],[13.5199511,52.4267279],[13.5200987,52.4268714],[13.517976000000003,52.432711499999996],[13.5266641,52.4377459],[13.527291,52.4381007],[13.5306697,52.44001639999998],[13.5309008,52.4399101],[13.5324234,52.4407904],[13.530720300000002,52.44195],[13.531056200000002,52.4421354],[13.531066900000003,52.44214159999999],[13.5312145,52.44222639999999],[13.5304568,52.44274199999999],[13.5299709,52.4430726],[13.5310614,52.4436672],[13.531583,52.4433159],[13.5331631,52.442250299999984],[13.5333124,52.442335099999994],[13.5334692,52.44241809999999],[13.5336425,52.44251469999999],[13.5337851,52.442594099999994],[13.5339144,52.4426696],[13.5340616,52.442751900000005],[13.5342024,52.44282969999999],[13.5343478,52.442910499999996],[13.5344943,52.44299159999999],[13.5346539,52.4430803],[13.5348089,52.443166],[13.5349656,52.44325250000001],[13.5350981,52.4433257],[13.5352432,52.4434066],[13.5353822,52.44348339999999],[13.5355252,52.443563100000006],[13.5356618,52.44363839999999],[13.5358036,52.4437177],[13.5359474,52.4437967],[13.536079,52.44386910000001],[13.5363687,52.4440323],[13.536628,52.44417839999999],[13.5329892,52.44643959999999],[13.5328016,52.4477358],[13.5397532,52.4481178],[13.5404381,52.4481554],[13.54077,52.44835289999999],[13.5419115,52.44897540000001],[13.5423339,52.44920450000001],[13.542888400000002,52.45019949999999],[13.5452834,52.449689199999995],[13.5452772,52.44967760000001],[13.5490851,52.4488649],[13.549091300000002,52.44887299999999],[13.5533062,52.447975],[13.554965000000001,52.45083739999999],[13.556412700000001,52.4505115],[13.557250800000002,52.45030259999999],[13.5579032,52.4500402],[13.5578995,52.4501501],[13.5585102,52.4499025],[13.5586053,52.4488908],[13.5586797,52.447984899999994],[13.5587828,52.446908400000005],[13.558740700000001,52.44664629999999],[13.5588466,52.4455074],[13.559006500000002,52.44343879999998],[13.5591484,52.4418385],[13.5592408,52.44059959999999],[13.5593266,52.43910840000001],[13.5593867,52.43877359999998],[13.5594897,52.4383968],[13.5598158,52.43769039999998],[13.5600905,52.437198599999995],[13.5603737,52.43675909999999],[13.5608801,52.4360527],[13.5613951,52.4352939],[13.562699700000001,52.43343099999999],[13.563094600000001,52.43284489999999],[13.5633091,52.4323687],[13.563498,52.431835],[13.5635838,52.4313116],[13.5636525,52.43063659999999],[13.5633852,52.4266774],[13.5615859,52.426485099999994],[13.5609157,52.42645839999999],[13.5558343,52.4258629],[13.5555754,52.425871],[13.5554176,52.42590049999998],[13.5543099,52.425785299999994],[13.5543474,52.425669299999996],[13.5499227,52.4251238],[13.5496361,52.425083099999995],[13.5493216,52.42495230000001],[13.5482512,52.42486040000001],[13.5471198,52.4247923],[13.5451862,52.42476289999998],[13.5446243,52.424883099999995],[13.5442249,52.424912699999986],[13.5437296,52.424883099999995],[13.5400235,52.42508269999999],[13.5290142,52.42569349999999],[13.524081700000002,52.425971700000005],[13.5239121,52.4259749],[13.523622699999999,52.4259319],[13.5234953,52.42590989999999],[13.5212446,52.426036799999984],[13.5208401,52.4261591],[13.5204662,52.42624319999999],[13.5205057,52.42655739999999],[13.5204517,52.42656749999999],[13.520432000000001,52.4265915],[13.5202823,52.426620299999996]]],[[[13.5525036,52.453587999999996],[13.551499300000001,52.453697799999986],[13.5506668,52.453996],[13.5490532,52.4542732],[13.5483751,52.4544615],[13.5475855,52.45468640000001],[13.5465212,52.4549898],[13.5452395,52.4552047],[13.5435128,52.4553575],[13.5426189,52.4554286],[13.5426171,52.455482],[13.5421817,52.4555063],[13.540161900000001,52.45561489999999],[13.5400748,52.45558559999999],[13.5383429,52.455584900000005],[13.5381009,52.45556570000001],[13.5377321,52.45549710000001],[13.537268600000003,52.4553245],[13.5366926,52.4550025],[13.5356752,52.45438910000001],[13.535069500000002,52.454107399999984],[13.533904,52.453703100000006],[13.533706300000002,52.4536288],[13.533154,52.45340359999999],[13.531925100000002,52.4531734],[13.5307955,52.45293499999999],[13.5290642,52.45273890000001],[13.5285307,52.45268449999999],[13.528067600000002,52.4527563],[13.5273895,52.4528766],[13.5265054,52.45304399999999],[13.525939,52.45314339999998],[13.5252094,52.453305500000006],[13.5244198,52.453525199999994],[13.524175,52.4535949],[13.5237589,52.4537135],[13.5232267,52.453928],[13.5226431,52.4541477],[13.5219993,52.4544981],[13.5218015,52.45463829999999],[13.5216303,52.45475959999999],[13.5211754,52.4551937],[13.5208063,52.45559649999999],[13.5204715,52.45611949999999],[13.520282700000001,52.45656410000001],[13.5200939,52.45694060000001],[13.519810600000001,52.45723879999999],[13.5193557,52.457578700000006],[13.5189523,52.457772199999994],[13.518514600000001,52.4578978],[13.5179352,52.4580081],[13.517828,52.4580285],[13.5172186,52.45803370000001],[13.516386,52.4581122],[13.5156736,52.458232499999994],[13.5150728,52.45842079999999],[13.5125509,52.4593674],[13.5102867,52.460448],[13.5082841,52.461240700000005],[13.5062738,52.46191799999999],[13.505743000000002,52.46217049999999],[13.5043783,52.46266729999999],[13.5034342,52.4632373],[13.5027389,52.463739299999986],[13.5022926,52.464215200000005],[13.5013399,52.4655173],[13.5001297,52.46727949999999],[13.4996125,52.4677867],[13.4991846,52.4687782],[13.4990222,52.4689924],[13.4988073,52.46927209999999],[13.4986582,52.4693983],[13.4984496,52.46964979999999],[13.4982362,52.4698252],[13.498107,52.4699132],[13.4975605,52.4701633],[13.4972736,52.47024429999999],[13.4969036,52.4703281],[13.4961888,52.470580099999985],[13.495847200000002,52.470917799999995],[13.495777500000003,52.47113319999999],[13.4953287,52.4717703],[13.4950409,52.47232929999999],[13.4948443,52.4727783],[13.4946791,52.4735085],[13.4945077,52.47430550000001],[13.4944835,52.4752026],[13.4949589,52.47660389999999],[13.4954907,52.47778],[13.4956033,52.47833520000001],[13.4955069,52.4791685],[13.495109000000001,52.4806171],[13.4949711,52.48143770000001],[13.49462,52.4821996],[13.4943553,52.48277589999999],[13.4941951,52.48312409999999],[13.496637800000002,52.48330399999999],[13.4967049,52.483317199999995],[13.4968149,52.483289299999996],[13.4968593,52.48328939999999],[13.4968688,52.4832736],[13.4970661,52.48330080000001],[13.4972426,52.48330579999998],[13.497883,52.48328039999999],[13.4982784,52.48321210000001],[13.4985909,52.483122599999994],[13.4995903,52.48287400000001],[13.5005855,52.4826829],[13.5013119,52.482595599999996],[13.5014175,52.482589],[13.5015358,52.482575399999995],[13.501966300000001,52.48244939999999],[13.5031442,52.480189499999994],[13.5041913,52.4782815],[13.5043372,52.4780671],[13.5077876,52.47491480000001],[13.5116586,52.47548979999999],[13.513461,52.475746],[13.5140361,52.47577739999999],[13.5144996,52.47576690000001],[13.514988799999998,52.4757356],[13.5154866,52.475678],[13.5158643,52.4755996],[13.5163106,52.475448],[13.5205678,52.4740103],[13.5217732,52.47517129999999],[13.5242372,52.4733847],[13.5306615,52.4678355],[13.5323867,52.4690538],[13.5351301,52.47125030000001],[13.538118700000002,52.473588199999995],[13.5398694,52.4749399],[13.5420688,52.4739886],[13.5484774,52.4733124],[13.5500426,52.471558],[13.5516095,52.4697889],[13.5528906,52.4691983],[13.552389,52.468774499999995],[13.5543125,52.4667652],[13.5549032,52.46684999999999],[13.5557748,52.46691920000001],[13.5572562,52.46680129999999],[13.557881900000002,52.46664729999999],[13.5584677,52.4663744],[13.5583949,52.46612259999999],[13.5576436,52.4664625],[13.5575847,52.4664151],[13.5571748,52.4664962],[13.5565492,52.46646779999999],[13.5553222,52.46630629999999],[13.5548557,52.466155],[13.5615428,52.4586422],[13.5638366,52.45654559999999],[13.566303600000001,52.45579399999999],[13.566595700000002,52.45551699999999],[13.5663605,52.4554169],[13.5658058,52.4551808],[13.5651458,52.454923599999994],[13.5645832,52.45477199999999],[13.5649402,52.45316969999999],[13.5645183,52.453301599999996],[13.5639773,52.45342029999999],[13.5633281,52.45346640000001],[13.5628087,52.45346640000001],[13.5624084,52.453341099999996],[13.5618349,52.4532159],[13.5612831,52.45316309999999],[13.5609585,52.45318290000001],[13.560763700000003,52.453176299999996],[13.5607094,52.45319969999999],[13.5604391,52.453202699999984],[13.5598258,52.453229300000004],[13.558891900000003,52.45330160000001],[13.5582113,52.4532166],[13.5567436,52.4532009],[13.5559797,52.453221799999994],[13.5540657,52.453274199999996],[13.5525036,52.453587999999996]]],[[[13.5259001,52.5545539],[13.5259592,52.554572500000006],[13.525987700000002,52.554530500000006],[13.525922200000002,52.5545142],[13.5260538,52.55432720000001],[13.5262311,52.55403679999999],[13.5263054,52.5539886],[13.5266295,52.55341489999999],[13.526930700000001,52.5528418],[13.5271806,52.55228819999999],[13.5272382,52.55227339999999],[13.527222000000002,52.552174599999994],[13.5274839,52.551523399999994],[13.5277034,52.55089709999999],[13.5277497,52.550830299999994],[13.5277478,52.55081450000001],[13.5277405,52.55079839999999],[13.5279554,52.5502186],[13.5278915,52.5501627],[13.5281906,52.5494396],[13.5282435,52.549446800000005],[13.5282677,52.5493908],[13.5282152,52.549383699999986],[13.528446000000002,52.54878419999999],[13.5284606,52.5487704],[13.5286577,52.54824150000001],[13.5288234,52.54776079999999],[13.5288062,52.5477342],[13.5288437,52.54763059999999],[13.5288778,52.5476104],[13.5291877,52.54675340000001],[13.5293381,52.546359200000005],[13.5295006,52.54596989999999],[13.5296935,52.54543969999999],[13.5296979,52.54540159999999],[13.5298364,52.544963100000004],[13.5300073,52.544471099999996],[13.5302039,52.54404949999999],[13.530449700000002,52.5435479],[13.530567000000001,52.543544499999996],[13.5305744,52.5435264],[13.5306297,52.54294469999999],[13.5305977,52.54291510000001],[13.530634,52.5428166],[13.5307567,52.5424401],[13.5307822,52.542388299999985],[13.5309924,52.54173610000001],[13.5312438,52.5412311],[13.5313581,52.5409847],[13.531897800000001,52.539527699999994],[13.5322649,52.5393146],[13.5315767,52.5391736],[13.5316877,52.5389729],[13.5312909,52.53889259999998],[13.531431700000002,52.5389106],[13.5314965,52.5388571],[13.5315932,52.53860000000001],[13.531096100000001,52.538487599999996],[13.5307648,52.5384066],[13.5305952,52.5384569],[13.5294541,52.538168899999995],[13.5292061,52.53810090000001],[13.5287867,52.537992900000006],[13.5278436,52.53780319999999],[13.5264846,52.537371],[13.5254197,52.53701239999999],[13.5254036,52.53703110000001],[13.5253549,52.537013999999985],[13.5253613,52.53700709999999],[13.5245699,52.53673149999999],[13.524578199999999,52.53672170000001],[13.5237123,52.53644340000001],[13.523492,52.5363844],[13.5230663,52.53627449999999],[13.5227974,52.53621549999998],[13.5223856,52.5361344],[13.5217894,52.536039499999994],[13.5215453,52.53600949999999],[13.520789100000002,52.535936199999995],[13.5205079,52.53591720000001],[13.5198023,52.5358889],[13.519207900000001,52.5358348],[13.5192122,52.5358291],[13.519163700000002,52.5358246],[13.519251,52.535708299999996],[13.517745700000003,52.5356],[13.5170363,52.5355593],[13.5168837,52.53554760000001],[13.5156937,52.5354683],[13.5143632,52.5353705],[13.5139918,52.53534729999999],[13.5135455,52.535315499999996],[13.5127713,52.53526639999999],[13.5103136,52.535093800000006],[13.5100446,52.535078000000006],[13.509439900000002,52.5350355],[13.5085784,52.53498119999999],[13.507712,52.5349146],[13.5075277,52.534905599999995],[13.5072729,52.534884399999996],[13.5068894,52.534856700000006],[13.506500800000001,52.53483440000001],[13.506260000000001,52.5348161],[13.5060176,52.534801],[13.5058298,52.53478609999999],[13.5056376,52.53477620000001],[13.5056492,52.534953599999994],[13.5054699,52.534941999999994],[13.504649000000002,52.5348836],[13.504650200000002,52.534866399999984],[13.502624300000003,52.5347469],[13.5016187,52.534706299999996],[13.5011729,52.5346814],[13.5003274,52.5346309],[13.4998225,52.534602799999995],[13.4998262,52.534588499999984],[13.4995648,52.53457039999999],[13.4992801,52.534552299999994],[13.4992728,52.534555],[13.4989843,52.53454119999999],[13.4987899,52.534529499999984],[13.498346800000002,52.53451079999999],[13.4970818,52.53447609999999],[13.496912499999999,52.5344728],[13.4962913,52.5344552],[13.4960223,52.534453799999994],[13.4958963,52.5344517],[13.4957611,52.5345103],[13.4956677,52.5345035],[13.495506,52.53450380000001],[13.4954384,52.53449870000001],[13.4954394,52.5344506],[13.495025400000001,52.53444300000001],[13.4949624,52.53442199999999],[13.4936387,52.534357400000005],[13.491906,52.53425339999999],[13.4915691,52.5342284],[13.4898451,52.53412829999999],[13.489194900000001,52.5341067],[13.487212500000002,52.5339909],[13.4872175,52.53398609999999],[13.4872309,52.5339788],[13.4870381,52.5339708],[13.487031,52.53399900000001],[13.486259500000001,52.5339537],[13.4861975,52.5339285],[13.485122000000002,52.5338614],[13.485126200000002,52.5337917],[13.4846802,52.5337578],[13.483952400000002,52.5337142],[13.4816592,52.53357969999999],[13.4801491,52.533498099999996],[13.4788242,52.53342010000001],[13.478730900000002,52.53341349999999],[13.478721100000001,52.5335098],[13.4779118,52.533463],[13.477580500000002,52.5334427],[13.477115,52.53341769999999],[13.4771033,52.5334926],[13.477011000000001,52.5334872],[13.4770193,52.5334251],[13.4770054,52.53342430000001],[13.4770077,52.53341009999999],[13.476913,52.5334047],[13.4763357,52.533369799999996],[13.476024800000001,52.5332538],[13.4757924,52.5331671],[13.475569100000001,52.53311879999998],[13.4756083,52.5331791],[13.4751694,52.53367490000001],[13.4751217,52.53373479999999],[13.4747718,52.534282],[13.474637200000002,52.53445059999999],[13.474300200000002,52.53485329999999],[13.4736489,52.5355849],[13.4734269,52.535848],[13.4733379,52.5359488],[13.4733039,52.5359823],[13.4732395,52.5360499],[13.4731699,52.536123],[13.4730906,52.53620949999999],[13.4713197,52.5380737],[13.4713971,52.5380689],[13.4705625,52.53927049999999],[13.4698673,52.5402801],[13.469892700000003,52.5402986],[13.4698406,52.5404583],[13.4697562,52.540690399999995],[13.4695765,52.54116549999999],[13.469485700000002,52.5414224],[13.4691729,52.54225269999999],[13.4686434,52.54368879999999],[13.4685322,52.54399819999999],[13.4677557,52.5460949],[13.4677009,52.546250199999996],[13.467588100000002,52.54655579999999],[13.4675298,52.546692199999995],[13.4674683,52.54686379999999],[13.4672476,52.5474247],[13.467017500000003,52.548071],[13.4673631,52.54832069999999],[13.467619500000001,52.548299699999994],[13.4684158,52.54823449999999],[13.468468700000003,52.54823269999999],[13.468526,52.5482305],[13.469541600000001,52.54777599999999],[13.4699289,52.54774189999999],[13.4713957,52.5477171],[13.471680800000001,52.547710699999996],[13.472318,52.5477005],[13.4724837,52.5476979],[13.472976,52.547696699999996],[13.476533400000001,52.547624799999994],[13.4781382,52.5475949],[13.478796800000001,52.5475751],[13.4796454,52.5475471],[13.4804595,52.5481205],[13.480341100000002,52.548232299999995],[13.4802342,52.548351200000006],[13.4801102,52.54849609999999],[13.4799601,52.54871729999999],[13.479882300000002,52.5488461],[13.4798208,52.54897509999999],[13.4797652,52.5491015],[13.479342,52.549303],[13.4797474,52.5496214],[13.4800819,52.5494701],[13.480254,52.5496027],[13.480369900000001,52.5495513],[13.4803719,52.5494519],[13.481607700000001,52.54947839999999],[13.4816875,52.54948679999999],[13.4817638,52.54949780000001],[13.481904800000002,52.54953020000001],[13.4819728,52.5495481],[13.4820325,52.5495678],[13.4820986,52.549594199999994],[13.4822224,52.54964749999999],[13.4822816,52.54968179999999],[13.4827275,52.5500037],[13.4836732,52.550724],[13.483832700000002,52.55083849999999],[13.484190200000002,52.5511039],[13.485404200000001,52.5519975],[13.4856771,52.5521957],[13.485741900000003,52.552190199999984],[13.485804700000001,52.55217749999999],[13.4860303,52.552343],[13.4861168,52.5523984],[13.4886556,52.551973],[13.4903504,52.5516948],[13.4918789,52.551359399999996],[13.4940711,52.550875399999995],[13.494415100000001,52.55079740000001],[13.4944298,52.5507847],[13.494987,52.55200859999999],[13.4952862,52.5526532],[13.4954434,52.5529997],[13.4955728,52.553351499999984],[13.4956378,52.5536083],[13.4956736,52.553865299999984],[13.495676800000002,52.55412979999999],[13.4956586,52.55440709999999],[13.4956121,52.5547062],[13.4955318,52.5550033],[13.4954203,52.5552799],[13.4952781,52.55555590000001],[13.4951052,52.5558231],[13.494907,52.55608180000001],[13.4946801,52.5563363],[13.4941094,52.5569119],[13.4935353,52.5575005],[13.492486500000002,52.55857580000001],[13.492269500000003,52.5588183],[13.4922426,52.558848399999995],[13.4918672,52.559238199999996],[13.4918187,52.5592832],[13.4916682,52.559447899999995],[13.4914985,52.5596084],[13.4914482,52.5596459],[13.4913011,52.5597851],[13.4910759,52.559947],[13.4908539,52.5600835],[13.4905546,52.560244],[13.4902692,52.5603686],[13.4901197,52.560424100000006],[13.4899728,52.560481499999995],[13.4897843,52.5605408],[13.488772,52.560848500000006],[13.487592000000001,52.561203199999994],[13.487289200000001,52.56128799999999],[13.4869776,52.561358899999995],[13.4866577,52.5614081],[13.4863202,52.5614561],[13.4853978,52.56155050000001],[13.4851878,52.56179869999999],[13.485198200000001,52.561824699999995],[13.4853211,52.56227429999999],[13.485458200000002,52.56234320000001],[13.485595600000002,52.5624183],[13.485679300000001,52.56275709999999],[13.485735,52.56294919999999],[13.485863,52.56341879999999],[13.4858899,52.5634975],[13.485931,52.5636554],[13.4859784,52.56381720000001],[13.486022100000001,52.563985899999984],[13.4860688,52.56415319999999],[13.4837806,52.5644264],[13.483959,52.565302599999995],[13.4839947,52.56532639999999],[13.4840132,52.5653446],[13.4840271,52.56536439999999],[13.484043500000002,52.56539999999999],[13.4840808,52.565500799999995],[13.4840918,52.565546000000005],[13.4840971,52.56559169999999],[13.484093900000001,52.565715199999985],[13.4840996,52.5657391],[13.484096800000001,52.5658402],[13.4841084,52.56597239999999],[13.484154300000002,52.566026699999995],[13.4839748,52.566074],[13.4835902,52.56611929999998],[13.4837534,52.56623880000001],[13.4838456,52.566309700000005],[13.4875885,52.56921869999999],[13.4885358,52.5687632],[13.4896043,52.56823119999999],[13.4898315,52.56840849999999],[13.4908927,52.569264100000005],[13.4906096,52.569513],[13.4906738,52.56954170000001],[13.4905666,52.5696361],[13.490754000000003,52.5697156],[13.4906263,52.56983989999999],[13.4905109,52.569970299999994],[13.4903973,52.57010569999999],[13.4903028,52.57024270000001],[13.4902169,52.5703796],[13.4901419,52.57052019999998],[13.4900762,52.57066189999998],[13.4900212,52.570805299999996],[13.4899802,52.5709561],[13.489951700000002,52.5711005],[13.489935100000002,52.571245799999986],[13.4899215,52.571394999999995],[13.4899219,52.5714467],[13.489931200000001,52.5715504],[13.4899694,52.5717141],[13.4900357,52.57186699999998],[13.4901332,52.572018299999996],[13.490266200000002,52.57216050000002],[13.4904256,52.5722909],[13.490604,52.57240869999999],[13.4908047,52.572511],[13.4910282,52.5726018],[13.4909892,52.5726455],[13.4909515,52.57269720000001],[13.490848999999999,52.572825599999994],[13.4909015,52.5728403],[13.490953700000002,52.57285239999999],[13.4912041,52.5729068],[13.4913999,52.57293649999998],[13.4915131,52.5727278],[13.4918061,52.57278380000001],[13.4914437,52.57349789999999],[13.4914047,52.5735782],[13.4938714,52.5736739],[13.4946743,52.573696],[13.4947931,52.573706499999986],[13.494912400000002,52.57373589999999],[13.4956214,52.574084299999996],[13.496390800000002,52.57445659999999],[13.497130100000001,52.574825899999986],[13.4974495,52.5749833],[13.4979502,52.5752354],[13.4981139,52.5752954],[13.4981829,52.575351500000004],[13.4982311,52.5754153],[13.498309,52.575595799999995],[13.498335300000003,52.5756975],[13.498314500000001,52.57577609999999],[13.4983059,52.5758969],[13.4983098,52.57598010000001],[13.4983292,52.576086999999994],[13.4983714,52.57616809999999],[13.4987221,52.5765626],[13.4988107,52.57650579999999],[13.4987774,52.576568200000004],[13.4989088,52.57668889999999],[13.4991383,52.576803299999995],[13.4994561,52.57692370000001],[13.499861,52.577139599999995],[13.499926,52.577177],[13.4999304,52.5771654],[13.5001074,52.57723419999999],[13.5002285,52.5772734],[13.5004566,52.57733369999999],[13.5006513,52.577380299999994],[13.5007528,52.577391799999994],[13.501288,52.57741869999999],[13.5017782,52.5774716],[13.502072500000002,52.5775148],[13.5028714,52.5777232],[13.5030323,52.57775959999999],[13.503209600000002,52.5777867],[13.5035732,52.5778049],[13.5035701,52.57782279999999],[13.504466800000001,52.577867399999995],[13.5050449,52.57777990000001],[13.5051789,52.57777960000001],[13.5067113,52.5782036],[13.5069298,52.57825969999999],[13.5074097,52.57839370000001],[13.5077418,52.57851599999999],[13.5093499,52.57886599999999],[13.5098319,52.578955199999996],[13.5102687,52.579027499999995],[13.5104933,52.5790569],[13.5106703,52.579069999999994],[13.5112914,52.5790535],[13.5115987,52.5790213],[13.5117187,52.5790031],[13.511712000000001,52.57895699999999],[13.5115571,52.577225399999996],[13.5115625,52.5771438],[13.511543500000002,52.57694339999998],[13.5115159,52.57694419999999],[13.5114982,52.576744600000005],[13.5115058,52.576714599999995],[13.511516,52.5767047],[13.5114876,52.5764284],[13.5119842,52.57641139999998],[13.5120868,52.576367899999994],[13.512026400000002,52.57573420000001],[13.5119849,52.57569599999999],[13.511983200000001,52.57566529999999],[13.5119787,52.5755836],[13.511939500000002,52.575471],[13.5121667,52.57530560000001],[13.5121156,52.5747145],[13.5134262,52.5746682],[13.5132337,52.5742619],[13.5130566,52.5738882],[13.5130496,52.57381439999999],[13.5131015,52.57364609999999],[13.5131238,52.5736426],[13.5131226,52.57316449999999],[13.5131148,52.573055700000005],[13.5131177,52.573013],[13.5131164,52.5727818],[13.5141113,52.57270689999999],[13.5142816,52.5726925],[13.514525900000002,52.572664399999994],[13.5145124,52.57262889999999],[13.5145779,52.5726168],[13.5146976,52.5725907],[13.5149656,52.57252750000001],[13.5149782,52.5725238],[13.515027400000001,52.57249050000001],[13.5151264,52.572456200000005],[13.5151794,52.5724388],[13.5152286,52.5724258],[13.515329100000002,52.5724075],[13.5157143,52.57237760000001],[13.5157227,52.57241309999999],[13.5161398,52.57238159999999],[13.5161326,52.57234489999999],[13.5166212,52.5723068],[13.5166294,52.572342400000004],[13.517609100000001,52.57226450000001],[13.5178197,52.5722593],[13.5178941,52.5725313],[13.5187141,52.572408],[13.519494,52.5723373],[13.520463100000002,52.572352800000004],[13.5205838,52.57230700000001],[13.5207151,52.57220739999998],[13.5208078,52.57212859999999],[13.520961700000003,52.57210829999999],[13.521264700000001,52.57205879999999],[13.52158,52.572003],[13.5217661,52.57197579999999],[13.5222641,52.57189179999998],[13.522963,52.57172859999999],[13.524308500000002,52.57142559999998],[13.5251952,52.57123],[13.5253409,52.571178499999995],[13.5253976,52.57116669999999],[13.5278463,52.57083220000001],[13.528885100000002,52.57070109999999],[13.5291834,52.57067769999999],[13.5295055,52.57065909999999],[13.5300301,52.5705976],[13.5305875,52.57043769999999],[13.5314269,52.570188300000005],[13.5315493,52.570121],[13.5317084,52.570050200000004],[13.5321439,52.570144000000006],[13.5350523,52.567969100000006],[13.5359154,52.5677977],[13.5368264,52.56736800000001],[13.5378902,52.56780909999999],[13.5389804,52.567367700000005],[13.5400306,52.5669426],[13.5413253,52.5664199],[13.5417766,52.566180799999984],[13.5418782,52.566100399999996],[13.5418883,52.566100299999995],[13.541896300000001,52.5660981],[13.5419,52.5660938],[13.541899,52.56608690000001],[13.5418886,52.566074500000006],[13.541877300000001,52.56606829999999],[13.5418636,52.5660645],[13.5413401,52.566037099999996],[13.5412737,52.566028100000004],[13.5411926,52.56601460000001],[13.541148,52.565993999999996],[13.5411031,52.5659703],[13.541038,52.56592909999999],[13.5406183,52.565596299999996],[13.5405506,52.56552429999999],[13.5404137,52.565419999999996],[13.5403298,52.5653417],[13.539776100000001,52.56492800000001],[13.5372326,52.56292899999999],[13.5370758,52.5628033],[13.5359293,52.56189989999999],[13.5354737,52.561551800000004],[13.5348217,52.56104460000001],[13.5339506,52.5603875],[13.5325277,52.55948540000001],[13.5311024,52.558616],[13.531011600000001,52.5585517],[13.5294191,52.5575602],[13.5291879,52.55742],[13.5279852,52.5567616],[13.527228100000002,52.5563663],[13.5268775,52.556169100000005],[13.5267803,52.556130399999994],[13.5262272,52.5558219],[13.5259165,52.5556526],[13.525609300000001,52.5554817],[13.5254932,52.555431],[13.525539,52.55538000000001],[13.5253557,52.555318400000004],[13.525716600000003,52.554830300000006],[13.5259001,52.5545539]]],[[[13.4280798,52.5840151],[13.4278876,52.583956],[13.4278551,52.5837298],[13.427940500000002,52.58372239999999],[13.4279172,52.58358189999999],[13.4279704,52.5834286],[13.428321700000001,52.5834052],[13.4283313,52.58307289999999],[13.4277159,52.582964],[13.4277563,52.5829017],[13.427811,52.5828319],[13.4279786,52.5825691],[13.4279175,52.58248340000001],[13.4279809,52.58243869999999],[13.428037,52.58236389999999],[13.4283429,52.5825183],[13.4283547,52.58243349999999],[13.4283685,52.58236089999999],[13.4283122,52.58235589999999],[13.4277146,52.582063999999995],[13.4276464,52.58202889999999],[13.4274698,52.581947400000004],[13.4274534,52.581976100000006],[13.427414000000002,52.581961699999994],[13.4268558,52.58189629999998],[13.4268446,52.5819167],[13.4268174,52.58191759999999],[13.426536900000002,52.58197049999999],[13.426508,52.58196949999999],[13.426204100000001,52.58191079999999],[13.425984200000002,52.5818491],[13.4255574,52.58172019999999],[13.4251609,52.5816052],[13.424965800000003,52.58155730000001],[13.4248048,52.581534700000006],[13.4247262,52.58153119999999],[13.424667,52.581524099999996],[13.424382000000001,52.5815024],[13.424020999999998,52.5814621],[13.4239765,52.5814535],[13.4238859,52.581427999999995],[13.4238082,52.581398599999986],[13.423557,52.581286199999994],[13.4234224,52.58121119999999],[13.423064,52.5810245],[13.42297,52.580990099999994],[13.4223361,52.58084240000001],[13.4223245,52.58086219999999],[13.421818,52.5807401],[13.4214015,52.58064529999999],[13.4213905,52.5806454],[13.4204709,52.580368899999996],[13.4204746,52.5803609],[13.4204024,52.58033939999999],[13.4203823,52.5803634],[13.4200769,52.580249300000006],[13.4200574,52.580304500000004],[13.4200254,52.580356599999995],[13.4197284,52.5803537],[13.4196569,52.5803234],[13.4196409,52.5803138],[13.4196332,52.58030209999998],[13.4194178,52.5806277],[13.4193526,52.58067949999999],[13.4192964,52.5807002],[13.419225700000002,52.580708],[13.4187637,52.580731199999995],[13.4186352,52.58075079999999],[13.418575300000002,52.5807771],[13.4186289,52.5808064],[13.4186787,52.580878199999994],[13.4186751,52.5809459],[13.4186177,52.5809398],[13.4186228,52.580887800000006],[13.418582,52.5808288],[13.4185336,52.5808049],[13.4184345,52.580792699999996],[13.4183001,52.5807815],[13.4181423,52.580779],[13.4178329,52.58072580000001],[13.4162985,52.58039999999999],[13.4161793,52.58033959999999],[13.4160591,52.5802751],[13.4159368,52.5802625],[13.4156914,52.5802675],[13.4155619,52.580243200000005],[13.414546400000003,52.5800524],[13.414730900000002,52.57971789999999],[13.414582,52.579689699999996],[13.4146698,52.579488899999994],[13.414692500000001,52.5794448],[13.4146698,52.579438799999984],[13.4146696,52.5792858],[13.4146297,52.579204399999995],[13.4156748,52.5791839],[13.4164014,52.5790651],[13.4165637,52.579057299999995],[13.4168308,52.579055100000005],[13.4171981,52.5790567],[13.4185373,52.5791111],[13.418707200000002,52.579125999999995],[13.4187541,52.5791301],[13.4192487,52.5791909],[13.419270700000002,52.579144699999986],[13.4193899,52.57900540000001],[13.4193403,52.5789434],[13.4188289,52.578774700000004],[13.4160324,52.57861539999999],[13.4157429,52.578590500000004],[13.415467100000003,52.5785559],[13.415229600000002,52.578516199999996],[13.4152043,52.57851349999999],[13.415175200000002,52.57850559999999],[13.4149731,52.57845960000001],[13.4147474,52.578396399999995],[13.414461000000001,52.5783083],[13.4142677,52.57824289999999],[13.414045,52.57816129999999],[13.4139394,52.57812009999999],[13.4138444,52.57808579999999],[13.4134053,52.5779208],[13.4123082,52.5775062],[13.4121091,52.57739920000001],[13.4118806,52.5772625],[13.4116554,52.57711379999999],[13.4114697,52.5769734],[13.4113215,52.576848700000006],[13.411194700000001,52.5767275],[13.4110362,52.5765539],[13.4108439,52.5763833],[13.4106954,52.5762579],[13.4101112,52.575788200000005],[13.4094576,52.57525520000001],[13.4093426,52.575158800000004],[13.4091392,52.575034599999995],[13.4089776,52.57493919999999],[13.4086847,52.574770499999985],[13.4084747,52.57463669999999],[13.408199500000002,52.574417800000006],[13.4080309,52.5742208],[13.4078497,52.5739957],[13.4076105,52.5739383],[13.407029,52.57508789999999],[13.4069298,52.575054300000005],[13.406812600000002,52.5750145],[13.4067799,52.5750707],[13.4066824,52.575043799999996],[13.4064865,52.57492129999998],[13.406464,52.5749018],[13.406209,52.57479070000001],[13.4061921,52.5748057],[13.4061405,52.5747847],[13.4061604,52.5747701],[13.4058917,52.5746505],[13.405838400000002,52.574637100000004],[13.4055544,52.574536900000005],[13.4052085,52.57439049999999],[13.4050992,52.57434769999999],[13.405102900000001,52.57433960000001],[13.4050507,52.5743289],[13.4050267,52.57432240000001],[13.404945100000003,52.5742908],[13.4047894,52.5742261],[13.404622700000001,52.574123],[13.404270000000002,52.5739632],[13.4041465,52.573896999999995],[13.4041395,52.5738851],[13.403855800000002,52.5737531],[13.4037262,52.57367939999999],[13.4036857,52.57364559999999],[13.4036279,52.57360680000001],[13.4034917,52.573569],[13.403465900000002,52.5735282],[13.4033725,52.573492099999996],[13.403281,52.5734542],[13.403250600000002,52.57343339999999],[13.4031965,52.5733924],[13.40287,52.573244200000005],[13.402688399999999,52.5731454],[13.4023787,52.57295049999999],[13.4017736,52.5726575],[13.4017525,52.572651],[13.4015587,52.572574],[13.401094800000001,52.5723294],[13.401031000000001,52.5723025],[13.4009836,52.5723696],[13.400932,52.572333900000004],[13.4006976,52.5721558],[13.4006369,52.57212],[13.400574300000002,52.5720937],[13.400389900000002,52.572032099999994],[13.400281800000002,52.5719859],[13.400199,52.571940399999995],[13.400151,52.57190739999999],[13.4000303,52.57183789999999],[13.399802,52.571741700000004],[13.3994395,52.571571599999984],[13.3992091,52.57143299999999],[13.399102000000001,52.5713608],[13.3989712,52.571277800000004],[13.3989105,52.57124660000001],[13.3988433,52.57121959999999],[13.3984553,52.57108039999999],[13.3984505,52.5710655],[13.398409200000001,52.57104170000001],[13.3984003,52.571008600000006],[13.3982589,52.57095489999999],[13.3981787,52.5709244],[13.3980905,52.5708847],[13.397854,52.5707781],[13.3977642,52.5707398],[13.397659900000003,52.570701299999996],[13.3975947,52.57068230000001],[13.3975226,52.57066509999999],[13.3973704,52.57063299999999],[13.3972968,52.5706188],[13.3972477,52.5706116],[13.3971876,52.570605699999994],[13.3971329,52.57059830000001],[13.3968744,52.5705831],[13.396605400000002,52.57057259999999],[13.3958921,52.57055110000001],[13.395840500000002,52.57054949999999],[13.393225999999999,52.57032860000001],[13.3927729,52.5702914],[13.3922734,52.5702306],[13.3921864,52.5702143],[13.392042800000002,52.570177599999994],[13.3919932,52.5701606],[13.3919366,52.57013649999999],[13.3919059,52.57011959999999],[13.3918837,52.5701054],[13.3918459,52.5700813],[13.391835800000003,52.5700748],[13.3912563,52.569674600000006],[13.3910964,52.569560100000004],[13.3899684,52.568726299999994],[13.389953900000002,52.568726299999994],[13.38981,52.56862869999999],[13.389793,52.56863769999999],[13.3892817,52.5682425],[13.3877748,52.5691469],[13.3882639,52.56947889999999],[13.387572200000001,52.56986009999999],[13.3873554,52.56998169999999],[13.3867007,52.5703411],[13.3866526,52.5703657],[13.3862182,52.57060779999998],[13.385995900000001,52.5707272],[13.385779700000002,52.5708483],[13.3855494,52.5709728],[13.3851219,52.5712084],[13.3849085,52.57132989999999],[13.3842565,52.57168789999999],[13.3838055,52.57193329999999],[13.3835925,52.572051899999984],[13.3833737,52.57216989999999],[13.383082200000002,52.572332900000006],[13.3825422,52.5720755],[13.382239,52.5720212],[13.3808852,52.572285799999996],[13.3802735,52.57240709999999],[13.3801835,52.572423000000015],[13.3796847,52.57252419999999],[13.3796146,52.57273610000001],[13.3795176,52.572723800000006],[13.3793552,52.57282380000001],[13.3792708,52.57309469999999],[13.3790359,52.5730661],[13.3789168,52.573454599999984],[13.3785893,52.5734135],[13.3784831,52.57371630000001],[13.3782498,52.57368689999999],[13.378157,52.5736144],[13.376445300000002,52.574744599999995],[13.3765169,52.57480639999999],[13.3764572,52.5747986],[13.3762647,52.5749345],[13.376243700000002,52.5749419],[13.3760506,52.57507580000001],[13.3751457,52.575631699999995],[13.3747228,52.575848799999996],[13.3742736,52.5760485],[13.3736336,52.576308999999995],[13.3729898,52.5765678],[13.372316100000003,52.576859600000006],[13.3722709,52.57681240000001],[13.3711801,52.57728959999999],[13.369146,52.57838949999999],[13.368144,52.5789489],[13.3681837,52.57899969999998],[13.3673805,52.5794331],[13.3662899,52.58003209999999],[13.3666295,52.58045729999999],[13.366723600000002,52.5805723],[13.366955500000001,52.580871699999996],[13.3661967,52.5809807],[13.366261800000002,52.5810709],[13.3666407,52.5815802],[13.3672624,52.58239220000001],[13.3677646,52.583053899999996],[13.3688124,52.583196599999994],[13.3688765,52.5832105],[13.368965,52.5832297],[13.3691485,52.5832696],[13.3701138,52.5834793],[13.370475000000003,52.583548099999994],[13.3707606,52.5836025],[13.3716111,52.58386399999999],[13.3724022,52.584113599999995],[13.3726298,52.584187299999996],[13.3730759,52.5843256],[13.3735264,52.5844677],[13.3743902,52.584740100000005],[13.3745438,52.584790299999995],[13.3745848,52.5848022],[13.3747729,52.58487280000001],[13.3748608,52.584902099999994],[13.3751383,52.584986199999996],[13.3753758,52.585061599999996],[13.375988100000002,52.585251099999994],[13.3761061,52.58529010000001],[13.3770409,52.585563799999996],[13.3775547,52.5857113],[13.378093700000003,52.5858689],[13.3784695,52.58597550000001],[13.3788469,52.5860863],[13.3808936,52.5866595],[13.3821916,52.58699929999999],[13.3826803,52.587169200000005],[13.3826465,52.5871962],[13.3833691,52.5874418],[13.3833466,52.5873947],[13.3834639,52.5874473],[13.3834864,52.5874999],[13.3838859,52.587692100000005],[13.3851254,52.5880701],[13.3852508,52.5881035],[13.385302800000002,52.5881159],[13.3864819,52.5884196],[13.3864425,52.5884658],[13.386833,52.588567399999995],[13.387214900000002,52.58867099999999],[13.3879969,52.588857],[13.3882403,52.5889242],[13.3882387,52.58893439999999],[13.3885539,52.5890212],[13.3885568,52.58900299999999],[13.3891664,52.58915549999999],[13.389608,52.5892163],[13.3896053,52.58923839999999],[13.389895800000001,52.58928],[13.3898997,52.58925610000001],[13.3905991,52.5893601],[13.3912767,52.5894074],[13.3915036,52.5894183],[13.3915016,52.589431399999995],[13.391704800000001,52.58944089999999],[13.3932663,52.589709299999996],[13.3934325,52.58973470000001],[13.3950257,52.5900097],[13.395116600000001,52.59002749999999],[13.395189,52.5900417],[13.3954888,52.5900937],[13.3960014,52.590182399999996],[13.3967877,52.59031860000001],[13.3969506,52.590345400000004],[13.3971445,52.5903786],[13.3977527,52.59048289999999],[13.398538000000002,52.5906175],[13.3986999,52.590644000000005],[13.4000541,52.5908751],[13.4003077,52.5909184],[13.4005348,52.590959700000006],[13.4021195,52.59122949999999],[13.4019787,52.59072809999999],[13.4015989,52.59015419999999],[13.4015421,52.589963499999996],[13.401805600000001,52.589978699999996],[13.4020332,52.590018099999995],[13.4020139,52.590088699999995],[13.401996600000002,52.590152100000005],[13.4019138,52.590206300000006],[13.402223600000001,52.59070659999999],[13.4023483,52.59117059999999],[13.4033758,52.59137129999999],[13.4042758,52.59155830000001],[13.4047042,52.5916563],[13.4054481,52.59182659999999],[13.405455,52.591827599999995],[13.4056691,52.5918765],[13.4063086,52.5920161],[13.4062658,52.5921157],[13.4063728,52.59213989999999],[13.4068733,52.5922458],[13.4072528,52.5923339],[13.408091600000002,52.5924782],[13.4096362,52.592749999999995],[13.4096576,52.59275220000001],[13.4098524,52.59279049999999],[13.4102384,52.5928701],[13.4107389,52.5929695],[13.410975,52.593016399999996],[13.411078700000001,52.59304159999999],[13.411134700000002,52.59305260000001],[13.4111872,52.5930587],[13.411588,52.5931234],[13.411875,52.5931697],[13.4124368,52.59326289999999],[13.4124471,52.5932629],[13.4126552,52.5933019],[13.4129599,52.593359099999994],[13.4132522,52.593416399999995],[13.4135349,52.593469500000005],[13.4137747,52.593516799999996],[13.413893300000002,52.5935384],[13.4142521,52.593607799999994],[13.4148929,52.59373180000001],[13.4151635,52.59378079999999],[13.4154287,52.5938314],[13.415649600000002,52.59387539999999],[13.4159799,52.5939323],[13.4162255,52.593977100000004],[13.416474400000002,52.5940226],[13.416872600000001,52.59409339999999],[13.416892500000001,52.5940989],[13.417153,52.5941507],[13.4179971,52.59431539999999],[13.419118000000001,52.59453669999999],[13.4193525,52.594585499999994],[13.4193875,52.594518799999996],[13.419425200000001,52.594317399999994],[13.4196482,52.5932506],[13.4197194,52.59308209999999],[13.419724500000001,52.59307],[13.4198342,52.5928255],[13.420589,52.5918952],[13.420652,52.591806000000005],[13.4210253,52.591391999999985],[13.4211783,52.5912185],[13.4213307,52.59104059999999],[13.4214585,52.590900200000014],[13.421706000000002,52.5906139],[13.4222008,52.5900583],[13.4223106,52.5899356],[13.422487,52.589738499999996],[13.4232179,52.5889299],[13.4232561,52.588889099999996],[13.4232905,52.588852399999986],[13.4239764,52.58798379999999],[13.4244194,52.5882344],[13.4246054,52.58833719999999],[13.4246607,52.5883017],[13.4244958,52.58821220000001],[13.424476499999999,52.588199],[13.4242757,52.588089200000006],[13.4240103,52.5879406],[13.4246617,52.5871123],[13.4251699,52.586466],[13.4252736,52.5863475],[13.4253001,52.58631379999999],[13.425561600000002,52.58645309999999],[13.4256509,52.5863358],[13.4256642,52.58632979999998],[13.4256804,52.5863279],[13.4256964,52.5863304],[13.4257091,52.58633680000001],[13.425716,52.586346],[13.4257168,52.586351],[13.425713,52.5863608],[13.4256859,52.5864005],[13.426160200000002,52.58653049999999],[13.4261935,52.5864861],[13.4262301,52.586495899999996],[13.426050300000002,52.58671329999999],[13.4262995,52.5868461],[13.4265836,52.5866452],[13.4265629,52.586639500000004],[13.4265953,52.5865955],[13.4266007,52.5865915],[13.4266148,52.5865859],[13.4266314,52.586583999999995],[13.4266479,52.58658619999999],[13.427121200000002,52.58670819999998],[13.4271845,52.58672589999999],[13.4272455,52.5867464],[13.4273318,52.586782299999996],[13.427601799999998,52.5869352],[13.4276701,52.5868888],[13.427694200000001,52.5868747],[13.4274221,52.58672430000001],[13.4273746,52.58669989999999],[13.427324,52.586678],[13.4272706,52.58665859999999],[13.4271703,52.586631399999995],[13.4271703,52.586625299999994],[13.427174400000002,52.58661339999999],[13.4271839,52.58660259999999],[13.4272595,52.58662259999999],[13.4278285,52.585840099999984],[13.4277544,52.58582069999999],[13.427773500000002,52.58579449999998],[13.4277796,52.5857819],[13.427787000000002,52.5857562],[13.4277876,52.58573009999999],[13.4277854,52.585717],[13.4277815,52.5857042],[13.4277689,52.5856792],[13.427851600000002,52.58566849999999],[13.4277148,52.585295399999985],[13.4276357,52.5853077],[13.427625,52.58527779999999],[13.427847,52.58525240000001],[13.427842900000002,52.585114399999995],[13.4277119,52.58473269999999],[13.427999200000002,52.584339099999994],[13.4281155,52.584167],[13.428126,52.58416579999999],[13.428083400000002,52.5840148],[13.4280798,52.5840151]]]]}}]}
