{"type":"FeatureCollection","features":[{"type":"Feature","properties":{"revision":"1.0.94","source":"OpenStreetMap / Geofabrik Berlin 2026-09-29 / ODbL-1.0","scope":"A111 main carriageways in the Berlin extract, Dreieck Charlottenburg through Tegel to the northern Berlin boundary; not A10 or a Brandenburg expansion","areaM2":590887.5820034603},"geometry":{"type":"Polygon","coordinates":[[[13.282712376125826,52.59808712011055],[13.28269233288022,52.598095050008794],[13.28267366262272,52.59810413797778],[13.282656545157566,52.59811429649603],[13.282641145335216,52.598125427732185],[13.282627611464738,52.59813742448705],[13.28247471103574,52.59828832421754],[13.282463173371797,52.59830107094055],[13.282453743118458,52.59831444489289],[13.282446511095788,52.59832831727665],[13.282441546954006,52.59834255449359],[13.282438898502612,52.59835701943184],[13.282438860695487,52.59835881020771],[13.282174152450539,52.5986445635782],[13.282171055430112,52.59864802612494],[13.28187591279331,52.598990010326915],[13.281113750540213,52.59985812943759],[13.280894563495517,52.600085182225385],[13.28082585758789,52.600152170215],[13.280521124415296,52.60043017826895],[13.280121047062638,52.600739639719855],[13.279889698601853,52.600902835592336],[13.279615862691433,52.60107665892719],[13.279169395150374,52.60134322810998],[13.278737031930094,52.60155546465048],[13.27816772861379,52.60181331200646],[13.277618251215666,52.602016516247275],[13.27724260582548,52.60215211164705],[13.276841718188521,52.60226945634241],[13.27642010620206,52.60237723533424],[13.276009068081997,52.60247189325876],[13.275006299348538,52.602685133659094],[13.274186492296076,52.60285975640744],[13.2741740539585,52.60286266880659],[13.273798754831404,52.60295866854853],[13.27379675246159,52.60295925268947],[13.273794681583059,52.60295974031443],[13.273420582424665,52.603060940044145],[13.273408800921262,52.60306438851091],[13.272929301880433,52.60321568811607],[13.272913986273274,52.60322101036455],[13.272350187176922,52.60343580982598],[13.27234163555713,52.603439240802416],[13.272051635945044,52.60356164050393],[13.272044605168603,52.603564736010696],[13.271833505399101,52.60366163578053],[13.271832520396192,52.60366213590353],[13.27183146817855,52.60366258240714],[13.271824316491532,52.60366630133343],[13.271817093414308,52.60366996875935],[13.271816193669558,52.60367052525525],[13.271815218401493,52.60367103240109],[13.271247909891937,52.60399666447787],[13.270998102302176,52.60413899760596],[13.270997164053602,52.60413953536919],[13.270417864218485,52.604473534643],[13.270416099985557,52.60447456329953],[13.269615980616415,52.60494634077057],[13.269270963108683,52.60513675243463],[13.268848687535025,52.60534745136886],[13.268346228910739,52.605559223919464],[13.268131665090824,52.60564233091297],[13.267898297953877,52.605726623990904],[13.267582586204071,52.605832711701],[13.266836677058857,52.60606490697556],[13.262237312145164,52.60745596287207],[13.262234716165128,52.60745684715744],[13.262232023842616,52.60745761731086],[13.261666824947467,52.607640416835935],[13.26165817654359,52.60764336952237],[13.260705878196033,52.60798606865135],[13.260702798106168,52.60798730506966],[13.260699593861942,52.607988418430985],[13.254482970141307,52.61040177602703],[13.254201042371202,52.610508944370295],[13.254196749205844,52.61051061914717],[13.253310277780047,52.61086540724887],[13.252569388071135,52.61115819157848],[13.252123080206134,52.611329196330246],[13.252122078280888,52.611329582541],[13.251671578983705,52.61150428210488],[13.25126035721551,52.611663790398026],[13.251260089742447,52.61166389431379],[13.250588590784329,52.61192519366207],[13.250587387496482,52.611925665286336],[13.250143088169782,52.6121010648505],[13.25013669438428,52.61210368797074],[13.249752294888404,52.612267487572375],[13.249742798341744,52.612271772549896],[13.249449298625986,52.61241187222148],[13.249443747807131,52.61241461254797],[13.2492764479313,52.61250001235267],[13.249268138057372,52.612504478289026],[13.248994638156008,52.61265917794975],[13.248984074551306,52.6126655766464],[13.248771174504954,52.61280367636239],[13.248762561826986,52.612809608448046],[13.248557961664622,52.6129593081593],[13.248554705648761,52.61296174876361],[13.248442205531362,52.61304814860153],[13.248435658500513,52.61305344332987],[13.248228558165739,52.6132299430191],[13.24822163082842,52.613236217591385],[13.248057530441047,52.61339441733454],[13.248052163995576,52.61339987670248],[13.24794556366722,52.613514476530185],[13.247940883549067,52.61351978570685],[13.247816283067747,52.6136691854997],[13.247809517537132,52.61367810106884],[13.24771001699672,52.61382310089644],[13.247707057911372,52.613827647060866],[13.247646557523995,52.613925846954],[13.247640605067923,52.61393698097136],[13.247544504144093,52.614147980794186],[13.247539674932623,52.614161156315326],[13.247495274181754,52.61431995622886],[13.24749269319888,52.61433316343438],[13.247478292567653,52.61446146340267],[13.247478204340517,52.614464270785724],[13.247477858883068,52.61446707079791],[13.247470257997,52.614645870776364],[13.247470348488294,52.61464824269933],[13.247470195801128,52.61465061344078],[13.247470596469991,52.614654742699166],[13.247470754237474,52.61465887803835],[13.247471226248582,52.61466123314103],[13.247471456061907,52.614663601576204],[13.247508855035463,52.61487340163523],[13.24751179167833,52.6148850334852],[13.247567990871865,52.61505653357891],[13.24757295999073,52.61506867770193],[13.247602959724702,52.615129577752136],[13.24760536996649,52.61513416589792],[13.247674669444926,52.61525826601326],[13.247678721893736,52.61526493113255],[13.247754921440187,52.61538063125786],[13.2477640805451,52.615392737705434],[13.24792877991984,52.615584437966675],[13.247941058627143,52.61559699231338],[13.248035758427058,52.61568269245522],[13.248041979234692,52.61568803248746],[13.24823007895208,52.615841332760326],[13.248238438363263,52.61584772491887],[13.248347338272744,52.61592592506988],[13.248356018298827,52.615931794382504],[13.248660118219542,52.616125494783496],[13.248669551709801,52.61613114903834],[13.24907435181307,52.61635944954188],[13.2490756487016,52.616360175049564],[13.250342967337668,52.617063390435455],[13.250563822767115,52.61720348342848],[13.25069425177974,52.61728799868425],[13.250851519649164,52.61742080714564],[13.250968948022708,52.61755225881166],[13.251022481426416,52.61763220493679],[13.251057249123926,52.61769376422065],[13.251109922633354,52.61782678721135],[13.251132465299875,52.61791302764234],[13.251140119338766,52.61801350444376],[13.25112816656559,52.61816100561201],[13.251105553949554,52.6182660746861],[13.251072420160915,52.61836025755396],[13.251029747895243,52.61845608359499],[13.250952317953631,52.61859470091733],[13.2508894910064,52.61868641847993],[13.250814960507023,52.61877728136757],[13.250692272094682,52.618915580521666],[13.250551007633929,52.619050431913045],[13.250376620642905,52.619192747276244],[13.250069175615762,52.61941706947592],[13.249775929185166,52.61960627296638],[13.249509424103158,52.61977642045511],[13.249504084330994,52.619779955590495],[13.249087384129973,52.620066055019024],[13.249076650444906,52.62007402860431],[13.248874350182739,52.620236828307235],[13.24886071777606,52.62024918363124],[13.248736017430717,52.62037718343229],[13.248728231347588,52.62038590387283],[13.24862533093174,52.620512203700784],[13.248616718814231,52.620524236574],[13.24856021845639,52.620615236474336],[13.248555817073374,52.62062305393869],[13.248512116706294,52.62070935385922],[13.248507903610026,52.62071893314082],[13.248464903086662,52.62083373305971],[13.248460950640995,52.62084768713952],[13.248444650232875,52.62093188710642],[13.248443746529666,52.620937626723205],[13.248430045975233,52.62105042669345],[13.248429537556433,52.6210638884806],[13.248436236829152,52.621210388486574],[13.24843680950135,52.621216989038906],[13.248448909034762,52.6213115890569],[13.248450876198497,52.621321816456685],[13.248503987757674,52.62152817677789],[13.248557967602606,52.62174526971611],[13.248571191392656,52.621862839831344],[13.248561662454254,52.622030368008836],[13.248544137856815,52.622108110239225],[13.248492213086125,52.62224386255368],[13.248417349401068,52.62237532283293],[13.248321742590274,52.622492123538024],[13.248209960665081,52.6226190966948],[13.248100761786437,52.62271494259988],[13.248015482612963,52.62278235713077],[13.24777668079496,52.62295922138622],[13.247466546463903,52.623176444034634],[13.247466280975315,52.62317663033513],[13.24590220979992,52.62427620724636],[13.244683538847784,52.62513218464652],[13.244683245755288,52.62513239093329],[13.24394694530416,52.62565168991074],[13.243944148046161,52.62565370285112],[13.24365924781442,52.625862902448304],[13.243656421451465,52.625865021838194],[13.243329721114758,52.626115221367904],[13.243327242215454,52.62611715627886],[13.243002841814965,52.62637525580457],[13.24299898946471,52.62637841693506],[13.242482888649066,52.626815316162265],[13.242478178141026,52.62681946821468],[13.242143877451877,52.6271264676995],[13.242143217237224,52.62712707763335],[13.24198881690759,52.627270577394455],[13.241985313105205,52.627273943106445],[13.241568112039172,52.627688342447165],[13.24156548793236,52.62769126142254],[13.241562636714242,52.62769410043345],[13.241219935569504,52.62807629987383],[13.241217334559979,52.62807957310823],[13.24121450296219,52.62808277470693],[13.241126176059991,52.62819558071064],[13.241013749296284,52.628338586746615],[13.24101068935398,52.628342653809064],[13.240871688653566,52.62853595357031],[13.240869786294464,52.62853868167672],[13.240787885838229,52.628659881534354],[13.240784299273477,52.62866555557847],[13.240575597846776,52.629019755207125],[13.240572624557547,52.62902516490185],[13.24047372373533,52.62921886472212],[13.240469555439828,52.629228223494835],[13.240381054384889,52.62946022332815],[13.240380753284542,52.629461023888666],[13.240313052450242,52.629643623760764],[13.240311057506496,52.62964965253415],[13.240224856112134,52.62994545236694],[13.240224004745775,52.629949528581285],[13.240222911550964,52.629953583383525],[13.240167210107082,52.63025088326987],[13.240166502011732,52.63025532597847],[13.24012500046211,52.63057092588943],[13.24012441121405,52.630577386539],[13.240116110407474,52.63074008651684],[13.240116007976518,52.63074483306248],[13.240117307153557,52.63091043305771],[13.240117405604574,52.63091383511212],[13.240133404016772,52.63123353512756],[13.240133942833173,52.63123965220287],[13.240154542027579,52.63140285223341],[13.240154594974516,52.63140326333672],[13.240182693919328,52.631617163378735],[13.24018306378185,52.63161967735054],[13.240437206988423,52.63317967617528],[13.240556256353752,52.63394607465472],[13.240559310674149,52.63395895197436],[13.240564424869111,52.63397158514235],[13.240571549687811,52.63398385249412],[13.240580616515809,52.63399563588801],[13.240591538035805,52.63400682184312],[13.24060420906851,52.63401730263206],[13.240618507585525,52.63402697731859],[13.240634295884545,52.63403575272963],[13.240651421915475,52.63404354435261],[13.240669720744773,52.634050277149406],[13.240689016143872,52.63405588627899],[13.24070912228638,52.63406031772193],[13.240729845537746,52.63406352880065],[13.240750986320107,52.63406548859041],[13.240767287355848,52.634066015014604],[13.240885888903062,52.634780325287466],[13.240889079666195,52.63479319035903],[13.240894327713468,52.6348058032048],[13.240901582504964,52.63481804235596],[13.240910774174532,52.63482978994242],[13.240921814202556,52.63484093282809],[13.240934596268424,52.6348513637004],[13.240948997274412,52.63486098210382],[13.240964878531159,52.63486969540729],[13.240982087093316,52.63487741969638],[13.241000457232497,52.63488408058143],[13.241019812033361,52.63488961391398],[13.241039965097427,52.63489396640454],[13.241060722338243,52.63489709613591],[13.241081883850601,52.63489897296678],[13.241103245835793,52.63489957882207],[13.24112460256438,52.63489890786698],[13.24114574835753,52.634896966563254],[13.241166479567916,52.63489377360679],[13.241186596540997,52.63488935974782],[13.241205905537878,52.63488376749454],[13.241224220601172,52.63487705070384],[13.241241365345912,52.63486927406256],[13.24125717465828,52.634860512464556],[13.241271496285753,52.634850850289354],[13.2412841923034,52.63484038058956],[13.24129514044215,52.63482920419463],[13.241304235266304,52.63481742873987],[13.241311389188905,52.634805167629764],[13.241316533315187,52.634792538945916],[13.24131961810604,52.634779664309704],[13.241320613855013,52.63476666771109],[13.241319510974355,52.63475367431449],[13.241050903033745,52.633135974734],[13.241050877064087,52.6331358192421],[13.240970382055732,52.63265666307811],[13.240880843265847,52.63212014578086],[13.240779265066097,52.6314786980362],[13.240741267939697,52.631149403785926],[13.240739396731017,52.630845528581716],[13.240740469793245,52.630689138560065],[13.240764022567348,52.63042261565947],[13.240814288299724,52.63010984149737],[13.24086589987999,52.62990358552557],[13.240948425185232,52.62963987201503],[13.24107177275218,52.6293371240194],[13.241172849697207,52.62913331277787],[13.241257729688407,52.628982272178895],[13.241401000849361,52.62873726288851],[13.241499297391531,52.6286035285467],[13.241499819411542,52.62860281265988],[13.241628719389722,52.62842462339067],[13.241779459825377,52.628235265689355],[13.241845452066315,52.62815795461694],[13.242170734028322,52.62780158367128],[13.242594099207945,52.627391261696374],[13.243263377269034,52.62678805476361],[13.243983251052791,52.62618913450328],[13.244476865258537,52.625811523978996],[13.245049777666884,52.62540299503115],[13.245217395579452,52.6252883088042],[13.245219996583517,52.6252864962992],[13.246410482046118,52.62444153028548],[13.248202261100275,52.62319176020465],[13.248204874242532,52.62318990316868],[13.248530674000618,52.622954002710905],[13.248541352970937,52.622945609939684],[13.248693252722783,52.622815809711476],[13.248701031142993,52.622808687473054],[13.248806930879606,52.62270458730625],[13.248818811892358,52.62269126127226],[13.248945111330915,52.622527961058616],[13.248952782836293,52.62251673250919],[13.249028882325193,52.62238913237409],[13.249033649599344,52.62238015484103],[13.249091949056144,52.622255354733895],[13.249097589627102,52.62223976624229],[13.249137988885241,52.62208396616297],[13.249139968110494,52.622073795319075],[13.249150367719286,52.621994095296756],[13.249150799786513,52.621989969961824],[13.249157399373821,52.62190646994621],[13.249157604925374,52.62189737507241],[13.249154304440177,52.62179967507425],[13.249152496193204,52.62178513889859],[13.249091994831153,52.621504738996414],[13.249090456958008,52.621498695030844],[13.249038660903508,52.62132216059118],[13.249020340959964,52.62122892262826],[13.249011283717833,52.62108795160948],[13.249034699380614,52.620907965558445],[13.249055960761295,52.62084508700379],[13.249099612116193,52.620754582899536],[13.249181809412622,52.620629491179336],[13.249244612723718,52.62055253844704],[13.249301811109532,52.62048943834388],[13.249376771600112,52.6204184554368],[13.249480901350926,52.62033864429168],[13.249481742619267,52.62033799534889],[13.249624678308114,52.620227026717714],[13.249968692486151,52.619997813974855],[13.25022510253485,52.619834490043026],[13.25022792196923,52.61983265979431],[13.250563021865808,52.61961095934284],[13.250570058104776,52.61960606878159],[13.250708057996292,52.61950526858694],[13.25071342499697,52.61950118732786],[13.25100662464261,52.61926898690005],[13.251016112296117,52.619260857701065],[13.251211711879405,52.61907915739855],[13.251221247148608,52.61906941468416],[13.25135774668112,52.618915314460594],[13.251364938821633,52.618906412903634],[13.251457438370476,52.61878021274541],[13.251463028422942,52.61877182807563],[13.251575227680112,52.61858552787675],[13.251581791645556,52.61857263124198],[13.25165429087228,52.61839943110695],[13.251657757017702,52.618389608640044],[13.251700156324002,52.618242508557756],[13.251703084131073,52.618227098330024],[13.25171948326179,52.618050898292594],[13.251719652513858,52.61803802063439],[13.251710851859801,52.617906120644804],[13.251709259956156,52.617894627148964],[13.251681959326564,52.617765127192996],[13.251679099173431,52.617754806375444],[13.251648798762025,52.61766680642607],[13.251640551273091,52.61764908874674],[13.251573643281928,52.61753598095995],[13.251530343081427,52.617451512443886],[13.251521806143503,52.617437638121295],[13.25151077916969,52.61742443014594],[13.251413103720534,52.61732203844462],[13.251333233750024,52.61723187892189],[13.251323677296538,52.61722211733925],[13.251312782613727,52.61721288966827],[13.2511991824746,52.61712488983025],[13.2511959950449,52.6171224791441],[13.25100899486281,52.61698437940618],[13.250991673346004,52.616973012627014],[13.250733673375839,52.61682241295353],[13.250730938144178,52.616820966282404],[13.250728362870133,52.61681941465627],[13.249514748782424,52.61615670104465],[13.24905733343571,52.61588710376521],[13.248769201563691,52.61571015731193],[13.248465227452842,52.61548106370109],[13.248260433160736,52.61527160762266],[13.248136320311986,52.61505491753177],[13.248088832496741,52.61493360249518],[13.248058314982968,52.61483620769796],[13.248019554931474,52.61463573305158],[13.248020368823072,52.614477776493096],[13.24805332785473,52.6143267875736],[13.248102133074715,52.61418093511192],[13.248166690738007,52.61403883256701],[13.248228314964663,52.613943398611],[13.248228900432496,52.61394248195584],[13.248280702067765,52.61386047769872],[13.248366698490281,52.61375457758866],[13.248485514433623,52.613616711120166],[13.24858644170753,52.613504849542245],[13.248858713016334,52.61327166634596],[13.249011725772043,52.613151127848006],[13.24928732310068,52.61296207728095],[13.24958893056737,52.61277940105263],[13.249944199002863,52.61260147693655],[13.25020274302801,52.61248634315501],[13.250672534024059,52.61229814921397],[13.250672795326928,52.61229804437363],[13.250984371209675,52.612172837091],[13.253008881125151,52.61139241190226],[13.254083727994614,52.610988407379686],[13.254086444700146,52.610987369327006],[13.254578635236344,52.61079621166157],[13.254800025267532,52.61071045417866],[13.254800159555232,52.610710396336714],[13.254800302386842,52.61071034665456],[13.26101660211074,52.60829406648692],[13.26198996394382,52.60793013860521],[13.262480182079583,52.60775693528456],[13.266912536489825,52.60641745203939],[13.26691726940459,52.60641597748016],[13.267642143315282,52.60618329560941],[13.268201396999174,52.60601239029043],[13.268214767485588,52.60600794115599],[13.268443867881505,52.605925240945965],[13.26844584019699,52.605924446860044],[13.268447906398613,52.60592374683181],[13.26866580675052,52.60584114662444],[13.268671358002534,52.60583897050274],[13.268925558370565,52.60573597024863],[13.268929776348623,52.60573421735081],[13.26917547667073,52.60562951709619],[13.26918780736454,52.6056238556227],[13.269643107753826,52.60539895510203],[13.26965193702746,52.6053943504501],[13.270003337191369,52.60520095002105],[13.270005178606056,52.60519983181675],[13.270007151289017,52.60519879992255],[13.270823251516596,52.604727598898684],[13.27082427156213,52.60472700610248],[13.271401547340014,52.60438933853219],[13.272196081570643,52.60394116432218],[13.272467257061791,52.603815792243644],[13.272676790487672,52.60372578403854],[13.273080119369235,52.60356523549769],[13.273251251088993,52.60350567396189],[13.273675163564816,52.60336607139073],[13.274030210969707,52.60326510169334],[13.274447737624975,52.60315912992849],[13.275154480436065,52.60300414589856],[13.276247564252694,52.602774743057886],[13.276262922455171,52.60277111858388],[13.276748773059666,52.60264338877543],[13.277149596239672,52.60254531920963],[13.277162662148877,52.60254181521971],[13.277462962788936,52.60245401498773],[13.277474154661434,52.60245049670618],[13.277890755442055,52.60231009634431],[13.27789816709044,52.60230748123669],[13.27827266771879,52.60216928088748],[13.27828060036076,52.60216620903178],[13.278522000709,52.60206820879012],[13.278529488504923,52.60206502894467],[13.279006589074008,52.60185322843609],[13.279018054259357,52.601847772232986],[13.279535354646294,52.601584171629845],[13.279544536110658,52.60157921865489],[13.279823236200999,52.60142011830748],[13.279827346485048,52.60141770949912],[13.28006354651108,52.60127560919611],[13.280068867214906,52.601272294290936],[13.28020866718786,52.601182094105],[13.280212736993008,52.60117939443398],[13.280386336914985,52.60106099419677],[13.280391225145749,52.60105754263947],[13.280670924924971,52.600853042245014],[13.280675979985489,52.600849203581994],[13.280880179743315,52.600688103284675],[13.280885105483145,52.60068406078384],[13.28110170513054,52.60049906045872],[13.28110639157037,52.60049489189839],[13.281315691127913,52.6003008915751],[13.281318392861975,52.60029809754589],[13.28132131733179,52.600295387931986],[13.28154371670629,52.60006548757667],[13.281545085194116,52.6000638995388],[13.281546635599486,52.60006237474316],[13.28180273476925,52.59978047432679],[13.281804644479239,52.59977832569916],[13.282329421453472,52.59917466421056],[13.282661849261515,52.59879444617066],[13.282908731281934,52.59852917706939],[13.283477359439411,52.597986303443626],[13.283559235137812,52.59791455713042],[13.283573368983303,52.59790964503643],[13.283592866829636,52.597901226118644],[13.283610915586673,52.59789168402542],[13.283627341434661,52.59788111065301],[13.2836419861838,52.597869607829516],[13.28370918605316,52.597811107715906],[13.283721908631037,52.597798786212806],[13.283732586550528,52.597785764702294],[13.283741116978801,52.59777216858923],[13.28374741776488,52.597758128812075],[13.283750589250054,52.597746782201106],[13.284127011805127,52.59741400612238],[13.284132244482427,52.59740915625711],[13.284533443513828,52.597018955627824],[13.284539543630604,52.597012641260754],[13.284874742537635,52.59664264071542],[13.28488019302434,52.59663621600069],[13.285204991644477,52.59622631545472],[13.285208798686677,52.59622124073191],[13.28537189784684,52.59599114045128],[13.285373873216068,52.595988260905486],[13.285536872283473,52.59574256062155],[13.285539542147939,52.59573832923263],[13.285847940092745,52.59522342868605],[13.285848415377357,52.59522249518477],[13.285849016776643,52.595221589054454],[13.28604758683605,52.59487423860093],[13.286330936536752,52.59437984579685],[13.286506973279149,52.59408126839716],[13.286659640313978,52.59382953992423],[13.28697314422604,52.59333253980292],[13.287083150166945,52.59316061778537],[13.28709384318042,52.59315458037278],[13.28710969222924,52.59314368638246],[13.287123711537433,52.59313189880804],[13.287135766092092,52.59311933117095],[13.28714573980238,52.593106104505026],[13.287240953862522,52.59296151908088],[13.287469552491496,52.59265407758355],[13.28747833074974,52.592640540312],[13.287484887900455,52.59262654423977],[13.287489160796646,52.59261222415708],[13.28749110829015,52.592597717974414],[13.287490712877343,52.592583211236146],[13.29169415554708,52.5865163407558],[13.291694824380533,52.58651522539644],[13.291695637907686,52.5865141462961],[13.292815337055366,52.584813395293274],[13.293981795780388,52.58310222460348],[13.294854904696246,52.58183209419647],[13.295297852991515,52.58119026793209],[13.29531083343727,52.58118315371323],[13.295326943636669,52.58117240511293],[13.295341246713615,52.581160746376106],[13.295353604922285,52.58114828978339],[13.295363899247421,52.581135155299286],[13.2959376441653,52.58029999383618],[13.296368553417219,52.57970332305384],[13.296377089893848,52.579689729089225],[13.29638339795218,52.57967569087788],[13.296387416844142,52.579661343615804],[13.29638910786779,52.579646825475265],[13.296388454739933,52.579632276274],[13.296388347793805,52.57963175995041],[13.296667744439832,52.57921110254071],[13.296849610494238,52.578976385178336],[13.297054305410061,52.578747722025945],[13.2973383929385,52.57846206916529],[13.29756170822978,52.578269354954536],[13.297856421975391,52.57803837567395],[13.29817142092722,52.577808372695124],[13.298405327319003,52.57765084153158],[13.29869911982265,52.577468480431115],[13.299270799353058,52.57714395722146],[13.29995106440338,52.57680866206773],[13.300690762097089,52.576468283805184],[13.301049459031821,52.576318905672295],[13.301073486421098,52.576318749192104],[13.301099754639418,52.57631700010959],[13.3011256149551,52.576313690871785],[13.301150818316552,52.576308853348756],[13.301175121999279,52.576302534129006],[13.301198291943543,52.576294794070634],[13.30122010500855,52.576285707715385],[13.301549105444899,52.57613370726997],[13.301569351410809,52.576123362067406],[13.301587835440202,52.57611185771041],[13.301604379521795,52.576099304993065],[13.30161882432761,52.57608582480575],[13.301625863336115,52.57607759128706],[13.302056696532452,52.57587424263706],[13.302058549904539,52.57587327558085],[13.3020605215346,52.57587239961761],[13.30277742223223,52.575519798703695],[13.302779438458353,52.57551870323492],[13.302781585383473,52.57551770418676],[13.303169085693124,52.57531830367865],[13.303178056111221,52.57531345195338],[13.303585756267765,52.5750817513867],[13.303590928274675,52.57507850864933],[13.303596294676003,52.57507538535448],[13.30395279460839,52.574846484825706],[13.303969188876763,52.574834801133484],[13.304581388050883,52.574349700135286],[13.304588015549257,52.57434387812389],[13.304594667820544,52.574338066607794],[13.304855567118357,52.574084466150396],[13.30486122092841,52.57407831947281],[13.304866906215098,52.57407218358146],[13.305235404586233,52.573624482895006],[13.305244074767886,52.57361269401186],[13.30537307391953,52.57341459375983],[13.30537345762357,52.57341400079984],[13.305533956547647,52.573164400485574],[13.305537011097535,52.573158864540396],[13.305540241337564,52.57315336573862],[13.30562994047876,52.57297326555612],[13.30563320938721,52.572966051918264],[13.30571600837375,52.57276355174566],[13.305718808467768,52.57275583180331],[13.305820906791132,52.57243383158449],[13.305823500768033,52.57242382726185],[13.305871099497327,52.5721883271547],[13.305871141091654,52.57218798270029],[13.305871235300183,52.57218764211781],[13.305916834031994,52.571953042014705],[13.3059172794709,52.57194910278355],[13.305918014887256,52.57194517971984],[13.30594619357871,52.571679922593674],[13.30594703739128,52.57167908147227],[13.305958540982505,52.57166458898106],[13.30596765771904,52.57164947927939],[13.305974299803864,52.57163389788253],[13.305978403272524,52.57161799484828],[13.305979928609064,52.571601923331855],[13.30598772525537,52.57105432328607],[13.305987729988377,52.57105186166477],[13.305982126684693,52.570512661649694],[13.305980663197412,52.570496587996814],[13.305976621006973,52.5704806791447],[13.305970039044595,52.57046508830406],[13.305960980700677,52.57044996562282],[13.305954521161812,52.57044177861364],[13.305943456076676,52.570005274551306],[13.305966218385235,52.56940723164948],[13.305990536690848,52.569188356031994],[13.306031239874374,52.568999042997646],[13.306082350559077,52.568822732158644],[13.306127312954652,52.56868463107771],[13.306174718500632,52.56855960787152],[13.3062373288438,52.56843027546789],[13.306361315048896,52.56819518748925],[13.30648569103187,52.56799847170355],[13.306634940397146,52.567810600869365],[13.306804595757637,52.56762662110711],[13.306923467483037,52.56750726950383],[13.307052424465583,52.56739070049031],[13.307064787761009,52.56737824713232],[13.307075088301232,52.56736511533059],[13.30708322688785,52.56735143155214],[13.307086840185486,52.56734279139716],[13.30721835782142,52.5672478202188],[13.307404448662945,52.56713048558523],[13.307579304490202,52.56704135408969],[13.307749785882375,52.56696682661683],[13.307984212609533,52.566878246527544],[13.308277927695864,52.56678922731252],[13.308701196267318,52.566668674206305],[13.309665421108045,52.56641578063257],[13.309672375080314,52.56641370465993],[13.309679418445159,52.56641174377951],[13.309934318954749,52.56633134356988],[13.309947994716437,52.56632664116014],[13.310192195119146,52.566235440930576],[13.310205705735495,52.5662299626201],[13.310218508674117,52.56622388591476],[13.310389708799184,52.566136185714676],[13.310403308005926,52.56612859722187],[13.310415803903899,52.56612033430401],[13.310578803788129,52.56600293407586],[13.310596839018404,52.565987923385094],[13.310681638816666,52.5659058232524],[13.310693690463134,52.56589252056255],[13.310764190160418,52.56580292044397],[13.310768682696958,52.565796820821916],[13.31082958236807,52.565708220716616],[13.31083375070099,52.565701675175916],[13.310886550339804,52.56561177508215],[13.310894100118826,52.56559584230402],[13.310923399751854,52.565515442248724],[13.310926399187133,52.56550539866777],[13.310945498796466,52.56542369862997],[13.310947320981313,52.56541254384508],[13.310947590300085,52.56540133513227],[13.31094228972217,52.56528453513711],[13.310941220738929,52.5652745740198],[13.310921620174222,52.56515897405068],[13.310920033093891,52.5651516281719],[13.31082049818524,52.56477300644474],[13.310725021908253,52.56420831198378],[13.310724935569073,52.56420796794981],[13.310724901991593,52.56420762051795],[13.310685121927065,52.563983854519535],[13.310686102864214,52.56398241874952],[13.310693077547114,52.56396849844838],[13.310697779631486,52.56395422857523],[13.311146569927722,52.56213322758761],[13.311148953872108,52.56211874555402],[13.311148997073474,52.56210419085495],[13.311146699118087,52.56208970366014],[13.311142082138794,52.56207542348907],[13.31113716116994,52.56206547262413],[13.311200744266186,52.56180738514853],[13.311202461244273,52.56179828412277],[13.311319256897727,52.56090948387384],[13.311319950613163,52.560898602447665],[13.311318849133988,52.560599702437294],[13.311318105611935,52.560589044051234],[13.311282104313067,52.56032444410584],[13.31128061501037,52.56031645121904],[13.311210313581814,52.56001975133409],[13.31120654625409,52.56000777526756],[13.311033844250264,52.55956897555733],[13.311031573709498,52.55956368930485],[13.3109408728502,52.55936898945692],[13.310936794415587,52.55936116520968],[13.310808993501219,52.55913996542206],[13.310804161443835,52.55913235764114],[13.310570660166778,52.55879585802301],[13.310566398190685,52.55879010211574],[13.310349697230837,52.55851510246426],[13.310342630463113,52.55850688438594],[13.30984912889354,52.55797878515557],[13.309848536896707,52.55797821827059],[13.309848028982836,52.557977621854356],[13.308381324551709,52.5564443241301],[13.308380887463413,52.55644386925874],[13.307761391480387,52.5558020870783],[13.307153065823275,52.55516378275553],[13.306352911518667,52.55432156623465],[13.305574007229787,52.553481359993654],[13.303851555107592,52.551570729984554],[13.303535939081087,52.55119846143272],[13.303537647976608,52.551192023000354],[13.3035392903111,52.55117595574791],[13.303538341158218,52.55115986773731],[13.30353480966165,52.55114391390488],[13.303528729834383,52.55112824789451],[13.303520160231026,52.551113020578114],[13.303509183383806,52.551098378602546],[13.302705979548788,52.55015268018108],[13.302692701707556,52.55013876446822],[13.302677250248621,52.55012570910579],[13.302659773978911,52.550113639823245],[13.302640441204845,52.55010267285353],[13.302634164270811,52.55009975629116],[13.301756566036383,52.54902100732529],[13.30147890559251,52.54867974131186],[13.301228008282692,52.548358828708274],[13.301227202370752,52.54834551474045],[13.301223646605395,52.54832956292986],[13.30121754311663,52.54831390039531],[13.301208950686936,52.54829867797522],[13.301197952068367,52.54828404226931],[13.300735956632034,52.54774130071963],[13.300623636521838,52.54759819685485],[13.300611083587789,52.547584033584805],[13.30059631387267,52.54757068858844],[13.300579469618011,52.547558290384586],[13.300560713043758,52.54754695837386],[13.30054826788876,52.54754078891327],[13.300098291012466,52.54698649685281],[13.30000710524944,52.54687339969938],[13.299746550170484,52.54652655649063],[13.299745612172234,52.54651066453215],[13.299742080538419,52.54649471074146],[13.299736000854375,52.54647904480333],[13.299727431673334,52.546463817588915],[13.299716455523452,52.546449175744144],[13.299189053005833,52.54582817678051],[13.299175775946495,52.54581426125608],[13.299160325517544,52.545801206113026],[13.29914285051599,52.54578913707867],[13.299123519236037,52.54577817038357],[13.299121399326355,52.54577718532283],[13.2983763608902,52.54481177377357],[13.298080960010143,52.544372275852595],[13.297763984520031,52.54384425122018],[13.297611313456985,52.543532561815674],[13.297613718986378,52.543521208977616],[13.29761451883736,52.5435051179526],[13.297612727890218,52.54348905661229],[13.297608363395568,52.54347317963607],[13.297601467388565,52.54345763992764],[13.29710746676535,52.542528013545265],[13.296948962510516,52.542222087816896],[13.29694333929692,52.54221231906212],[13.296644836985896,52.54174181967122],[13.296634114606848,52.541727108418364],[13.296621078841321,52.541713108783064],[13.296605855232347,52.54169995558871],[13.296588590392592,52.54168777550698],[13.296569450592347,52.54167668583784],[13.29654862015825,52.541666793380024],[13.296544365020099,52.54166515389414],[13.296416547635861,52.54145044985785],[13.296108371379324,52.54087325963455],[13.29610796097001,52.540872498775016],[13.295505984556439,52.53976771867899],[13.295307806641269,52.539395738827984],[13.295307350577735,52.53939489247708],[13.294707080433616,52.53829339081525],[13.294065633343534,52.537064427674416],[13.293946956315636,52.5368234489563],[13.293947250702935,52.536822630594585],[13.293950054959597,52.536808176654404],[13.293950522314566,52.5367936247098],[13.293948648269275,52.53677911490401],[13.293944450874095,52.536764786974274],[13.293937970554417,52.536750778906175],[13.293711368621704,52.536339379328304],[13.293702667937179,52.536325826010575],[13.293691830551847,52.53631285798081],[13.293678960837042,52.536300600127696],[13.293664182736151,52.536289170500396],[13.293654268261882,52.53628288332959],[13.293564354465014,52.536113557872866],[13.29356407923117,52.536113114990506],[13.293563871166546,52.53611265868421],[13.293184003058396,52.53541432336163],[13.292769934565252,52.53465048812085],[13.292768441916227,52.534648129776116],[13.292767184082193,52.534645721051646],[13.292625183147306,52.53441382128646],[13.292620308736788,52.534406529391795],[13.292422407731413,52.5341339297135],[13.292421228757137,52.53413233424841],[13.292289928127895,52.533957734460856],[13.292279837583333,52.53394592136798],[13.292161337230352,52.533822721551495],[13.292161300318943,52.53382268716225],[13.292161269075818,52.53382265074413],[13.292001568601632,52.53365685099139],[13.291992214210953,52.533647969013],[13.291981730740948,52.53363956900325],[13.291782630550106,52.53349256928177],[13.291771585865298,52.533485020801706],[13.291585985823913,52.533367521045285],[13.291572885720697,52.53335989098446],[13.291326285834499,52.5332277912824],[13.291301168380603,52.53321618950439],[13.291076568698806,52.53312728973023],[13.291074119033176,52.533126334250966],[13.29099501915117,52.533095934328934],[13.290981337628619,52.533091091058],[13.290846859175582,52.533047394444395],[13.290836773673455,52.533039116070256],[13.290820730710715,52.53302833986157],[13.290803032936104,52.53301857447527],[13.290783850788664,52.533009913956676],[13.290763369002317,52.53300244171064],[13.290741784826798,52.532996229698334],[13.29062948511282,52.53296792978832],[13.290619805049847,52.53296563666704],[13.290448205515723,52.53292753679086],[13.290443358840465,52.53292649591767],[13.290162459624359,52.53286819610908],[13.290139515124974,52.532864188405284],[13.290116036953027,52.53286157145971],[13.290092251213995,52.532860370474715],[13.290068386975273,52.53286059701631],[13.290045186541697,52.532862213202414],[13.289266709558506,52.53271336566884],[13.288963611622025,52.532651543968186],[13.288963459406293,52.53265144132715],[13.288945792575847,52.53264165523488],[13.288926637909052,52.532632972269525],[13.288906179875186,52.5326254760521],[13.288884615495242,52.532619238774636],[13.288196297341797,52.53244483196681],[13.287937813253272,52.532368050740054],[13.287467201943134,52.532220667619924],[13.287445461721154,52.53221466191943],[13.287422860905137,52.53220998463431],[13.287399617151479,52.53220668080892],[13.287375954308171,52.53220478226058],[13.287366272002822,52.53220458946483],[13.28727545053172,52.53217402216367],[13.287247098035131,52.53216604175077],[13.286719099296288,52.532044642101425],[13.286698790465552,52.532040654842206],[13.286677938568646,52.53203790072442],[13.286656744419062,52.53203640627153],[13.286635412126255,52.53203618587577],[13.286614147130017,52.53203724165965],[13.286593154222057,52.532039563455456],[13.286572635573815,52.53204312890322],[13.286552788789509,52.532047903666],[13.286533805003147,52.532053841760614],[13.286515867037874,52.532060886000366],[13.286499147645314,52.53206896854592],[13.286483807841904,52.53207801155847],[13.286469995358253,52.53208792794942],[13.2864578432164,52.53209862221907],[13.28644746844874,52.53210999137626],[13.286438970970913,52.532121925930305],[13.286432432619513,52.532134310945345],[13.28642791636393,52.53214702714722],[13.286425465699843,52.53215995207223],[13.286425104230284,52.53217296124644],[13.286426835438245,52.532185929384376],[13.28643064265308,52.532198731595734],[13.286436489210969,52.53221124458805],[13.286444318807943,52.532223347854064],[13.286454056042079,52.532234924832345],[13.286465607139583,52.532245864029825],[13.286478860857864,52.53225606009555],[13.286493689556815,52.53226541483528],[13.286509950428046,52.53227383815722],[13.286527486870208,52.53228124893958],[13.286546129997149,52.532287575811985],[13.286565700264413,52.532292757842676],[13.287079054093486,52.53241079043256],[13.287155694310528,52.532436584862296],[13.287156132944103,52.532437014945515],[13.287170663732919,52.53244856126215],[13.287186980385975,52.53245918341884],[13.287204925765167,52.53246877911771],[13.287224327046411,52.532477255946255],[13.28724499738405,52.532484532267276],[13.28771789840755,52.53263263271697],[13.287722498091433,52.532634035925035],[13.287989798698142,52.532713436169125],[13.288002982151356,52.5327170605844],[13.288697983915853,52.53289316114379],[13.288720447089107,52.53289807944542],[13.288743592621339,52.532901631366315],[13.288767197606399,52.532903782699194],[13.288791034713174,52.532904512725295],[13.288814874374998,52.532903814414],[13.288825100227372,52.53290289634536],[13.289130738302749,52.53296523619988],[13.289134653805382,52.53296600977236],[13.289915667517501,52.53311534246312],[13.289923596344396,52.533120029412764],[13.289942279399407,52.5331290866238],[13.289962328275568,52.53313698348051],[13.289983549890312,52.53314364393122],[13.290005739866576,52.53314900383158],[13.290284208283849,52.53320679919545],[13.290448514206762,52.53324327972794],[13.290556014586487,52.53327037022076],[13.290578493408177,52.533275262206644],[13.290601650290514,52.53327878701477],[13.29062526221803,52.5332809106989],[13.290642392775636,52.533281415217495],[13.290769876466953,52.53332283906984],[13.290841050296168,52.53335019288142],[13.291051181127896,52.53343336588378],[13.291279102714423,52.5335554603386],[13.291452654844516,52.53366533330133],[13.291635418836172,52.53380027246199],[13.291786296260003,52.53395691355439],[13.291899229460924,52.53407432650481],[13.29201111835103,52.53422311496052],[13.291995696515324,52.53421017083064],[13.291985946068623,52.534202583130465],[13.291764345880582,52.534042483437894],[13.291748625170548,52.53403227256181],[13.291600425188305,52.53394567274907],[13.291597629136385,52.53394406753063],[13.291421929182533,52.53384496774872],[13.291405919981962,52.533836772667904],[13.2911696202088,52.53372717293089],[13.291160453580297,52.533723146157556],[13.29089605392021,52.53361324643218],[13.29088979017698,52.53361073814948],[13.290688790475183,52.53353323834805],[13.290682665173135,52.53353112572073],[13.290676659115798,52.5335288893968],[13.290385459645512,52.533432089655626],[13.290384371164064,52.5334317302706],[13.289804072235496,52.533241430781246],[13.289784807867353,52.5332358381518],[13.289764737353481,52.533231423930935],[13.289744053982497,52.53322823062961],[13.289722956944956,52.533226289000815],[13.289701649415102,52.533225617743305],[13.289680336594259,52.53322622332159],[13.289659223734699,52.53322809990361],[13.289638514163023,52.53323122941707],[13.289618407322079,52.53323558172324],[13.289599096850287,52.5332411149074],[13.289580768716844,52.53324777568236],[13.289563599430792,52.53325549990173],[13.289547754341173,52.53326421317756],[13.289533386044646,52.533273831596816],[13.289520632915904,52.53328426252939],[13.289509617775053,52.53329540552028],[13.289500446704764,52.53330715325687],[13.289493208028599,52.533319392602486],[13.289487971460376,52.533332005685914],[13.289484787432723,52.53334487103651],[13.289483686611323,52.53335786475415],[13.289484679599529,52.53337086170228],[13.289487756836165,52.53338373671312],[13.289492888687535,52.53339636579317],[13.289500025732755,52.53340862731724],[13.289509099239629,52.533420403199784],[13.289520021826526,52.53343158003221],[13.289532688303865,52.53344205017502],[13.289546976687118,52.533451712794495],[13.289562749371555,52.53346047483375],[13.289579854457463,52.53346825190904],[13.289598127213004,52.53347496912228],[13.290177883202553,52.53366509088411],[13.290462359167739,52.53375965578829],[13.290654241899578,52.533833640499445],[13.29091087667166,52.53394031295232],[13.291134351402274,52.53404396452897],[13.29130096055913,52.534137937194636],[13.291439470986345,52.53421887531332],[13.29164855175023,52.53436993091472],[13.291925783828457,52.534602622353425],[13.292191313748724,52.53488532809583],[13.29225958360871,52.534971623176716],[13.29244086552454,52.535220547725736],[13.292612025544349,52.53553079625633],[13.292991639783006,52.53622539857428],[13.293022922979711,52.53628796555914],[13.293022937807349,52.536287990716765],[13.293022948536795,52.53628801663683],[13.2930575482379,52.53635711669469],[13.293057549366193,52.53635711860661],[13.293057550181839,52.536357120576774],[13.293057999323903,52.536358017471514],[13.293056282292294,52.53636395886954],[13.293054463900482,52.536378471305746],[13.293054987041417,52.536393022542796],[13.293057846679275,52.53640747244436],[13.29306301527644,52.53642168184982],[13.293234613377157,52.53680368217158],[13.293242041275255,52.5368175142257],[13.293251656843807,52.53683083572537],[13.293263367481224,52.53684351837674],[13.293277060408887,52.53685544003838],[13.293292603757244,52.53686648589751],[13.293309847835737,52.536876549575766],[13.29331244885216,52.5368777940173],[13.29335152613831,52.53693316141439],[13.293723497648,52.53759872705722],[13.294137819470278,52.53835342681955],[13.294754307435712,52.53948589391369],[13.294953677525776,52.53989220272824],[13.294955941191569,52.53989654303183],[13.295704577539963,52.54125091127333],[13.296053387680688,52.541944575809296],[13.296050648593809,52.54194914799317],[13.296044064354174,52.54196473784751],[13.296040018100982,52.54198064611091],[13.296038548804553,52.54199671957841],[13.296039670617823,52.54201280345385],[13.296043372739941,52.54202874284066],[13.296049619520183,52.542044384233634],[13.296218617642204,52.54239228458364],[13.296220702262811,52.54239637871131],[13.297028194297146,52.54391198037815],[13.297037574450169,52.54392702877517],[13.297049328789472,52.54394144416974],[13.297063344116086,52.54395508773303],[13.297079485456024,52.543967828069356],[13.297096830201708,52.543979046299135],[13.297408999655936,52.54448510779868],[13.297412306294762,52.54449018259622],[13.297752004184764,52.54498478321811],[13.29775560798289,52.54498977100548],[13.298114606085957,52.54546287165464],[13.298116051451649,52.5454647420627],[13.298436349861639,52.54587184263888],[13.298437464989808,52.545873241109035],[13.299070261994325,52.5466563422427],[13.299397665763681,52.54706144941082],[13.29939842351495,52.54706237877511],[13.299716076103088,52.547448572443294],[13.300062848876589,52.54788496003066],[13.300063365000188,52.547885535690874],[13.30006379481655,52.54788613712666],[13.300822891259347,52.548820238485426],[13.300823249541368,52.548820629820106],[13.300823547239267,52.54882103959014],[13.302226340845394,52.55052124209501],[13.302228280225071,52.55052354236015],[13.303280275804566,52.55174494422469],[13.303282247548346,52.55174718647483],[13.30465314224217,52.5532744888858],[13.304665617639001,52.55328689919157],[13.304680028616781,52.55329850439163],[13.304696236390575,52.55330919272087],[13.304714084870874,52.55331886124412],[13.304733402166818,52.55332741684755],[13.304743728128537,52.5533311062548],[13.305042808979573,52.55361032600289],[13.305835895475102,52.554491471065816],[13.305836738804166,52.55449230782916],[13.305837464879565,52.55449318449259],[13.306630562342965,52.55534418573002],[13.306633155619577,52.555346893232134],[13.307291882144021,52.55601631661131],[13.307925604190862,52.55667011375018],[13.308946044745197,52.55774528094573],[13.309303652931499,52.558137784468215],[13.31001340027503,52.558922501388665],[13.310237078839391,52.55926910398389],[13.310441567446249,52.55964819253124],[13.3105804649103,52.560083385225234],[13.310644033808934,52.56036901079273],[13.310685985328947,52.56062082471232],[13.310699393861567,52.56088921626426],[13.310692220064468,52.56115220783876],[13.310271997706668,52.562840621067764],[13.309824122418103,52.5645034291249],[13.309790397839617,52.56460597600682],[13.309654036105902,52.56486856467295],[13.309546604459925,52.56501120264443],[13.309426248614432,52.56512962715237],[13.309389691308535,52.565161216905175],[13.309256469566554,52.56525330457287],[13.309130444498683,52.56533391924523],[13.308974186093268,52.56541982374332],[13.308804934031793,52.56550308850572],[13.308544612967097,52.56561244076228],[13.308538955971216,52.56561489917976],[13.30831155623416,52.56571709893552],[13.308304542794662,52.56572038721274],[13.30805234301918,52.5658436869265],[13.308049224032493,52.56584524092315],[13.307842024190325,52.56595044068236],[13.307836793398495,52.56595318324857],[13.307563593543387,52.5661010829185],[13.307551540885232,52.56610813036377],[13.307313340862718,52.5662585300507],[13.307311436202077,52.56625974802018],[13.307090636156286,52.56640274772622],[13.307075675059245,52.566413534940516],[13.306884074812931,52.566567634659634],[13.306875336274183,52.566575197045],[13.306684535864479,52.566753196749936],[13.306677242018766,52.56676050586369],[13.306436841274614,52.567019905475284],[13.306429929593726,52.56702800213963],[13.306269250411841,52.567233184588446],[13.30625205569338,52.567242100445455],[13.306235469538866,52.56725257396341],[13.306220647982112,52.56726398767264],[13.30620773376332,52.56727623165356],[13.3061968512544,52.567289187990596],[13.30603375038318,52.56750938767967],[13.306029493158123,52.56751549618882],[13.30585579202376,52.56778109584975],[13.305852026895671,52.56778724522466],[13.305680425529964,52.56808764488221],[13.305678417572356,52.56809131327847],[13.305574516641409,52.568289713068516],[13.305570928346851,52.568297247455334],[13.305488027391123,52.56849024728351],[13.305485075780652,52.56849795235249],[13.305409074616431,52.56872335219071],[13.305406881855307,52.568730819230865],[13.305359080839454,52.56892161912583],[13.305358641147551,52.56892345071652],[13.305311640051103,52.569128150612244],[13.305310268623257,52.569135429597914],[13.305275767346096,52.56936942951701],[13.30527482555106,52.569380200631194],[13.305266424639942,52.56968387278784],[13.305257423665145,52.57000214494405],[13.305257399345985,52.5700061613118],[13.305280359012976,52.57142614638933],[13.305279830958227,52.571426770406305],[13.30527008298981,52.571441733097735],[13.305262789039496,52.571457205891306],[13.305258019354396,52.57147303977602],[13.305255819871824,52.57148908226324],[13.305248092624913,52.571626473617094],[13.305233095048894,52.5718082814131],[13.30519678453544,52.5720430215825],[13.305151558665168,52.57227012081663],[13.305097812855099,52.57247265918927],[13.30505276057997,52.572613015498995],[13.305048967790247,52.572628947142206],[13.305047756294298,52.57264502857073],[13.305049137762312,52.572661104911724],[13.305053098892824,52.572677021341164],[13.305053683541122,52.57267842421692],[13.305010976654682,52.57278841967877],[13.304921465402773,52.572956841752244],[13.304766294999268,52.573239618023855],[13.30466430212256,52.5733900778482],[13.304363871820632,52.57379103788518],[13.304067643039318,52.57407823631842],[13.303785870095762,52.574320747280176],[13.303445462083687,52.57456309385151],[13.302988981241477,52.574854291384305],[13.302532806140022,52.575105167622056],[13.30205755117056,52.57534670319178],[13.301591190257987,52.57557661300674],[13.30104145096419,52.57583145209261],[13.300969741409132,52.57586345304659],[13.300951184257334,52.57587261956979],[13.300934191246181,52.57588285007824],[13.300918926027599,52.57589404604723],[13.300905535614383,52.57590609965415],[13.300894358558647,52.575918659296114],[13.299509937307532,52.576568793128395],[13.299503419351604,52.57657197727605],[13.298899519810147,52.576878776573714],[13.298894927702392,52.57688117618103],[13.298502127921216,52.57709227570841],[13.298493712757557,52.57709704471648],[13.298088012814576,52.57733944419827],[13.29807850276993,52.57734549708481],[13.297741102628219,52.57757429662534],[13.29773903987382,52.577575841643835],[13.297736809205686,52.577577297504526],[13.297410508972968,52.577812397047595],[13.29740550677426,52.57781613704824],[13.29709690643634,52.57805563660214],[13.29709589718332,52.57805650437492],[13.297094774452251,52.578057318773105],[13.296852074143235,52.57825201841757],[13.296840331420748,52.578262434269554],[13.296557430716945,52.57854093382436],[13.296551317467461,52.57854734598518],[13.296321916697192,52.57880424561072],[13.296318155824922,52.57880865193462],[13.296128055059018,52.57904195161724],[13.296126957175204,52.57904348343853],[13.296125678870988,52.579044962418465],[13.295784530166669,52.57949153914674],[13.295780455764184,52.57949340239732],[13.295762846180146,52.57950323922557],[13.295746904150214,52.57951408014084],[13.295732783205068,52.579525820739846],[13.295720619337803,52.579538347954866],[13.2957105296942,52.5795515411426],[13.295326427269293,52.58012584039555],[13.295325001076629,52.58012802203882],[13.295295300875415,52.580174521980574],[13.295287740283987,52.580188328703464],[13.295282437661509,52.58020252037358],[13.295279444077211,52.580216960317706],[13.295278788363188,52.580231509471474],[13.295279769831946,52.5802399485783],[13.294199431424572,52.581870125353504],[13.293350794640768,52.583118682608166],[13.293350772021057,52.58311872113463],[13.293350743348167,52.5831187581359],[13.291141425338894,52.58637452610521],[13.289551025376213,52.588641198793916],[13.289079824610871,52.58931279555793],[13.286984859873154,52.592297397642575],[13.28697063502856,52.592305199843736],[13.286954529711634,52.59231595337583],[13.286940232713569,52.59232761647992],[13.286927881722901,52.5923400768346],[13.286917595687477,52.592353214440465],[13.286748994664384,52.59259891411399],[13.286745701849878,52.59260446354273],[13.286742240243553,52.59260997474394],[13.286628539257798,52.59282157451481],[13.286622229806715,52.59283561275046],[13.286618210207422,52.59284996000587],[13.286616519173032,52.59286447810935],[13.286617172991427,52.592879027243754],[13.286618182420963,52.59288389835986],[13.286109713971246,52.593724260478034],[13.286109134512643,52.59372522975364],[13.285791032349966,52.594263829188634],[13.285790296668406,52.59426509488985],[13.285516733936376,52.59474342583452],[13.28531751509917,52.595090533138965],[13.285004756977479,52.5956238292929],[13.284881202564577,52.595811579328696],[13.284805871180824,52.5959260317678],[13.284357557239826,52.59651021596116],[13.283877870245828,52.59701306206716],[13.283742210112178,52.597143260166575],[13.2834438669978,52.59741740419232],[13.282713835744998,52.59808665963271],[13.282712376125826,52.59808712011055]],[[13.307415517165788,52.56657930157364],[13.307627418464396,52.56644206444118],[13.307858855581353,52.566295934237345],[13.308123227543428,52.56615281314432],[13.30832622892198,52.56604974471711],[13.308573405997787,52.56592890024477],[13.308794448361969,52.565829557422354],[13.309058688003724,52.56571855883838],[13.309071872658814,52.56571255984857],[13.309252172815563,52.56562385964312],[13.309261243972278,52.56561914097814],[13.309428044051058,52.56552744077483],[13.309439834120717,52.565520448526826],[13.309574434100258,52.565434348348745],[13.309580108550337,52.56543057532843],[13.309723908477041,52.56533117513089],[13.309738507719487,52.565319908226236],[13.309785607639915,52.5652792081553],[13.309789086041341,52.5652758653846],[13.309792772839561,52.56527260660575],[13.30992367251467,52.565143806399874],[13.309936439721536,52.56512930389526],[13.310055139170856,52.5649717036937],[13.310064832919556,52.56495640013053],[13.310208831753402,52.564679099870105],[13.31021472809746,52.56466515190841],[13.310251527579199,52.5645532518382],[13.310252093417148,52.564550950014265],[13.310252896245142,52.56454867450471],[13.310309560045285,52.56433830093936],[13.310388275190043,52.56480388777061],[13.310389868538417,52.564811271270564],[13.310489404720407,52.56518991201083],[13.310507536783595,52.56529685729217],[13.310512099884843,52.5653974286934],[13.310496783266816,52.56546294394657],[13.310472255911781,52.565530246794324],[13.310425991656059,52.5656090180696],[13.310369437835366,52.565691294514245],[13.310306709397361,52.56577101702534],[13.310236712958554,52.56583878453591],[13.310095539014739,52.56594046415429],[13.309950940063574,52.56601453721455],[13.309727304394869,52.566098057084965],[13.309486262772612,52.566174085859394],[13.308526081577687,52.56642591862692],[13.308519969095942,52.56642759018267],[13.308091270026566,52.56654968985906],[13.308086503556561,52.56655109069207],[13.30778130418821,52.56664359044923],[13.307763534966659,52.56664962299103],[13.307514235370917,52.566743822754574],[13.307502067372972,52.566748773203116],[13.307319067599506,52.56682877301025],[13.307306292819849,52.5668348078658],[13.307116392961873,52.566931607644534],[13.307099541903462,52.566941164782186],[13.306900341885838,52.56706676452055],[13.306890510820077,52.56707339662711],[13.30687997096448,52.5670810076225],[13.307052705227463,52.56689462013324],[13.307235511649909,52.56672407680648],[13.307415517165788,52.56657930157364]]]}}]}
