{"type":"FeatureCollection","features":[{"type":"Feature","properties":{"name":"Exact named former airport terminal and runway source scope","version":"1.0.94"},"geometry":{"type":"MultiPolygon","coordinates":[[[[13.275309345633197,52.5583734640405],[13.275800303000487,52.558421381776675],[13.280488946925368,52.55886430066374],[13.280490290375223,52.55886442922784],[13.281184487247366,52.558931728890734],[13.281198839640837,52.55893331378131],[13.281774875473625,52.55900475011246],[13.285678843051414,52.55938586328024],[13.292438446966342,52.56004586333241],[13.293265846408788,52.56012666323717],[13.293819320281244,52.56018066066113],[13.29381965703472,52.56018069362011],[13.293979410724576,52.56019637924675],[13.29766884849768,52.56055656322733],[13.303084346495213,52.561085262769],[13.308879542834076,52.56165115236869],[13.309057426625161,52.56166844106556],[13.309608207558638,52.56172215865446],[13.309808903247058,52.56174176798555],[13.309701496233354,52.56215003197912],[13.309500943625205,52.56213043659997],[13.308950481146146,52.56207674998589],[13.308772572055746,52.56205945881286],[13.302977034068505,52.56149353534932],[13.297561539789584,52.56096483564478],[13.293871934366715,52.56060463493568],[13.293711910807907,52.56058892287551],[13.293158576706917,52.560534939033445],[13.292331139112836,52.560454135324164],[13.28557153925122,52.55979413500776],[13.281660538817007,52.55941233477367],[13.281646562275153,52.55941078652079],[13.28107070801386,52.5593393726744],[13.28038438062816,52.55927283584051],[13.27569553139765,52.558829897077054],[13.275693862232858,52.558829736766775],[13.275202060018215,52.55878173652646],[13.274835346025313,52.55874593514251],[13.273756943342557,52.55864063482761],[13.26789083754737,52.55806783397291],[13.265692840328313,52.55785323413584],[13.265800159152034,52.55744496582878],[13.267998149255039,52.55765956475404],[13.273864248196801,52.55823236436183],[13.274942656339347,52.55833766510373],[13.275309345633197,52.5583734640405]]],[[[13.2765101,52.5568218],[13.27656391162716,52.55661768037082],[13.281042381810973,52.55705617723148],[13.28167596930326,52.55711817597645],[13.282446471846361,52.557193576187515],[13.28613809665721,52.55755507843494],[13.288553281002551,52.557791476784395],[13.293078485754771,52.55823447702841],[13.29371808305859,52.55829707673332],[13.294592723522388,52.558382780651996],[13.300438476949012,52.55895497580808],[13.301040631024339,52.559013981072866],[13.309257977573356,52.559818375441246],[13.31007400972502,52.55989827854885],[13.31025228009851,52.559915785428544],[13.311243048149082,52.560012762677424],[13.311299405571873,52.56001824879548],[13.311192393910373,52.56042655116941],[13.311135893655855,52.56042105114191],[13.310144604565087,52.56032402287431],[13.3101984,52.5601199],[13.31014443413396,52.56032400616449],[13.309966311540204,52.560306513757524],[13.309150403993229,52.560226622770486],[13.300932984907394,52.55942222050279],[13.300330885910713,52.55936322057302],[13.29448509621084,52.55879102129557],[13.29361048409289,52.55870532006727],[13.29297091362714,52.55864272292658],[13.288445705914388,52.55819972195066],[13.286030507603531,52.557963321997654],[13.282338904526899,52.557601821515995],[13.281568427170361,52.55752642369397],[13.280934827323811,52.557464423677885],[13.276456405672247,52.557025931132074],[13.276277022697434,52.55700844253232],[13.275919957270744,52.556973416574536],[13.27531931150972,52.55691462185404],[13.275316768532395,52.556914366882204],[13.27497287126032,52.55687906714471],[13.274494483273083,52.556829968353284],[13.27427909219525,52.55680786925772],[13.274391707261424,52.55640013070428],[13.27460710629572,52.55642223059424],[13.275085523926347,52.55647133237905],[13.2750292,52.55667520000001],[13.275085532465827,52.55647133325552],[13.275428160241434,52.556506502651125],[13.276027585265423,52.5565651778162],[13.276384337175083,52.556600173069576],[13.27656367597547,52.556617657344795],[13.2765101,52.5568218]]],[[[13.29152,52.55525239999999],[13.2915099,52.555264399999984],[13.2914913,52.555271700000006],[13.2914692,52.555272399999986],[13.2914496,52.55526619999999],[13.2914376,52.555254899999994],[13.2914365,52.5552414],[13.2914274,52.55523529999999],[13.2912758,52.5552223],[13.2910368,52.5554054],[13.29107,52.5555199],[13.2910745,52.5555249],[13.291092099999998,52.555528300000006],[13.2911081,52.555537199999996],[13.2911152,52.5555513],[13.2911104,52.555564100000005],[13.291095100000001,52.55557439999999],[13.2910718,52.5555789],[13.29105,52.55557569999999],[13.2910342,52.555567100000005],[13.291026699999998,52.55555360000001],[13.291029900000002,52.5555418],[13.2910398,52.55553189999999],[13.2910424,52.5555314],[13.2910406,52.555524500000004],[13.290943100000002,52.555425],[13.2905614,52.55538769999999],[13.2904659,52.5554602],[13.290465,52.555464900000004],[13.2904815,52.5554732],[13.290488700000001,52.5554875],[13.2904838,52.5555005],[13.2904685,52.555510899999994],[13.290444700000002,52.5555155],[13.290422500000002,52.5555123],[13.2904065,52.5555035],[13.2903989,52.55548989999999],[13.2904021,52.555477599999996],[13.290419,52.555465299999994],[13.290432,52.555462799999994],[13.290434600000001,52.5554565],[13.2903781,52.555369299999995],[13.2898334,52.55531909999999],[13.2897394,52.55538899999999],[13.2897395,52.5553943],[13.289751300000002,52.55540189999999],[13.289758600000003,52.55541569999999],[13.2897538,52.5554284],[13.289738600000002,52.5554389],[13.2897152,52.5554432],[13.2896934,52.55544],[13.2896777,52.5554314],[13.2896702,52.555418],[13.2896736,52.5554062],[13.28969,52.555393900000006],[13.2897059,52.5553915],[13.2897086,52.555385599999994],[13.2896524,52.5553014],[13.2892691,52.555263499999995],[13.289123200000002,52.55533849999999],[13.289119,52.5553417],[13.2891256,52.5553548],[13.2891212,52.55536680000001],[13.2891071,52.5553763],[13.2890852,52.55538060000001],[13.2890648,52.55537759999999],[13.2890502,52.55536949999999],[13.2890431,52.555357],[13.2890461,52.55534589999999],[13.2890616,52.55533440000001],[13.2890818,52.5553304],[13.289100100000002,52.5553318],[13.2891953,52.55522419999999],[13.289059100000001,52.5550039],[13.2889091,52.55498849999999],[13.2889012,52.55499269999999],[13.2888974,52.555003],[13.2888827,52.55501319999999],[13.2888598,52.5550175],[13.2888384,52.5550143],[13.288823,52.5550059],[13.2888156,52.554992699999985],[13.2888187,52.55498109999999],[13.288835,52.5549691],[13.2888562,52.5549648],[13.2888798,52.554968],[13.288888500000002,52.554973699999984],[13.2888975,52.5549713],[13.288992500000003,52.5548994],[13.2887939,52.5545835],[13.288647200000002,52.5545703],[13.288637700000002,52.55457319999999],[13.2886333,52.554584900000016],[13.288617200000001,52.554593999999994],[13.2885949,52.5545982],[13.288574000000002,52.55459509999999],[13.2885589,52.5545868],[13.2885517,52.55457390000001],[13.2885547,52.5545625],[13.288570500000002,52.5545509],[13.2885914,52.5545466],[13.288614400000002,52.5545499],[13.2886237,52.5545524],[13.2886382,52.5545506],[13.2887272,52.554479799999996],[13.2885908,52.5542591],[13.2884161,52.55422140000001],[13.2884027,52.55422070000001],[13.2883908,52.5542274],[13.2883692,52.554231599999994],[13.288349,52.5542287],[13.2883345,52.554220699999995],[13.2883275,52.55420829999999],[13.2883305,52.55419719999999],[13.2883458,52.554186],[13.288365800000001,52.554181799999995],[13.2883881,52.55418499999999],[13.288402600000001,52.5541932],[13.2884076,52.55420329999999],[13.2886063,52.5542012],[13.2888499,52.5540206],[13.288798900000002,52.5539336],[13.288790000000002,52.55392899999998],[13.2887715,52.553932399999994],[13.2887496,52.55392919999999],[13.288733800000001,52.5539205],[13.2887263,52.5539073],[13.2887297,52.5538952],[13.2887462,52.55388309999999],[13.2887681,52.5538785],[13.2887921,52.5538819],[13.2888078,52.5538909],[13.2888151,52.553905],[13.2888115,52.55391199999999],[13.288819600000002,52.553919799999996],[13.2889691,52.5539292],[13.289314900000003,52.55367179999999],[13.2892637,52.553586800000005],[13.2892507,52.5535824],[13.289231300000003,52.5535863],[13.289209800000002,52.5535831],[13.2891943,52.55357459999999],[13.2891869,52.55356139999999],[13.28919,52.553549700000005],[13.2892064,52.5535376],[13.2892277,52.5535334],[13.2892515,52.5535365],[13.289267,52.5535453],[13.2892739,52.5535592],[13.2892727,52.5535653],[13.289285500000002,52.553572],[13.289433400000002,52.5535831],[13.289676700000001,52.553402199999994],[13.2896408,52.5532843],[13.2896382,52.55328029999999],[13.2896169,52.5532772],[13.2896015,52.5532688],[13.2895942,52.55325560000001],[13.2895975,52.5532441],[13.289613500000002,52.553232300000005],[13.2896346,52.553227799999995],[13.289658200000002,52.55323119999999],[13.2896736,52.553239899999994],[13.2896805,52.5532534],[13.289675800000001,52.5532661],[13.2896658,52.553274999999985],[13.289668600000002,52.553280099999995],[13.2897678,52.5533796],[13.2901505,52.55341649999998],[13.2902439,52.553347900000006],[13.2902458,52.55334000000001],[13.2902308,52.553331699999994],[13.2902234,52.553318399999995],[13.2902268,52.5533068],[13.2902429,52.55329489999999],[13.2902645,52.55329040000001],[13.2902881,52.55329369999999],[13.290303800000002,52.55330249999999],[13.2903107,52.55331619999999],[13.290306,52.55332899999999],[13.290291,52.55333910000001],[13.2902782,52.553341599999996],[13.2902759,52.553349299999994],[13.2903303,52.55343309999999],[13.2908764,52.5534867],[13.2909733,52.55341889999998],[13.2909723,52.5534105],[13.2909584,52.55340199999999],[13.2909511,52.55338859999999],[13.290954300000001,52.55337680000001],[13.2909707,52.5533645],[13.2909925,52.55336019999999],[13.2910163,52.553363399999995],[13.2910322,52.5533722],[13.2910392,52.5533863],[13.2910345,52.55339899999999],[13.2910193,52.55340919999999],[13.2910055,52.553412900000005],[13.2910037,52.5534211],[13.2910592,52.5535036],[13.2913519,52.5535315],[13.291364,52.553554999999996],[13.2913448,52.55357089999999],[13.2913772,52.55362439999999],[13.2914402,52.553632599999986],[13.291466500000002,52.55367219999999],[13.2915028,52.55372729999999],[13.2919479,52.55444330000001],[13.292007700000001,52.5545366],[13.2919632,52.55456770000001],[13.292000000000002,52.55461939999999],[13.2920345,52.55462349999999],[13.292045900000002,52.554646399999996],[13.291860699999999,52.5547866],[13.2919119,52.5548736],[13.2919221,52.5548772],[13.291935,52.5548737],[13.2919537,52.5548741],[13.291971200000003,52.5548793],[13.291980800000001,52.554885999999996],[13.2919879,52.5549],[13.291983100000001,52.55491270000001],[13.2919682,52.55492279999999],[13.2919449,52.5549274],[13.2919231,52.5549242],[13.2919075,52.55491559999999],[13.291900100000001,52.554902299999995],[13.291902200000001,52.5548922],[13.2918931,52.55488679999999],[13.2917416,52.5548741],[13.291397600000002,52.55513390000001],[13.2914451,52.55521800000001],[13.2914566,52.555224199999984],[13.2914652,52.5552221],[13.2914873,52.55522150000001],[13.2915069,52.55522760000001],[13.2915189,52.55523889999999],[13.29152,52.55525239999999]],[[13.2901022,52.55482380000001],[13.2901615,52.5548321],[13.2905537,52.554866999999994],[13.2906304,52.55485959999999],[13.2906644,52.55484849999999],[13.290700400000002,52.554836699999996],[13.290811000000001,52.55475449999999],[13.2910762,52.5545547],[13.2911183,52.55451260000001],[13.2911135,52.55444819999999],[13.2909097,52.5541023],[13.290963000000001,52.5540844],[13.2908802,52.5540145],[13.2907783,52.5539956],[13.2907201,52.5539887],[13.2906008,52.5539745],[13.2903302,52.55395149999999],[13.290217600000002,52.553942000000006],[13.2901165,52.553933400000005],[13.290011500000002,52.553951000000005],[13.2899632,52.55398120000001],[13.2896146,52.55424790000001],[13.28955,52.5543206],[13.2895395,52.5543324],[13.289550600000002,52.55438489999999],[13.2897969,52.5547507],[13.2898444,52.554784299999994],[13.289986,52.55480769999999],[13.2901022,52.55482380000001]]],[[[13.2927312,52.55467829999999],[13.2923063,52.5546357],[13.2922833,52.55471920000001],[13.2925068,52.5547405],[13.2924968,52.55477979999999],[13.2922249,52.55475249999999],[13.292235300000002,52.55471529999999],[13.2922516,52.5547174],[13.2922706,52.554633100000004],[13.2922023,52.554626],[13.29207,52.554414],[13.2916188,52.55369709999999],[13.2915621,52.55360199999999],[13.2915376,52.553561599999995],[13.2915217,52.553537299999995],[13.2914917,52.5534893],[13.291501699999998,52.5534822],[13.2915123,52.553502800000004],[13.2918301,52.55326329999999],[13.2918138,52.55323669999999],[13.2918051,52.553236500000004],[13.2918,52.5532237],[13.2919486,52.5531132],[13.291594500000002,52.552547299999986],[13.291567,52.55255340000001],[13.291486400000002,52.55242239999998],[13.291507000000001,52.552417999999996],[13.291578,52.55253129999999],[13.291585500000002,52.55252959999999],[13.2913422,52.55214410000001],[13.2915229,52.55201009999999],[13.291342600000002,52.5519948],[13.2912142,52.55208979999999],[13.2911929,52.5520806],[13.2913178,52.5519852],[13.291478400000003,52.5518634],[13.2915,52.5518743],[13.2913737,52.55197179999999],[13.2915298,52.55198609999998],[13.291544,52.5519939],[13.2919814,52.551668],[13.2920436,52.5516239],[13.292122,52.551563699999996],[13.2924757,52.551597399999984],[13.2917643,52.552122099999984],[13.291808,52.5522024],[13.2917533,52.55221639999999],[13.2918476,52.552358999999996],[13.2919003,52.55235679999999],[13.291977,52.5524775],[13.2919142,52.5524959],[13.291873,52.552521699999986],[13.2920457,52.5527992],[13.2921299,52.5527809],[13.292177600000002,52.5528584],[13.2920956,52.55287770000001],[13.2921546,52.55297219999999],[13.2921677,52.55297099999999],[13.2921848,52.552971899999996],[13.2921998,52.5529781],[13.292208900000002,52.552983899999994],[13.292215,52.5529915],[13.292216900000001,52.55299829999999],[13.292216400000001,52.553002899999996],[13.2922115,52.553013299999996],[13.292202,52.553019],[13.2921913,52.55302479999999],[13.292178100000001,52.55302780000001],[13.292166900000002,52.55302869999999],[13.292154300000002,52.553027199999995],[13.2921421,52.5530234],[13.291972300000001,52.55315099999999],[13.2918751,52.5532254],[13.2919043,52.55327090000001],[13.2919778,52.553371899999995],[13.292194800000003,52.553203],[13.2922195,52.553224],[13.2922485,52.5532486],[13.292276400000002,52.553272299999996],[13.2922162,52.55338170000001],[13.292205100000002,52.55345809999999],[13.2922378,52.5535853],[13.2923233,52.55372469999999],[13.292399,52.553828100000004],[13.292490500000001,52.55392739999999],[13.292610900000001,52.55398809999999],[13.2928081,52.5540511],[13.293222400000001,52.554085699999995],[13.2934516,52.55410299999999],[13.2936306,52.5540951],[13.2937797,52.5540539],[13.293926700000002,52.553984299999996],[13.2939611,52.554037300000005],[13.293991600000002,52.55408429999999],[13.2938093,52.55422819999999],[13.2938177,52.55424949999999],[13.293827600000002,52.55427469999999],[13.2935187,52.5545041],[13.293447700000002,52.5545583],[13.2933833,52.5545514],[13.293390300000002,52.554561500000005],[13.2934034,52.55458149999999],[13.293446200000002,52.55464609999999],[13.293455800000002,52.55466369999999],[13.2934696,52.5546889],[13.2933991,52.554742100000006],[13.2931426,52.5547174],[13.2931046,52.55465290000001],[13.293186700000001,52.554589499999985],[13.293171200000002,52.554558899999996],[13.2930462,52.55454689999999],[13.2929671,52.5545393],[13.292923,52.554535400000006],[13.2927312,52.55467829999999]]],[[[13.296803,52.55607529999999],[13.296217900000002,52.556017499999996],[13.2962358,52.5559505],[13.294668800000002,52.55579549999999],[13.294676400000002,52.5557668],[13.2945879,52.555758],[13.2946597,52.55548950000001],[13.294744500000002,52.555497899999985],[13.2948238,52.5552015],[13.295047700000001,52.5552237],[13.295568600000001,52.55527509999999],[13.2970072,52.55541709999999],[13.2970162,52.55538359999999],[13.297063900000001,52.55520489999999],[13.297334700000002,52.55523159999999],[13.2974789,52.555245899999996],[13.2976134,52.55546820000001],[13.298030600000002,52.5561226],[13.2968213,52.556007],[13.296803,52.55607529999999]]],[[[13.3891609,52.48279879999999],[13.3889474,52.4826802],[13.388744100000002,52.48256719999999],[13.3884847,52.48242309999999],[13.3885487,52.48238009999999],[13.3884912,52.48234930000001],[13.3884123,52.48240129999999],[13.3883335,52.48245440000001],[13.387555300000002,52.4829795],[13.3876567,52.48303930000001],[13.3875082,52.48313559999998],[13.3874652,52.4831241],[13.387412,52.483109799999994],[13.3873109,52.483083900000004],[13.387230900000002,52.48306809999999],[13.3871351,52.48305059999998],[13.3869868,52.48303149999999],[13.3868877,52.483020200000006],[13.3867582,52.48301219999999],[13.3865993,52.48301260000001],[13.3865062,52.48301699999999],[13.3864215,52.4830218],[13.386327400000003,52.4830315],[13.3862626,52.4830381],[13.3862606,52.48286],[13.3863299,52.48285969999999],[13.3864806,52.48285889999999],[13.3864608,52.482081199999996],[13.386429800000002,52.4820806],[13.386423100000002,52.48177559999999],[13.3865963,52.481773499999996],[13.3866735,52.4817748],[13.3866722,52.4818034],[13.3871821,52.48179769999999],[13.3872575,52.48179760000001],[13.387338,52.481799899999984],[13.3874228,52.481807499999995],[13.3874973,52.481817799999995],[13.3875617,52.4818272],[13.3876249,52.48184069999999],[13.387729600000002,52.481868],[13.3877951,52.4818873],[13.3878532,52.4819078],[13.3878864,52.481921799999995],[13.387915,52.48193379999999],[13.387967500000002,52.4819558],[13.3880319,52.4819898],[13.388038500000002,52.48199279999999],[13.3881223,52.48193640000001],[13.3881377,52.48194639999999],[13.3882076,52.48189880000001],[13.3885,52.481701400000006],[13.3886267,52.481617099999994],[13.3889178,52.4814213],[13.389019000000001,52.481352199999996],[13.389182499999999,52.4812407],[13.3890439,52.48113930000001],[13.3889449,52.4811879],[13.3888285,52.481099],[13.3888189,52.48110429999999],[13.3887163,52.4810224],[13.388630700000002,52.480950199999995],[13.3884932,52.481008800000005],[13.3884284,52.48095279999999],[13.3883962,52.48096650000001],[13.3883173,52.4808975],[13.3883492,52.4808839],[13.388284700000002,52.48082619999999],[13.3884221,52.4807684],[13.3882533,52.480606400000006],[13.3882647,52.4806023],[13.388169800000002,52.4805085],[13.3882786,52.480467],[13.388173400000001,52.4803564],[13.388071100000001,52.48024420000001],[13.3879782,52.480135700000005],[13.387889,52.48002619999999],[13.387846,52.47997199999999],[13.3878074,52.479919699999996],[13.3876916,52.4799513],[13.3876148,52.47984669999999],[13.387729900000002,52.4798152],[13.387606400000001,52.47963599999999],[13.3875528,52.4795521],[13.3874601,52.479399300000004],[13.387388,52.47926639999999],[13.3872701,52.479288399999994],[13.3872145,52.4791773],[13.3873301,52.479155799999994],[13.3872647,52.4790187],[13.3871964,52.47885759999999],[13.3871451,52.47872480000001],[13.3870982,52.47858659999999],[13.3869722,52.4786001],[13.386938800000001,52.4784841],[13.3870605,52.478471000000006],[13.3870233,52.4783229],[13.3869955,52.4781986],[13.3869693,52.478066899999995],[13.3869478,52.477921099999996],[13.386827700000001,52.4779259],[13.386815300000002,52.47780959999999],[13.3869348,52.4778048],[13.3869229,52.47765799999999],[13.386916100000002,52.4774597],[13.3869156,52.4773492],[13.38692,52.47722199999999],[13.3867983,52.477219],[13.3868024,52.47715769999999],[13.3868061,52.477101999999995],[13.387786300000002,52.477126299999995],[13.3878679,52.4771283],[13.3878602,52.4772453],[13.3878024,52.47724389999999],[13.387796,52.47748810000001],[13.387807100000002,52.4776707],[13.387826600000002,52.477875299999994],[13.387860400000001,52.478082],[13.387895700000001,52.4782367],[13.3879276,52.47836579999999],[13.387976,52.478521799999996],[13.3880156,52.47863279999999],[13.3880577,52.4787454],[13.388144,52.4789367],[13.3882343,52.4791175],[13.388328,52.47928009999999],[13.388429,52.479440700000005],[13.3885713,52.47964699999999],[13.3887122,52.47982869999999],[13.3888287,52.4799663],[13.388941300000003,52.48009090000001],[13.3890675,52.48022139999999],[13.3892005,52.4803515],[13.3892968,52.48044170000001],[13.3894006,52.4805323],[13.3894932,52.480610999999996],[13.3895874,52.48068729999999],[13.3896892,52.48076869999999],[13.3897949,52.4808486],[13.3899485,52.48095959999999],[13.3900993,52.4810618],[13.3902627,52.48116809999999],[13.390433,52.481272999999995],[13.390581300000001,52.48135899999999],[13.3907318,52.481442999999985],[13.3910401,52.48160479999999],[13.3912362,52.48169859999999],[13.3914428,52.4817921],[13.3916718,52.48188920000001],[13.3918706,52.48196889999999],[13.392083100000002,52.4820482],[13.3922927,52.482122499999996],[13.3925428,52.48220359999999],[13.392749000000002,52.48226719999999],[13.392825,52.4822896],[13.3930172,52.4823463],[13.393230300000003,52.48240399999999],[13.3934548,52.482456299999996],[13.3938902,52.48254549999999],[13.394039,52.482573900000006],[13.3942332,52.48260750000001],[13.3943603,52.482627900000004],[13.3945395,52.482655300000005],[13.3947299,52.4826814],[13.395061900000002,52.48272089999999],[13.3954147,52.4827547],[13.3956936,52.48277409999999],[13.3960034,52.4827891],[13.3962015,52.48279589999999],[13.396482200000001,52.4827999],[13.3967312,52.482798800000005],[13.3970689,52.48279159999999],[13.3973272,52.482780500000004],[13.3975259,52.4827692],[13.3977288,52.482755],[13.3979151,52.48273939999999],[13.3981132,52.4827201],[13.398300000000003,52.482700099999995],[13.3985145,52.4826739],[13.398732600000002,52.482644199999996],[13.3987189,52.482608600000006],[13.398906300000002,52.4825818],[13.3991507,52.4832169],[13.3989633,52.4832438],[13.3989342,52.4831682],[13.3987983,52.48318809999999],[13.3986544,52.483207099999994],[13.3984398,52.483233],[13.3981856,52.4832599],[13.3980458,52.483272199999995],[13.3980634,52.48334959999999],[13.3978711,52.4833659],[13.3978537,52.48328929999999],[13.3976391,52.4833045],[13.3974174,52.48331690000001],[13.3971036,52.483330699999996],[13.3969513,52.483335299999986],[13.3969546,52.4834128],[13.396762800000001,52.48341589999999],[13.3967594,52.4833372],[13.3966734,52.4833385],[13.3965592,52.483338399999994],[13.3963284,52.4833371],[13.3960617,52.483330499999994],[13.3958498,52.4833227],[13.3958388,52.48340110000001],[13.3956472,52.483391],[13.3956581,52.48331319999999],[13.3954142,52.483298700000006],[13.3951227,52.48327420000001],[13.394904,52.483252399999984],[13.3947103,52.483229200000004],[13.3946845,52.4833054],[13.3944954,52.4832816],[13.394521000000001,52.48320599999999],[13.3943307,52.48317939999999],[13.3941364,52.4831498],[13.3939699,52.48312299999999],[13.3937346,52.4830804],[13.3935966,52.48305390000001],[13.393556400000001,52.483127],[13.3933734,52.48308949999999],[13.3934135,52.48301649999999],[13.3932541,52.4829822],[13.3930417,52.4829336],[13.3928356,52.48288459999999],[13.3926533,52.48283559999999],[13.3925847,52.4828163],[13.3924792,52.48278599999999],[13.392425800000002,52.4828547],[13.3922518,52.48280429999999],[13.3923066,52.4827338],[13.3920985,52.482670999999996],[13.3918838,52.4826001],[13.391670300000001,52.4825254],[13.3914679,52.48245010000001],[13.391399100000001,52.48251619999999],[13.3912373,52.4824534],[13.3913055,52.482387900000006],[13.3912098,52.4823519],[13.3911267,52.48231439999999],[13.3900808,52.4830199],[13.3900956,52.4830286],[13.3900161,52.48308149999999],[13.3900826,52.483122699999996],[13.3901432,52.483162099999994],[13.390199000000003,52.483205199999986],[13.3902471,52.4832486],[13.3902753,52.48328],[13.3903076,52.48332070000001],[13.3903299,52.4833529],[13.3903475,52.4833831],[13.3903666,52.48341930000001],[13.3903835,52.4834649],[13.390398,52.483506500000004],[13.3904114,52.4835768],[13.3904554,52.4838932],[13.3905058,52.483890699999996],[13.3905277,52.4840421],[13.3905186,52.48404259999999],[13.3900291,52.48406849999999],[13.3900271,52.4840501],[13.389927200000002,52.48405529999999],[13.3887559,52.484116799999995],[13.3887706,52.4842165],[13.3887758,52.4842517],[13.3884853,52.4842668],[13.3884901,52.48423369999999],[13.3884916,52.48422329999999],[13.388497,52.48416410000001],[13.3884974,52.484111],[13.3884941,52.4840591],[13.3884877,52.48400889999999],[13.3884775,52.4839673],[13.3884647,52.48392059999998],[13.3884181,52.4839266],[13.3883853,52.4838428],[13.3884339,52.4838351],[13.388411600000001,52.48379369999999],[13.388392000000001,52.48375709999999],[13.3883693,52.483720999999996],[13.388341900000002,52.48368099999999],[13.3883133,52.48364190000001],[13.3882742,52.48359850000001],[13.388233700000002,52.483555299999985],[13.3882013,52.483520600000006],[13.3883474,52.48342129999999],[13.388454,52.48347940000001],[13.3890108,52.4831026],[13.389234800000002,52.48295099999999],[13.3892584,52.4829352],[13.389315,52.4828975],[13.389343300000002,52.4828783],[13.3893908,52.482846],[13.3893368,52.4828181],[13.3892905,52.482849099999996],[13.389272800000002,52.482860999999986],[13.3891609,52.48279879999999]],[[13.3886865,52.483815699999994],[13.3887018,52.483856],[13.388714800000002,52.4838969],[13.388727500000002,52.483943399999994],[13.388736800000002,52.4839901],[13.3897824,52.4839352],[13.3897709,52.48384179999999],[13.3897558,52.4837452],[13.3897253,52.4836674],[13.3896986,52.483611599999996],[13.389655,52.4835434],[13.3896071,52.483483200000016],[13.3895475,52.483421],[13.3894813,52.48336259999999],[13.3894224,52.483320299999995],[13.3893577,52.483278000000006],[13.3892896,52.483239499999996],[13.3892243,52.4832065],[13.3892174,52.48320270000001],[13.3891612,52.4832411],[13.3891791,52.48324979999999],[13.3891529,52.4832686],[13.3891317,52.4832598],[13.3886472,52.48358439999999],[13.3885826,52.4836301],[13.388607200000001,52.4836639],[13.388633700000002,52.48370859999999],[13.3886601,52.4837597],[13.3886865,52.483815699999994]],[[13.3869562,52.48286939999999],[13.387033300000002,52.48287649999999],[13.3871211,52.48288749999999],[13.387202199999999,52.48290050000001],[13.3872929,52.482917199999996],[13.3873589,52.482872199999996],[13.3879281,52.48248709999999],[13.387858000000001,52.482447999999984],[13.3877961,52.482415200000005],[13.3877423,52.4823886],[13.3876659,52.48235519999999],[13.387644300000002,52.4823761],[13.387566900000001,52.482348099999996],[13.3874933,52.48232399999999],[13.3874169,52.48230209999999],[13.387343,52.4822845],[13.3873073,52.4823494],[13.3872597,52.48233999999999],[13.387295900000002,52.48227479999999],[13.3872297,52.482263100000004],[13.3871477,52.48225269999999],[13.3870566,52.4822445],[13.3869701,52.48224110000001],[13.3869707,52.48221579999999],[13.3866733,52.482215799999985],[13.3866892,52.4828574],[13.386743400000002,52.48285649999999],[13.3868091,52.482859299999994],[13.3868771,52.4828628],[13.3869562,52.48286939999999]],[[13.3871373,52.482083200000005],[13.3871947,52.48208879999999],[13.3872674,52.482096899999995],[13.387335,52.4821075],[13.3874034,52.48212109999999],[13.387457,52.482131700000004],[13.387533600000001,52.482151099999996],[13.3875883,52.4821669],[13.3876364,52.4821807],[13.3876741,52.48219379999999],[13.3877636,52.482226499999996],[13.3878432,52.4822581],[13.3879689,52.48231909999999],[13.388082400000002,52.482383499999976],[13.3880855,52.48238],[13.388140500000002,52.48234329999999],[13.388161800000002,52.482329],[13.3881892,52.48231059999999],[13.388224,52.4822877],[13.3882505,52.48226919999998],[13.3881059,52.4821909],[13.3879806,52.4821227],[13.3878985,52.48207819999999],[13.3878659,52.482061899999984],[13.3878303,52.482046100000005],[13.3877545,52.482014899999996],[13.3876727,52.4819869],[13.3875828,52.48196279999999],[13.3874829,52.48194250000001],[13.3873748,52.481928599999996],[13.3873197,52.4819238],[13.3872446,52.48192079999999],[13.3870193,52.4819222],[13.386677900000002,52.481925800000006],[13.3866774,52.481943],[13.3866654,52.4819427],[13.3866704,52.4820746],[13.386781,52.48207359999999],[13.3869239,52.482072599999995],[13.3870633,52.482078099999995],[13.3871373,52.482083200000005]],[[13.3901934,52.4834995],[13.390176600000002,52.4834556],[13.3901498,52.483404],[13.3901255,52.4833686],[13.3900928,52.483329499999996],[13.3900541,52.4832904],[13.3900065,52.4832532],[13.3899483,52.483213],[13.3898866,52.483176100000016],[13.3895416,52.48298489999999],[13.3895063,52.483007],[13.3894808,52.483025399999995],[13.389469,52.4830188],[13.3894795,52.4830119],[13.3894541,52.48299759999999],[13.3893904,52.483039500000004],[13.3893288,52.48307999999999],[13.3893534,52.48309389999999],[13.3893694,52.48308329999999],[13.3893819,52.4830904],[13.3893745,52.4830958],[13.3894324,52.4831266],[13.3894966,52.4831607],[13.3895391,52.483187699999995],[13.389581500000002,52.4832154],[13.3896243,52.4832451],[13.3896616,52.4832726],[13.389689600000002,52.4832962],[13.3897172,52.483320199999994],[13.3897456,52.48334520000001],[13.3897716,52.48337130000001],[13.389814,52.48341789999999],[13.3898474,52.483459],[13.3898875,52.48351530000001],[13.389922200000003,52.48357519999999],[13.389946400000001,52.4836224],[13.3899673,52.4836757],[13.389986,52.483739799999995],[13.3899983,52.48381539999999],[13.3900158,52.483922500000006],[13.3902322,52.48391199999999],[13.3902302,52.483903799999986],[13.3902558,52.48390369999999],[13.390236900000001,52.48376599999999],[13.390220100000002,52.4836456],[13.390213200000002,52.48359419999999],[13.3902062,52.483548199999994],[13.3901934,52.4834995]],[[13.3887878,52.4817074],[13.3887135,52.48175809999999],[13.3886631,52.481792600000006],[13.388625000000001,52.48181849999999],[13.3885658,52.481858599999995],[13.3883754,52.48198769999999],[13.388305,52.4820366],[13.3887133,52.48226579999999],[13.3887479,52.4822427],[13.3888198,52.48228120000001],[13.3895011,52.4818228],[13.3894884,52.481815299999994],[13.3895172,52.481795899999995],[13.3894902,52.48178019999999],[13.389519800000002,52.4817599],[13.3893753,52.481681200000004],[13.3892646,52.481620799999995],[13.3890795,52.48151060000001],[13.3889883,52.481571699999996],[13.3888956,52.48163470000001],[13.388828,52.481680299999994],[13.3887878,52.4817074]],[[13.3904646,52.482283100000004],[13.3904249,52.4822609],[13.3902458,52.482160499999985],[13.3902173,52.482179699999996],[13.3902888,52.4822195],[13.3895726,52.4826985],[13.3895369,52.4826786],[13.3895033,52.48270060000001],[13.389917100000002,52.48292969999999],[13.3902694,52.482692],[13.3906886,52.4824091],[13.3904646,52.482283100000004]]]]}}]}
