{"type":"FeatureCollection","features":[{"type":"Feature","properties":{"revision":"v1.0.90","scope":"User-requested northern neighbourhoods through Weißensee","districtRelations":{"407712":"Pankow","407713":"Prenzlauer Berg","408308":"Weißensee"},"adminLevel":10,"scopeAreaM2":24657846.242,"addedAreaM2":13584206.223,"interpretation":"Ortsteil Pankow through Weißensee, joined by Prenzlauer Berg; not the whole administrative Bezirk Pankow.","retainedScopes":["bounds.geojson","bounds-ring-v182.geojson","bounds-city-v183.geojson","bounds-outskirts-v187.geojson"]},"geometry":{"type":"Polygon","coordinates":[[[13.3992875,52.5489455],[13.3992335,52.5490676],[13.3991382,52.54953780000001],[13.3988998,52.5508856],[13.3985672,52.5508596],[13.396846,52.550703799999994],[13.3971856,52.5509739],[13.3972242,52.5510055],[13.3973551,52.55112030000001],[13.3974496,52.55121590000001],[13.3975367,52.5513093],[13.3976298,52.55141800000001],[13.3977249,52.5515987],[13.3978058,52.551767999999996],[13.397896,52.551978299999995],[13.3979808,52.5521964],[13.3980248,52.55237840000001],[13.3980635,52.5526001],[13.3980674,52.5528059],[13.3979816,52.553228000000004],[13.3978306,52.553762199999994],[13.397718300000001,52.55411169999999],[13.3975955,52.5546128],[13.3975811,52.55467169999999],[13.3975651,52.5547371],[13.3975554,52.554776799999985],[13.3975295,52.5548616],[13.3974969,52.5549685],[13.397420500000003,52.55521939999999],[13.3973085,52.5556558],[13.3971769,52.556343700000006],[13.3971755,52.5567918],[13.3971573,52.55722279999999],[13.3971564,52.5572421],[13.397152300000002,52.55738159999999],[13.3971372,52.55788929999999],[13.3971666,52.5578877],[13.397097600000002,52.55826789999999],[13.3970883,52.5582858],[13.3970397,52.558378700000006],[13.3970313,52.5583947],[13.3970295,52.55839819999999],[13.3970074,52.558440600000004],[13.3969583,52.55881269999999],[13.396783700000002,52.55943129999999],[13.396686700000002,52.5598374],[13.3966665,52.5599247],[13.3966423,52.56002329999999],[13.3966362,52.5600464],[13.3965364,52.560432799999994],[13.3963987,52.560863200000014],[13.3963192,52.561077399999995],[13.3962163,52.5612898],[13.396101600000001,52.5614846],[13.3959052,52.561821599999995],[13.3955666,52.5622007],[13.395411000000001,52.56237629999999],[13.3952262,52.5625818],[13.3952068,52.562610899999996],[13.395028500000002,52.56280609999998],[13.3949012,52.5629519],[13.3948827,52.5629721],[13.394765,52.563096699999996],[13.3946282,52.5632453],[13.3945223,52.563354],[13.3945082,52.56336829999999],[13.394491,52.5633855],[13.3944851,52.5633913],[13.3943877,52.563487099999996],[13.394356600000002,52.5635176],[13.394202100000001,52.5636647],[13.394134400000002,52.563725399999996],[13.3940424,52.5638079],[13.3938819,52.56394929999999],[13.3937263,52.564087],[13.3936622,52.56413439999999],[13.3936433,52.5641483],[13.3935299,52.56423199999999],[13.3933802,52.564342499999995],[13.3933338,52.564373499999995],[13.3933903,52.5644045],[13.3933651,52.5644247],[13.3933342,52.5644495],[13.3931895,52.5645573],[13.3931173,52.564603399999996],[13.3928613,52.5647619],[13.3915906,52.5654801],[13.3913421,52.5656205],[13.3910669,52.56564929999999],[13.3910316,52.56562430000001],[13.3907101,52.5657962],[13.390718600000001,52.56580279999999],[13.3907416,52.5658209],[13.3906288,52.5660215],[13.3903913,52.56615749999999],[13.3891772,52.566852899999994],[13.3889184,52.5670011],[13.3889548,52.5670676],[13.3889333,52.567079199999995],[13.388829,52.5671354],[13.3887931,52.5671547],[13.389019000000001,52.5673011],[13.3890534,52.567325499999995],[13.3890601,52.56737949999999],[13.3890201,52.567413699999996],[13.3886553,52.5676589],[13.3885981,52.567637099999985],[13.3885159,52.567605799999995],[13.388505,52.5676117],[13.3884889,52.5676205],[13.388450500000001,52.56764139999999],[13.3884271,52.56765409999999],[13.3884201,52.5676579],[13.388400600000002,52.5676686],[13.3883808,52.5676794],[13.3884502,52.56774920000001],[13.3890462,52.56812730000001],[13.3892793,52.5682413],[13.3892817,52.5682425],[13.389793,52.56863769999999],[13.38981,52.56862869999999],[13.389953900000002,52.568726299999994],[13.3899684,52.568726299999994],[13.3910964,52.569560100000004],[13.3912563,52.569674600000006],[13.391835800000003,52.5700748],[13.3918459,52.5700813],[13.3918837,52.5701054],[13.3919059,52.57011959999999],[13.3919366,52.57013649999999],[13.3919932,52.5701606],[13.392042800000002,52.570177599999994],[13.3921864,52.5702143],[13.3922734,52.5702306],[13.3927729,52.5702914],[13.393225999999999,52.57032860000001],[13.395840500000002,52.57054949999999],[13.3958921,52.57055110000001],[13.396605400000002,52.57057259999999],[13.3968744,52.5705831],[13.3971329,52.57059830000001],[13.3971876,52.570605699999994],[13.3972477,52.5706116],[13.3972968,52.5706188],[13.3973704,52.57063299999999],[13.3975226,52.57066509999999],[13.3975947,52.57068230000001],[13.397659900000003,52.570701299999996],[13.3977642,52.5707398],[13.397854,52.5707781],[13.3980905,52.5708847],[13.3981787,52.5709244],[13.3982589,52.57095489999999],[13.3984003,52.571008600000006],[13.398409200000001,52.57104170000001],[13.3984505,52.5710655],[13.3984553,52.57108039999999],[13.3988433,52.57121959999999],[13.3989105,52.57124660000001],[13.3989712,52.571277800000004],[13.399102000000001,52.5713608],[13.3992091,52.57143299999999],[13.3994395,52.571571599999984],[13.399802,52.571741700000004],[13.4000303,52.57183789999999],[13.400151,52.57190739999999],[13.400199,52.571940399999995],[13.400281800000002,52.5719859],[13.400389900000002,52.572032099999994],[13.400574300000002,52.5720937],[13.4006369,52.57212],[13.4006976,52.5721558],[13.400932,52.572333900000004],[13.4009836,52.5723696],[13.401031000000001,52.5723025],[13.401094800000001,52.5723294],[13.4015587,52.572574],[13.4017525,52.572651],[13.4017736,52.5726575],[13.4023787,52.57295049999999],[13.402688399999999,52.5731454],[13.40287,52.573244200000005],[13.4031965,52.5733924],[13.403250600000002,52.57343339999999],[13.403281,52.5734542],[13.4033725,52.573492099999996],[13.403465900000002,52.5735282],[13.4034917,52.573569],[13.4036279,52.57360680000001],[13.4036857,52.57364559999999],[13.4037262,52.57367939999999],[13.403855800000002,52.5737531],[13.4041395,52.5738851],[13.4041465,52.573896999999995],[13.404270000000002,52.5739632],[13.404622700000001,52.574123],[13.4047894,52.5742261],[13.404945100000003,52.5742908],[13.4050267,52.57432240000001],[13.4050507,52.5743289],[13.405102900000001,52.57433960000001],[13.4050992,52.57434769999999],[13.4052085,52.57439049999999],[13.4055544,52.574536900000005],[13.405838400000002,52.574637100000004],[13.4058917,52.5746505],[13.4061604,52.5747701],[13.4061405,52.5747847],[13.4061921,52.5748057],[13.406209,52.57479070000001],[13.406464,52.5749018],[13.4064865,52.57492129999998],[13.4066824,52.575043799999996],[13.4067799,52.5750707],[13.406812600000002,52.5750145],[13.4069298,52.575054300000005],[13.407029,52.57508789999999],[13.4076105,52.5739383],[13.4078497,52.5739957],[13.4080309,52.5742208],[13.408199500000002,52.574417800000006],[13.4084747,52.57463669999999],[13.4086847,52.574770499999985],[13.4089776,52.57493919999999],[13.4091392,52.575034599999995],[13.4093426,52.575158800000004],[13.4094576,52.57525520000001],[13.4101112,52.575788200000005],[13.4106954,52.5762579],[13.4108439,52.5763833],[13.4110362,52.5765539],[13.411194700000001,52.5767275],[13.4113215,52.576848700000006],[13.4114697,52.5769734],[13.4116554,52.57711379999999],[13.4118806,52.5772625],[13.4121091,52.57739920000001],[13.4123082,52.5775062],[13.4134053,52.5779208],[13.4138444,52.57808579999999],[13.4139394,52.57812009999999],[13.414045,52.57816129999999],[13.4142677,52.57824289999999],[13.414461000000001,52.5783083],[13.4147474,52.578396399999995],[13.4149731,52.57845960000001],[13.415175200000002,52.57850559999999],[13.4152043,52.57851349999999],[13.415229600000002,52.578516199999996],[13.415467100000003,52.5785559],[13.4157429,52.578590500000004],[13.4160324,52.57861539999999],[13.4188289,52.578774700000004],[13.4193403,52.5789434],[13.4193899,52.57900540000001],[13.419270700000002,52.579144699999986],[13.4192487,52.5791909],[13.4187541,52.5791301],[13.418707200000002,52.579125999999995],[13.4185373,52.5791111],[13.4171981,52.5790567],[13.4168308,52.579055100000005],[13.4165637,52.579057299999995],[13.4164014,52.5790651],[13.4156748,52.5791839],[13.4146297,52.579204399999995],[13.4146696,52.5792858],[13.4146698,52.579438799999984],[13.414692500000001,52.5794448],[13.4146698,52.579488899999994],[13.414582,52.579689699999996],[13.414730900000002,52.57971789999999],[13.414546400000003,52.5800524],[13.4155619,52.580243200000005],[13.4156914,52.5802675],[13.4159368,52.5802625],[13.4160591,52.5802751],[13.4161793,52.58033959999999],[13.4162985,52.58039999999999],[13.4178329,52.58072580000001],[13.4181423,52.580779],[13.4183001,52.5807815],[13.4184345,52.580792699999996],[13.4185336,52.5808049],[13.418582,52.5808288],[13.4186228,52.580887800000006],[13.4186177,52.5809398],[13.4186751,52.5809459],[13.4186787,52.580878199999994],[13.4186289,52.5808064],[13.418575300000002,52.5807771],[13.4186352,52.58075079999999],[13.4187637,52.580731199999995],[13.419225700000002,52.580708],[13.4192964,52.5807002],[13.4193526,52.58067949999999],[13.4194178,52.5806277],[13.4196332,52.58030209999998],[13.4196409,52.5803138],[13.4196569,52.5803234],[13.4197284,52.5803537],[13.4200254,52.580356599999995],[13.4200574,52.580304500000004],[13.4200769,52.580249300000006],[13.4203823,52.5803634],[13.4204024,52.58033939999999],[13.4204746,52.5803609],[13.4204709,52.580368899999996],[13.4213905,52.5806454],[13.4214015,52.58064529999999],[13.421818,52.5807401],[13.4223245,52.58086219999999],[13.4223361,52.58084240000001],[13.42297,52.580990099999994],[13.423064,52.5810245],[13.4234224,52.58121119999999],[13.423557,52.581286199999994],[13.4238082,52.581398599999986],[13.4238859,52.581427999999995],[13.4239765,52.5814535],[13.424020999999998,52.5814621],[13.424382000000001,52.5815024],[13.424667,52.581524099999996],[13.4247262,52.58153119999999],[13.4248048,52.581534700000006],[13.424965800000003,52.58155730000001],[13.4251609,52.5816052],[13.4255574,52.58172019999999],[13.425984200000002,52.5818491],[13.426204100000001,52.58191079999999],[13.426508,52.58196949999999],[13.426536900000002,52.58197049999999],[13.4268174,52.58191759999999],[13.4268446,52.5819167],[13.4268558,52.58189629999998],[13.427414000000002,52.581961699999994],[13.4274534,52.581976100000006],[13.4274698,52.581947400000004],[13.4276464,52.58202889999999],[13.4277146,52.582063999999995],[13.4283122,52.58235589999999],[13.4283685,52.58236089999999],[13.4283547,52.58243349999999],[13.4283429,52.5825183],[13.428037,52.58236389999999],[13.4279809,52.58243869999999],[13.4279175,52.58248340000001],[13.4279786,52.5825691],[13.427811,52.5828319],[13.4282775,52.58291539999999],[13.428298900000001,52.5827874],[13.4283063,52.58274279999999],[13.4283081,52.5827322],[13.428311,52.5827147],[13.428384,52.582733499999996],[13.4284749,52.58274269999999],[13.428478300000002,52.582715799999995],[13.428767600000002,52.582769199999994],[13.4287986,52.5825545],[13.4288837,52.582520900000006],[13.4294688,52.5822892],[13.4297206,52.582246000000005],[13.4299955,52.58214770000001],[13.4300652,52.5821512],[13.430284400000001,52.5822306],[13.431358,52.582447200000004],[13.4315316,52.582486299999985],[13.4315439,52.5824741],[13.4316878,52.5824998],[13.4321017,52.5824745],[13.432295,52.58245169999999],[13.4332756,52.582352199999995],[13.4335397,52.58223339999999],[13.4335687,52.5821337],[13.4337991,52.5820402],[13.4338816,52.58203060000001],[13.4328689,52.5811401],[13.4334123,52.580894400000005],[13.433077900000002,52.58059329999999],[13.4332111,52.580526899999995],[13.433016600000002,52.5803515],[13.4330166,52.5802098],[13.4334592,52.5800168],[13.4335392,52.579466899999986],[13.4338944,52.57926139999999],[13.4338386,52.578824099999984],[13.4329626,52.57825210000001],[13.432562,52.577871999999985],[13.4322398,52.577859499999995],[13.432248,52.57773889999999],[13.4298246,52.5762376],[13.4298556,52.5757138],[13.429038700000001,52.57258469999999],[13.4272141,52.56498700000001],[13.427611,52.56317889999999],[13.4278852,52.561896299999994],[13.4280072,52.5618351],[13.4293581,52.556651],[13.4302259,52.5569566],[13.4320894,52.5576128],[13.431228900000002,52.55753099999999],[13.4311668,52.55781189999999],[13.4315348,52.55784679999999],[13.4313966,52.5583938],[13.4316682,52.5584228],[13.4317927,52.55797009999999],[13.432898500000002,52.558070799999996],[13.4334107,52.55804630000001],[13.433433700000002,52.5580624],[13.4342531,52.5582945],[13.4357142,52.5588684],[13.4369662,52.55957739999999],[13.4374182,52.5597569],[13.4401586,52.560946300000005],[13.4405525,52.5611365],[13.4407399,52.56121369999999],[13.4409573,52.56132149999999],[13.441568500000002,52.5615977],[13.4425082,52.562031199999986],[13.4430336,52.56223659999999],[13.443812400000002,52.5625397],[13.4439834,52.5626211],[13.4450705,52.562966800000005],[13.445967200000002,52.56329759999999],[13.4469889,52.5636963],[13.4482837,52.56420909999999],[13.4482818,52.56420909999999],[13.4484259,52.56452360000001],[13.448805000000002,52.56447180000001],[13.4504388,52.56527609999999],[13.4549046,52.56717810000001],[13.4557862,52.56736159999999],[13.456526,52.567390200000006],[13.4576266,52.56740759999999],[13.458243300000001,52.567347700000006],[13.4583204,52.567574099999995],[13.458543100000002,52.567549799999995],[13.4584631,52.56732600000001],[13.459333900000003,52.5672031],[13.4603228,52.567085999999996],[13.4627639,52.566768599999996],[13.4630584,52.56673219999999],[13.4632972,52.5666984],[13.4641172,52.56660529999999],[13.467250800000002,52.5662487],[13.4672609,52.5662441],[13.4673236,52.566240400000005],[13.4673984,52.566230899999994],[13.4675283,52.56621510000001],[13.4676642,52.5661986],[13.467797,52.5661826],[13.4679128,52.5661694],[13.4680617,52.5661519],[13.4758366,52.565258299999996],[13.4772708,52.565191599999984],[13.4837806,52.5644264],[13.4860688,52.56415319999999],[13.486022100000001,52.563985899999984],[13.4859784,52.56381720000001],[13.485931,52.5636554],[13.4858899,52.5634975],[13.485863,52.56341879999999],[13.485735,52.56294919999999],[13.485679300000001,52.56275709999999],[13.485595600000002,52.5624183],[13.485458200000002,52.56234320000001],[13.4853211,52.56227429999999],[13.485198200000001,52.561824699999995],[13.4851878,52.56179869999999],[13.4853978,52.56155050000001],[13.4863202,52.5614561],[13.4866577,52.5614081],[13.4869776,52.561358899999995],[13.487289200000001,52.56128799999999],[13.487592000000001,52.561203199999994],[13.488772,52.560848500000006],[13.4897843,52.5605408],[13.4899728,52.560481499999995],[13.4901197,52.560424100000006],[13.4902692,52.5603686],[13.4905546,52.560244],[13.4908539,52.5600835],[13.4910759,52.559947],[13.4913011,52.5597851],[13.4914482,52.5596459],[13.4914985,52.5596084],[13.4916682,52.559447899999995],[13.4918187,52.5592832],[13.4918672,52.559238199999996],[13.4922426,52.558848399999995],[13.492269500000003,52.5588183],[13.492486500000002,52.55857580000001],[13.4935353,52.5575005],[13.4941094,52.5569119],[13.4946801,52.5563363],[13.494907,52.55608180000001],[13.4951052,52.5558231],[13.4952781,52.55555590000001],[13.4954203,52.5552799],[13.4955318,52.5550033],[13.4956121,52.5547062],[13.4956586,52.55440709999999],[13.495676800000002,52.55412979999999],[13.4956736,52.553865299999984],[13.4956378,52.5536083],[13.4955728,52.553351499999984],[13.4954434,52.5529997],[13.4952862,52.5526532],[13.494987,52.55200859999999],[13.4944298,52.5507847],[13.494415100000001,52.55079740000001],[13.4940711,52.550875399999995],[13.4918789,52.551359399999996],[13.4903504,52.5516948],[13.4886556,52.551973],[13.4861168,52.5523984],[13.4860303,52.552343],[13.485804700000001,52.55217749999999],[13.485741900000003,52.552190199999984],[13.4856771,52.5521957],[13.485404200000001,52.5519975],[13.484190200000002,52.5511039],[13.483832700000002,52.55083849999999],[13.4836732,52.550724],[13.4827275,52.5500037],[13.4822816,52.54968179999999],[13.4822224,52.54964749999999],[13.4820986,52.549594199999994],[13.4820325,52.5495678],[13.4819728,52.5495481],[13.481904800000002,52.54953020000001],[13.4817638,52.54949780000001],[13.4816875,52.54948679999999],[13.481607700000001,52.54947839999999],[13.4803719,52.5494519],[13.480369900000001,52.5495513],[13.480254,52.5496027],[13.4800819,52.5494701],[13.4797474,52.5496214],[13.479342,52.549303],[13.4797652,52.5491015],[13.4798208,52.54897509999999],[13.479882300000002,52.5488461],[13.4799601,52.54871729999999],[13.4801102,52.54849609999999],[13.4802342,52.548351200000006],[13.480341100000002,52.548232299999995],[13.4804595,52.5481205],[13.4796454,52.5475471],[13.478796800000001,52.5475751],[13.4781382,52.5475949],[13.476533400000001,52.547624799999994],[13.472976,52.547696699999996],[13.4724837,52.5476979],[13.472318,52.5477005],[13.471680800000001,52.547710699999996],[13.4713957,52.5477171],[13.4699289,52.54774189999999],[13.469541600000001,52.54777599999999],[13.468526,52.5482305],[13.468468700000003,52.54823269999999],[13.4684158,52.54823449999999],[13.467619500000001,52.548299699999994],[13.4673631,52.54832069999999],[13.467017500000003,52.548071],[13.4672476,52.5474247],[13.4674683,52.54686379999999],[13.4675298,52.546692199999995],[13.467588100000002,52.54655579999999],[13.4677009,52.546250199999996],[13.4677557,52.5460949],[13.4685322,52.54399819999999],[13.4686434,52.54368879999999],[13.4691729,52.54225269999999],[13.469485700000002,52.5414224],[13.4695765,52.54116549999999],[13.4697562,52.540690399999995],[13.4698406,52.5404583],[13.4686771,52.5395534],[13.4673102,52.53849519999999],[13.4674554,52.538435799999995],[13.4675204,52.5384048],[13.4675296,52.53846109999999],[13.4676477,52.5384497],[13.4668323,52.537279899999994],[13.4667019,52.53709859999999],[13.4664138,52.53669809999999],[13.466384200000002,52.53665689999999],[13.4668705,52.536444200000005],[13.466926,52.53642439999999],[13.4674039,52.5363099],[13.467512300000001,52.53627430000001],[13.467647699999999,52.536219300000006],[13.4677491,52.5361669],[13.4677852,52.5361418],[13.4678051,52.5361231],[13.4679344,52.535959],[13.4680688,52.53577159999999],[13.4684124,52.535260099999995],[13.4686724,52.53485589999999],[13.4686893,52.5348277],[13.468718900000002,52.5347705],[13.4687427,52.5347123],[13.4685065,52.534608299999995],[13.4685058,52.53459839999999],[13.4673964,52.534095500000014],[13.4673884,52.534102100000005],[13.4673538,52.534086],[13.467381700000002,52.5340634],[13.4673082,52.53402959999999],[13.4672417,52.53406840000001],[13.4672179,52.534076999999996],[13.4671914,52.53408179999999],[13.467163800000002,52.5340825],[13.46715,52.5340813],[13.4671239,52.5340757],[13.4671119,52.534071499999996],[13.4670247,52.5340313],[13.4670041,52.534039299999996],[13.466969100000002,52.5340457],[13.466958800000002,52.53405469999999],[13.466761,52.5339704],[13.466597,52.533903399999986],[13.4664299,52.53383929999999],[13.46626,52.53377819999999],[13.4645246,52.533201600000005],[13.4645413,52.53315069999999],[13.4645081,52.53313299999999],[13.464479600000002,52.533112599999995],[13.464456200000003,52.53308979999999],[13.4644386,52.53306520000001],[13.4644309,52.5330464],[13.4644294,52.533027],[13.464434000000002,52.53300769999999],[13.464444700000001,52.53298939999999],[13.4633894,52.532633700000005],[13.46336,52.5325943],[13.4632488,52.53239949999999],[13.461006,52.52967829999999],[13.4606745,52.5293579],[13.4580584,52.52877529999999],[13.456332,52.5283948],[13.456196500000003,52.528264799999995],[13.4565886,52.5278835],[13.4573976,52.5271305],[13.4577938,52.52675279999999],[13.4581794,52.526399],[13.4584284,52.5262179],[13.4588222,52.525947499999994],[13.4591177,52.52576810000001],[13.4596679,52.5255104],[13.4602616,52.525286],[13.4608733,52.52509529999999],[13.4621081,52.52470209999999],[13.462756100000002,52.524504],[13.4638328,52.524362200000006],[13.464926900000002,52.52422629999999],[13.465475900000001,52.5241495],[13.4660225,52.5240617],[13.4663412,52.5239926],[13.4665646,52.5239442],[13.4670946,52.52381809999999],[13.4675959,52.52365739999999],[13.4681035,52.5234851],[13.4685852,52.523299400000006],[13.4690408,52.5230974],[13.4694298,52.52290550000001],[13.4694947,52.5228735],[13.4696076,52.522809],[13.4707457,52.522008299999996],[13.4709924,52.5218189],[13.4712967,52.52152389999999],[13.4714648,52.521312300000005],[13.4718015,52.52099090000001],[13.4721073,52.520694299999995],[13.4720225,52.5206863],[13.4711262,52.5206193],[13.4707348,52.52059009999999],[13.4706139,52.52056999999999],[13.4626951,52.51992760000001],[13.4570727,52.52094730000001],[13.456971900000001,52.520965699999984],[13.4557569,52.52118529999999],[13.4555724,52.5212197],[13.4552901,52.5212723],[13.4561572,52.5224576],[13.455799800000001,52.5225523],[13.452465,52.527454999999996],[13.4524166,52.52752619999999],[13.4521828,52.5277958],[13.4519133,52.5277363],[13.4514188,52.527627100000004],[13.4511288,52.5275631],[13.450783,52.5274867],[13.4507678,52.5274833],[13.4505238,52.52741009999999],[13.450487100000002,52.52739909999999],[13.4502546,52.527329200000004],[13.450062200000001,52.527271799999994],[13.4499512,52.5272387],[13.4499171,52.5272285],[13.4498104,52.5271967],[13.4496766,52.5271568],[13.4496403,52.527146],[13.4495073,52.5271063],[13.4493378,52.5270557],[13.4486578,52.52685280000001],[13.448610900000002,52.52683879999999],[13.4479223,52.52663329999999],[13.4471683,52.526408399999994],[13.446931100000002,52.52662779999998],[13.446692900000002,52.52684810000001],[13.4465552,52.52697549999999],[13.44648,52.527138799999996],[13.4422774,52.5310256],[13.4387482,52.52877779999999],[13.438310600000001,52.528800499999996],[13.4374816,52.529548000000005],[13.4371058,52.52950419999999],[13.4341502,52.52915999999999],[13.4329335,52.5290182],[13.4311855,52.52881459999998],[13.4253232,52.52812979999999],[13.4252869,52.52812560000001],[13.4250269,52.52809519999999],[13.4249513,52.527995099999984],[13.4248545,52.52787779999999],[13.4246639,52.52790770000001],[13.4245148,52.527901500000006],[13.4244692,52.5279127],[13.4244549,52.527898999999984],[13.424005,52.5278817],[13.4238276,52.5278979],[13.4238093,52.527899600000005],[13.4236421,52.52791499999999],[13.4235526,52.5278604],[13.4227522,52.52737280000001],[13.4225581,52.5272545],[13.4219887,52.5269076],[13.421484,52.52660019999998],[13.4202197,52.5258298],[13.4201611,52.52579419999999],[13.4197532,52.525545599999994],[13.4182495,52.5261801],[13.41689,52.52678340000001],[13.4169047,52.52679609999999],[13.4167074,52.526885500000006],[13.4166852,52.52687589999999],[13.4163549,52.52702119999999],[13.416301500000001,52.527037099999994],[13.416291000000001,52.527040400000004],[13.4161457,52.5270836],[13.415955600000002,52.52718459999999],[13.4154317,52.5274633],[13.4151743,52.52753589999999],[13.4144189,52.527748900000006],[13.414205,52.5278093],[13.413349,52.5280506],[13.4133468,52.5280512],[13.4133165,52.528059799999994],[13.4130892,52.5281233],[13.4121847,52.5283752],[13.4114254,52.52859130000001],[13.4113137,52.528621199999996],[13.4100918,52.528810699999994],[13.409397,52.5289508],[13.408189200000002,52.52922749999999],[13.4072072,52.5293938],[13.406870600000001,52.5294495],[13.40687,52.52944829999999],[13.4055857,52.52966500000001],[13.4059284,52.530380599999994],[13.406086400000001,52.530605099999995],[13.405991,52.53078070000001],[13.4060518,52.530971699999995],[13.4060978,52.5311425],[13.4063676,52.532085300000006],[13.406424300000001,52.532348500000005],[13.4071799,52.53313179999999],[13.407336,52.533301099999996],[13.4081809,52.534175499999996],[13.408349900000001,52.534347899999986],[13.4078027,52.53456449999999],[13.4074862,52.53468979999999],[13.4069773,52.53560289999999],[13.4069175,52.535710099999996],[13.4067482,52.53610139999999],[13.4061433,52.5372839],[13.406098900000002,52.537372199999986],[13.4058852,52.53779699999999],[13.405814,52.5377843],[13.4054616,52.538502599999994],[13.4055188,52.538513699999996],[13.4054153,52.53872059999999],[13.405363000000001,52.538711600000006],[13.405302500000001,52.538825599999996],[13.4053572,52.5388368],[13.405178000000001,52.5391951],[13.4047046,52.5401877],[13.404190800000002,52.5404013],[13.4035265,52.5402132],[13.4033783,52.5405059],[13.4020309,52.5401245],[13.4009936,52.54181410000001],[13.400905800000002,52.5419603],[13.4004235,52.54300229999999],[13.4002456,52.54337640000001],[13.400128600000002,52.543842899999994],[13.4000589,52.5441341],[13.3998156,52.5450595],[13.3996482,52.5455102],[13.3992744,52.546378099999984],[13.399206500000002,52.5465304],[13.3993197,52.5465341],[13.3993586,52.54653769999999],[13.3993535,52.5465583],[13.400303700000002,52.5466455],[13.400206100000002,52.5468663],[13.4001936,52.54689470000001],[13.399394400000002,52.5487035],[13.3992913,52.5489369],[13.3992875,52.5489455]]]}}]}
