{"type":"FeatureCollection","name":"districts","crs":{"type":"name","properties":{"name":"urn:ogc:def:crs:OGC:1.3:CRS84"}},"features":[{"type":"Feature","properties":{"osm_id":"55756","name":"Adlershof","admin_level":"10"},"geometry":{"type":"MultiPolygon","coordinates":[[[[13.5204662,52.4262432],[13.5208401,52.4261591],[13.5212446,52.4260368],[13.5234953,52.4259099],[13.5236227,52.4259319],[13.5239121,52.4259749],[13.5240817,52.4259717],[13.5290142,52.4256935],[13.5400235,52.4250827],[13.5437296,52.4248831],[13.5442249,52.4249127],[13.5446243,52.4248831],[13.5451862,52.4247629],[13.5471198,52.4247923],[13.5482512,52.4248604],[13.5493216,52.4249523],[13.5496361,52.4250831],[13.5499227,52.4251238],[13.5543474,52.4256693],[13.5543099,52.4257853],[13.5554176,52.4259005],[13.5555754,52.425871],[13.5558343,52.4258629],[13.5609157,52.4264584],[13.5615859,52.4264851],[13.5633852,52.4266774],[13.5636525,52.4306366],[13.5635838,52.4313116],[13.563498,52.431835],[13.5633091,52.4323687],[13.5630946,52.4328449],[13.5626997,52.433431],[13.5613951,52.4352939],[13.5608801,52.4360527],[13.5603737,52.4367591],[13.5600905,52.4371986],[13.5598158,52.4376904],[13.5594897,52.4383968],[13.5593867,52.4387736],[13.5593266,52.4391084],[13.5592408,52.4405996],[13.5591484,52.4418385],[13.5590065,52.4434388],[13.5588466,52.4455074],[13.5587407,52.4466463],[13.5587828,52.4469084],[13.5586797,52.4479849],[13.5586053,52.4488908],[13.5585102,52.4499025],[13.5578995,52.4501501],[13.5579032,52.4500402],[13.5572508,52.4503026],[13.5564127,52.4505115],[13.554965,52.4508374],[13.5533062,52.447975],[13.5490913,52.448873],[13.5490851,52.4488649],[13.5452772,52.4496776],[13.5452834,52.4496892],[13.5428884,52.4501995],[13.5423339,52.4492045],[13.5419115,52.4489754],[13.54077,52.4483529],[13.5404381,52.4481554],[13.5397532,52.4481178],[13.5328016,52.4477358],[13.5329892,52.4464396],[13.536628,52.4441784],[13.5363687,52.4440323],[13.536079,52.4438691],[13.5359474,52.4437967],[13.5358036,52.4437177],[13.5356618,52.4436384],[13.5355252,52.4435631],[13.5353822,52.4434834],[13.5352432,52.4434066],[13.5350981,52.4433257],[13.5349656,52.4432525],[13.5348089,52.443166],[13.5346539,52.4430803],[13.5344943,52.4429916],[13.5343478,52.4429105],[13.5342024,52.4428297],[13.5340616,52.4427519],[13.5339144,52.4426696],[13.5337851,52.4425941],[13.5336425,52.4425147],[13.5334692,52.4424181],[13.5333124,52.4423351],[13.5331631,52.4422503],[13.531583,52.4433159],[13.5310614,52.4436672],[13.5299709,52.4430726],[13.5304568,52.442742],[13.5312145,52.4422264],[13.5310669,52.4421416],[13.5310562,52.4421354],[13.5307203,52.44195],[13.5324234,52.4407904],[13.5309008,52.4399101],[13.5306697,52.4400164],[13.527291,52.4381007],[13.5266641,52.4377459],[13.517976,52.4327115],[13.5200987,52.4268714],[13.5199511,52.4267279],[13.5202823,52.4266203],[13.520432,52.4265915],[13.5204517,52.4265675],[13.5205057,52.4265574],[13.5204662,52.4262432]]]]}},{"type":"Feature","properties":{"osm_id":"407652","name":"Niederschönhausen","admin_level":"10"},"geometry":{"type":"MultiPolygon","coordinates":[[[[13.4277119,52.5847327],[13.4279992,52.5843391],[13.4281155,52.584167],[13.428126,52.5841658],[13.4280834,52.5840148],[13.4280798,52.5840151],[13.4278876,52.583956],[13.4278551,52.5837298],[13.4279405,52.5837224],[13.4279172,52.5835819],[13.4279704,52.5834286],[13.4283217,52.5834052],[13.4283313,52.5830729],[13.4277159,52.582964],[13.4277563,52.5829017],[13.427811,52.5828319],[13.4279786,52.5825691],[13.4279175,52.5824834],[13.4279809,52.5824387],[13.428037,52.5823639],[13.4283429,52.5825183],[13.4283547,52.5824335],[13.4283685,52.5823609],[13.4283122,52.5823559],[13.4277146,52.582064],[13.4276464,52.5820289],[13.4274698,52.5819474],[13.4274534,52.5819761],[13.427414,52.5819617],[13.4268558,52.5818963],[13.4268446,52.5819167],[13.4268174,52.5819176],[13.4265369,52.5819705],[13.426508,52.5819695],[13.4262041,52.5819108],[13.4259842,52.5818491],[13.4255574,52.5817202],[13.4251609,52.5816052],[13.4249658,52.5815573],[13.4248048,52.5815347],[13.4247262,52.5815312],[13.424667,52.5815241],[13.424382,52.5815024],[13.424021,52.5814621],[13.4239765,52.5814535],[13.4238859,52.581428],[13.4238082,52.5813986],[13.423557,52.5812862],[13.4234224,52.5812112],[13.423064,52.5810245],[13.42297,52.5809901],[13.4223361,52.5808424],[13.4223245,52.5808622],[13.421818,52.5807401],[13.4214015,52.5806453],[13.4213905,52.5806454],[13.4204709,52.5803689],[13.4204746,52.5803609],[13.4204024,52.5803394],[13.4203823,52.5803634],[13.4200769,52.5802493],[13.4200574,52.5803045],[13.4200254,52.5803566],[13.4197284,52.5803537],[13.4196569,52.5803234],[13.4196409,52.5803138],[13.4196332,52.5803021],[13.4194178,52.5806277],[13.4193526,52.5806795],[13.4192964,52.5807002],[13.4192257,52.580708],[13.4187637,52.5807312],[13.4186352,52.5807508],[13.4185753,52.5807771],[13.4186289,52.5808064],[13.4186787,52.5808782],[13.4186751,52.5809459],[13.4186177,52.5809398],[13.4186228,52.5808878],[13.418582,52.5808288],[13.4185336,52.5808049],[13.4184345,52.5807927],[13.4183001,52.5807815],[13.4181423,52.580779],[13.4178329,52.5807258],[13.4162985,52.5804],[13.4161793,52.5803396],[13.4160591,52.5802751],[13.4159368,52.5802625],[13.4156914,52.5802675],[13.4155619,52.5802432],[13.4145464,52.5800524],[13.4147309,52.5797179],[13.414582,52.5796897],[13.4146698,52.5794889],[13.4146925,52.5794448],[13.4146698,52.5794388],[13.4146696,52.5792858],[13.4146297,52.5792044],[13.4156748,52.5791839],[13.4164014,52.5790651],[13.4165637,52.5790573],[13.4168308,52.5790551],[13.4171981,52.5790567],[13.4185373,52.5791111],[13.4187072,52.579126],[13.4187541,52.5791301],[13.4192487,52.5791909],[13.4192707,52.5791447],[13.4193899,52.5790054],[13.4193403,52.5789434],[13.4188289,52.5787747],[13.4160324,52.5786154],[13.4157429,52.5785905],[13.4154671,52.5785559],[13.4152296,52.5785162],[13.4152043,52.5785135],[13.4151752,52.5785056],[13.4149731,52.5784596],[13.4147474,52.5783964],[13.414461,52.5783083],[13.4142677,52.5782429],[13.414045,52.5781613],[13.4139394,52.5781201],[13.4138444,52.5780858],[13.4134053,52.5779208],[13.4123082,52.5775062],[13.4121091,52.5773992],[13.4118806,52.5772625],[13.4116554,52.5771138],[13.4114697,52.5769734],[13.4113215,52.5768487],[13.4111947,52.5767275],[13.4110362,52.5765539],[13.4108439,52.5763833],[13.4106954,52.5762579],[13.4101112,52.5757882],[13.4094576,52.5752552],[13.4093426,52.5751588],[13.4091392,52.5750346],[13.4089776,52.5749392],[13.4086847,52.5747705],[13.4084747,52.5746367],[13.4081995,52.5744178],[13.4080309,52.5742208],[13.4078497,52.5739957],[13.4076105,52.5739383],[13.407029,52.5750879],[13.4069298,52.5750543],[13.4068126,52.5750145],[13.4067799,52.5750707],[13.4066824,52.5750438],[13.4064865,52.5749213],[13.406464,52.5749018],[13.406209,52.5747907],[13.4061921,52.5748057],[13.4061405,52.5747847],[13.4061604,52.5747701],[13.4058917,52.5746505],[13.4058384,52.5746371],[13.4055544,52.5745369],[13.4052085,52.5743905],[13.4050992,52.5743477],[13.4051029,52.5743396],[13.4050507,52.5743289],[13.4050267,52.5743224],[13.4049451,52.5742908],[13.4047894,52.5742261],[13.4046227,52.574123],[13.40427,52.5739632],[13.4041465,52.573897],[13.4041395,52.5738851],[13.4038558,52.5737531],[13.4037262,52.5736794],[13.4036857,52.5736456],[13.4036279,52.5736068],[13.4034917,52.573569],[13.4034659,52.5735282],[13.4033725,52.5734921],[13.403281,52.5734542],[13.4032506,52.5734334],[13.4031965,52.5733924],[13.40287,52.5732442],[13.4026884,52.5731454],[13.4023787,52.5729505],[13.4017736,52.5726575],[13.4017525,52.572651],[13.4015587,52.572574],[13.4010948,52.5723294],[13.401031,52.5723025],[13.4009836,52.5723696],[13.400932,52.5723339],[13.4006976,52.5721558],[13.4006369,52.57212],[13.4005743,52.5720937],[13.4003899,52.5720321],[13.4002818,52.5719859],[13.400199,52.5719404],[13.400151,52.5719074],[13.4000303,52.5718379],[13.399802,52.5717417],[13.3994395,52.5715716],[13.3992091,52.571433],[13.399102,52.5713608],[13.3989712,52.5712778],[13.3989105,52.5712466],[13.3988433,52.5712196],[13.3984553,52.5710804],[13.3984505,52.5710655],[13.3984092,52.5710417],[13.3984003,52.5710086],[13.3982589,52.5709549],[13.3981787,52.5709244],[13.3980905,52.5708847],[13.397854,52.5707781],[13.3977642,52.5707398],[13.3976599,52.5707013],[13.3975947,52.5706823],[13.3975226,52.5706651],[13.3973704,52.570633],[13.3972968,52.5706188],[13.3972477,52.5706116],[13.3971876,52.5706057],[13.3971329,52.5705983],[13.3968744,52.5705831],[13.3966054,52.5705726],[13.3958921,52.5705511],[13.3958405,52.5705495],[13.393226,52.5703286],[13.3927729,52.5702914],[13.3922734,52.5702306],[13.3921864,52.5702143],[13.3920428,52.5701776],[13.3919932,52.5701606],[13.3919366,52.5701365],[13.3919059,52.5701196],[13.3918837,52.5701054],[13.3918459,52.5700813],[13.3918358,52.5700748],[13.3912563,52.5696746],[13.3910964,52.5695601],[13.3899684,52.5687263],[13.3899539,52.5687263],[13.38981,52.5686287],[13.389793,52.5686377],[13.3892817,52.5682425],[13.3877748,52.5691469],[13.3882639,52.5694789],[13.3875722,52.5698601],[13.3873554,52.5699817],[13.3867007,52.5703411],[13.3866526,52.5703657],[13.3862182,52.5706078],[13.3859959,52.5707272],[13.3857797,52.5708483],[13.3855494,52.5709728],[13.3851219,52.5712084],[13.3849085,52.5713299],[13.3842565,52.5716879],[13.3838055,52.5719333],[13.3835925,52.5720519],[13.3833737,52.5721699],[13.3830822,52.5723329],[13.3825422,52.5720755],[13.382239,52.5720212],[13.3808852,52.5722858],[13.3802735,52.5724071],[13.3801835,52.572423],[13.3796847,52.5725242],[13.3796146,52.5727361],[13.3795176,52.5727238],[13.3793552,52.5728238],[13.3792708,52.5730947],[13.3790359,52.5730661],[13.3789168,52.5734546],[13.3785893,52.5734135],[13.3784831,52.5737163],[13.3782498,52.5736869],[13.378157,52.5736144],[13.3764453,52.5747446],[13.3765169,52.5748064],[13.3764572,52.5747986],[13.3762647,52.5749345],[13.3762437,52.5749419],[13.3760506,52.5750758],[13.3751457,52.5756317],[13.3747228,52.5758488],[13.3742736,52.5760485],[13.3736336,52.576309],[13.3729898,52.5765678],[13.3723161,52.5768596],[13.3722709,52.5768124],[13.3711801,52.5772896],[13.369146,52.5783895],[13.368144,52.5789489],[13.3681837,52.5789997],[13.3673805,52.5794331],[13.3662899,52.5800321],[13.3666295,52.5804573],[13.3667236,52.5805723],[13.3669555,52.5808717],[13.3661967,52.5809807],[13.3662618,52.5810709],[13.3666407,52.5815802],[13.3672624,52.5823922],[13.3677646,52.5830539],[13.3688124,52.5831966],[13.3688765,52.5832105],[13.368965,52.5832297],[13.3691485,52.5832696],[13.3701138,52.5834793],[13.370475,52.5835481],[13.3707606,52.5836025],[13.3716111,52.583864],[13.3724022,52.5841136],[13.3726298,52.5841873],[13.3730759,52.5843256],[13.3735264,52.5844677],[13.3743902,52.5847401],[13.3745438,52.5847903],[13.3745848,52.5848022],[13.3747729,52.5848728],[13.3748608,52.5849021],[13.3751383,52.5849862],[13.3753758,52.5850616],[13.3759881,52.5852511],[13.3761061,52.5852901],[13.3770409,52.5855638],[13.3775547,52.5857113],[13.3780937,52.5858689],[13.3784695,52.5859755],[13.3788469,52.5860863],[13.3808936,52.5866595],[13.3821916,52.5869993],[13.3826803,52.5871692],[13.3826465,52.5871962],[13.3833691,52.5874418],[13.3833466,52.5873947],[13.3834639,52.5874473],[13.3834864,52.5874999],[13.3838859,52.5876921],[13.3851254,52.5880701],[13.3852508,52.5881035],[13.3853028,52.5881159],[13.3864819,52.5884196],[13.3864425,52.5884658],[13.386833,52.5885674],[13.3872149,52.588671],[13.3879969,52.588857],[13.3882403,52.5889242],[13.3882387,52.5889344],[13.3885539,52.5890212],[13.3885568,52.589003],[13.3891664,52.5891555],[13.389608,52.5892163],[13.3896053,52.5892384],[13.3898958,52.58928],[13.3898997,52.5892561],[13.3905991,52.5893601],[13.3912767,52.5894074],[13.3915036,52.5894183],[13.3915016,52.5894314],[13.3917048,52.5894409],[13.3932663,52.5897093],[13.3934325,52.5897347],[13.3950257,52.5900097],[13.3951166,52.5900275],[13.395189,52.5900417],[13.3954888,52.5900937],[13.3960014,52.5901824],[13.3967877,52.5903186],[13.3969506,52.5903454],[13.3971445,52.5903786],[13.3977527,52.5904829],[13.398538,52.5906175],[13.3986999,52.590644],[13.4000541,52.5908751],[13.4003077,52.5909184],[13.4005348,52.5909597],[13.4021195,52.5912295],[13.4019787,52.5907281],[13.4015989,52.5901542],[13.4015421,52.5899635],[13.4018056,52.5899787],[13.4020332,52.5900181],[13.4020139,52.5900887],[13.4019966,52.5901521],[13.4019138,52.5902063],[13.4022236,52.5907066],[13.4023483,52.5911706],[13.4033758,52.5913713],[13.4042758,52.5915583],[13.4047042,52.5916563],[13.4054481,52.5918266],[13.405455,52.5918276],[13.4056691,52.5918765],[13.4063086,52.5920161],[13.4062658,52.5921157],[13.4063728,52.5921399],[13.4068733,52.5922458],[13.4072528,52.5923339],[13.4080916,52.5924782],[13.4096362,52.59275],[13.4096576,52.5927522],[13.4098524,52.5927905],[13.4102384,52.5928701],[13.4107389,52.5929695],[13.410975,52.5930164],[13.4110787,52.5930416],[13.4111347,52.5930526],[13.4111872,52.5930587],[13.411588,52.5931234],[13.411875,52.5931697],[13.4124368,52.5932629],[13.4124471,52.5932629],[13.4126552,52.5933019],[13.4129599,52.5933591],[13.4132522,52.5934164],[13.4135349,52.5934695],[13.4137747,52.5935168],[13.4138933,52.5935384],[13.4142521,52.5936078],[13.4148929,52.5937318],[13.4151635,52.5937808],[13.4154287,52.5938314],[13.4156496,52.5938754],[13.4159799,52.5939323],[13.4162255,52.5939771],[13.4164744,52.5940226],[13.4168726,52.5940934],[13.4168925,52.5940989],[13.417153,52.5941507],[13.4179971,52.5943154],[13.419118,52.5945367],[13.4193525,52.5945855],[13.4193875,52.5945188],[13.4194252,52.5943174],[13.4196482,52.5932506],[13.4197194,52.5930821],[13.4197245,52.59307],[13.4198342,52.5928255],[13.420589,52.5918952],[13.420652,52.591806],[13.4210253,52.591392],[13.4211783,52.5912185],[13.4213307,52.5910406],[13.4214585,52.5909002],[13.421706,52.5906139],[13.4222008,52.5900583],[13.4223106,52.5899356],[13.422487,52.5897385],[13.4232179,52.5889299],[13.4232561,52.5888891],[13.4232905,52.5888524],[13.4239764,52.5879838],[13.4244194,52.5882344],[13.4246054,52.5883372],[13.4246607,52.5883017],[13.4244958,52.5882122],[13.4244765,52.588199],[13.4242757,52.5880892],[13.4240103,52.5879406],[13.4246617,52.5871123],[13.4251699,52.586466],[13.4252736,52.5863475],[13.4253001,52.5863138],[13.4255616,52.5864531],[13.4256509,52.5863358],[13.4256642,52.5863298],[13.4256804,52.5863279],[13.4256964,52.5863304],[13.4257091,52.5863368],[13.425716,52.586346],[13.4257168,52.586351],[13.425713,52.5863608],[13.4256859,52.5864005],[13.4261602,52.5865305],[13.4261935,52.5864861],[13.4262301,52.5864959],[13.4260503,52.5867133],[13.4262995,52.5868461],[13.4265836,52.5866452],[13.4265629,52.5866395],[13.4265953,52.5865955],[13.4266007,52.5865915],[13.4266148,52.5865859],[13.4266314,52.586584],[13.4266479,52.5865862],[13.4271212,52.5867082],[13.4271845,52.5867259],[13.4272455,52.5867464],[13.4273318,52.5867823],[13.4276018,52.5869352],[13.4276701,52.5868888],[13.4276942,52.5868747],[13.4274221,52.5867243],[13.4273746,52.5866999],[13.427324,52.586678],[13.4272706,52.5866586],[13.4271703,52.5866314],[13.4271703,52.5866253],[13.4271744,52.5866134],[13.4271839,52.5866026],[13.4272595,52.5866226],[13.4278285,52.5858401],[13.4277544,52.5858207],[13.4277735,52.5857945],[13.4277796,52.5857819],[13.427787,52.5857562],[13.4277876,52.5857301],[13.4277854,52.585717],[13.4277815,52.5857042],[13.4277689,52.5856792],[13.4278516,52.5856685],[13.4277148,52.5852954],[13.4276357,52.5853077],[13.427625,52.5852778],[13.427847,52.5852524],[13.4278429,52.5851144],[13.4277119,52.5847327]]]]}},{"type":"Feature","properties":{"osm_id":"409203","name":"Alt-Hohenschönhausen","admin_level":"10"},"geometry":{"type":"MultiPolygon","coordinates":[[[[13.5254068,52.5555112],[13.5253081,52.5554709],[13.5249495,52.5553141],[13.5249204,52.555386],[13.5248202,52.5555082],[13.524616,52.5557467],[13.5245526,52.5558302],[13.5244779,52.5559199],[13.524423,52.5559819],[13.5232198,52.556302],[13.5223163,52.5565346],[13.5220294,52.5566084],[13.5211465,52.5568481],[13.5201687,52.5571032],[13.5196089,52.5572532],[13.5193637,52.5573147],[13.518898,52.5574285],[13.5183406,52.5575613],[13.5176652,52.5577191],[13.5160353,52.5581099],[13.515922,52.5581395],[13.5158981,52.5580852],[13.5157401,52.5581234],[13.5157657,52.558169],[13.5133635,52.5588247],[13.5118901,52.5592385],[13.5111534,52.5594429],[13.5074585,52.5604387],[13.5044348,52.5612885],[13.5026554,52.5618729],[13.5021515,52.5620365],[13.5020455,52.562],[13.501662,52.5620895],[13.5010775,52.5622078],[13.5008498,52.5622554],[13.4996288,52.5625167],[13.4995394,52.5625325],[13.4993957,52.5625661],[13.4986027,52.5626636],[13.4982904,52.5627034],[13.4978426,52.5627573],[13.4974965,52.5627958],[13.4971672,52.5628352],[13.4965777,52.5629088],[13.4963432,52.5629363],[13.4956565,52.5630255],[13.4955537,52.563041],[13.495146,52.5630935],[13.494629,52.5631641],[13.4943765,52.5631951],[13.494115,52.5632316],[13.4933582,52.5633174],[13.4933219,52.5633215],[13.4932667,52.5633278],[13.4931179,52.5633415],[13.4923254,52.5634285],[13.4920913,52.5634523],[13.4916289,52.5635028],[13.4913943,52.5635301],[13.4909335,52.5635868],[13.4891627,52.5637895],[13.489077,52.563801],[13.4886167,52.5638558],[13.4883857,52.5638869],[13.4881569,52.5639145],[13.4879252,52.5639521],[13.4874627,52.564004],[13.4871126,52.5640476],[13.4860688,52.5641532],[13.4860221,52.5639859],[13.4859784,52.5638172],[13.485931,52.5636554],[13.4858899,52.5634975],[13.485863,52.5634188],[13.485735,52.5629492],[13.4856793,52.5627571],[13.4855956,52.5624183],[13.4854582,52.5623432],[13.4853211,52.5622743],[13.4851982,52.5618247],[13.4851878,52.5617987],[13.4853978,52.5615505],[13.4863202,52.5614561],[13.4866577,52.5614081],[13.4869776,52.5613589],[13.4872892,52.561288],[13.487592,52.5612032],[13.488772,52.5608485],[13.4897843,52.5605408],[13.4899728,52.5604815],[13.4901197,52.5604241],[13.4902692,52.5603686],[13.4905546,52.560244],[13.4908539,52.5600835],[13.4910759,52.559947],[13.4913011,52.5597851],[13.4914482,52.5596459],[13.4914985,52.5596084],[13.4916682,52.5594479],[13.4918187,52.5592832],[13.4918672,52.5592382],[13.4922426,52.5588484],[13.4922695,52.5588183],[13.4924865,52.5585758],[13.4935353,52.5575005],[13.4941094,52.5569119],[13.4946801,52.5563363],[13.494907,52.5560818],[13.4951052,52.5558231],[13.4952781,52.5555559],[13.4954203,52.5552799],[13.4955318,52.5550033],[13.4956121,52.5547062],[13.4956586,52.5544071],[13.4956768,52.5541298],[13.4956736,52.5538653],[13.4956378,52.5536083],[13.4955728,52.5533515],[13.4954434,52.5529997],[13.4952862,52.5526532],[13.494987,52.5520086],[13.4944298,52.5507847],[13.4944151,52.5507974],[13.4940711,52.5508754],[13.4918789,52.5513594],[13.4903504,52.5516948],[13.4886556,52.551973],[13.4861168,52.5523984],[13.4860303,52.552343],[13.4858047,52.5521775],[13.4857419,52.5521902],[13.4856771,52.5521957],[13.4854042,52.5519975],[13.4841902,52.5511039],[13.4838327,52.5508385],[13.4836732,52.550724],[13.4827275,52.5500037],[13.4822816,52.5496818],[13.4822224,52.5496475],[13.4820986,52.5495942],[13.4820325,52.5495678],[13.4819728,52.5495481],[13.4819048,52.5495302],[13.4817638,52.5494978],[13.4816875,52.5494868],[13.4816077,52.5494784],[13.4803719,52.5494519],[13.4803699,52.5495513],[13.480254,52.5496027],[13.4800819,52.5494701],[13.4797474,52.5496214],[13.479342,52.549303],[13.4797652,52.5491015],[13.4798208,52.5489751],[13.4798823,52.5488461],[13.4799601,52.5487173],[13.4801102,52.5484961],[13.4802342,52.5483512],[13.4803411,52.5482323],[13.4804595,52.5481205],[13.4796454,52.5475471],[13.4787968,52.5475751],[13.4781382,52.5475949],[13.4765334,52.5476248],[13.472976,52.5476967],[13.4724837,52.5476979],[13.472318,52.5477005],[13.4716808,52.5477107],[13.4713957,52.5477171],[13.4699289,52.5477419],[13.4695416,52.547776],[13.468526,52.5482305],[13.4684687,52.5482327],[13.4684158,52.5482345],[13.4676195,52.5482997],[13.4673631,52.5483207],[13.4670175,52.548071],[13.4672476,52.5474247],[13.4674683,52.5468638],[13.4675298,52.5466922],[13.4675881,52.5465558],[13.4677009,52.5462502],[13.4677557,52.5460949],[13.4685322,52.5439982],[13.4686434,52.5436888],[13.4691729,52.5422527],[13.4694857,52.5414224],[13.4695765,52.5411655],[13.4697562,52.5406904],[13.4698406,52.5404583],[13.4698927,52.5402986],[13.4698673,52.5402801],[13.4705625,52.5392705],[13.4713971,52.5380689],[13.4713197,52.5380737],[13.4730906,52.5362095],[13.4731699,52.536123],[13.4732395,52.5360499],[13.4733039,52.5359823],[13.4733379,52.5359488],[13.4734269,52.535848],[13.4736489,52.5355849],[13.4743002,52.5348533],[13.4746372,52.5344506],[13.4747718,52.534282],[13.4751217,52.5337348],[13.4751694,52.5336749],[13.4756083,52.5331791],[13.4755691,52.5331188],[13.4757924,52.5331671],[13.4760248,52.5332538],[13.4763357,52.5333698],[13.476913,52.5334047],[13.4770077,52.5334101],[13.4770054,52.5334243],[13.4770193,52.5334251],[13.477011,52.5334872],[13.4771033,52.5334926],[13.477115,52.5334177],[13.4775805,52.5334427],[13.4779118,52.533463],[13.4787211,52.5335098],[13.4787309,52.5334135],[13.4788242,52.5334201],[13.4801491,52.5334981],[13.4816592,52.5335797],[13.4839524,52.5337142],[13.4846802,52.5337578],[13.4851262,52.5337917],[13.485122,52.5338614],[13.4861975,52.5339285],[13.4862595,52.5339537],[13.487031,52.533999],[13.4870381,52.5339708],[13.4872309,52.5339788],[13.4872175,52.5339861],[13.4872125,52.5339909],[13.4891949,52.5341067],[13.4898451,52.5341283],[13.4915691,52.5342284],[13.491906,52.5342534],[13.4936387,52.5343574],[13.4949624,52.534422],[13.4950254,52.534443],[13.4954394,52.5344506],[13.4954384,52.5344987],[13.495506,52.5345038],[13.4956677,52.5345035],[13.4957611,52.5345103],[13.4958963,52.5344517],[13.4960223,52.5344538],[13.4962913,52.5344552],[13.4969125,52.5344728],[13.4970818,52.5344761],[13.4983468,52.5345108],[13.4987899,52.5345295],[13.4989843,52.5345412],[13.4992728,52.534555],[13.4992801,52.5345523],[13.4995648,52.5345704],[13.4998262,52.5345885],[13.4998225,52.5346028],[13.5003274,52.5346309],[13.5011729,52.5346814],[13.5016187,52.5347063],[13.5026243,52.5347469],[13.5046502,52.5348664],[13.504649,52.5348836],[13.5054699,52.534942],[13.5056492,52.5349536],[13.5056376,52.5347762],[13.5058298,52.5347861],[13.5060176,52.534801],[13.50626,52.5348161],[13.5065008,52.5348344],[13.5068894,52.5348567],[13.5072729,52.5348844],[13.5075277,52.5349056],[13.507712,52.5349146],[13.5085784,52.5349812],[13.5094399,52.5350355],[13.5100446,52.535078],[13.5103136,52.5350938],[13.5127713,52.5352664],[13.5135455,52.5353155],[13.5139918,52.5353473],[13.5143632,52.5353705],[13.5156937,52.5354683],[13.5168837,52.5355476],[13.5170363,52.5355593],[13.5177457,52.5356],[13.519251,52.5357083],[13.5191637,52.5358246],[13.5192122,52.5358291],[13.5192079,52.5358348],[13.5198023,52.5358889],[13.5205079,52.5359172],[13.5207891,52.5359362],[13.5215453,52.5360095],[13.5217894,52.5360395],[13.5223856,52.5361344],[13.5227974,52.5362155],[13.5230663,52.5362745],[13.523492,52.5363844],[13.5237123,52.5364434],[13.5245782,52.5367217],[13.5245699,52.5367315],[13.5253613,52.5370071],[13.5253549,52.537014],[13.5254036,52.5370311],[13.5254197,52.5370124],[13.5264846,52.537371],[13.5278436,52.5378032],[13.5287867,52.5379929],[13.5292061,52.5381009],[13.5294541,52.5381689],[13.5305952,52.5384569],[13.5307648,52.5384066],[13.5310961,52.5384876],[13.5315932,52.5386],[13.5314965,52.5388571],[13.5314317,52.5389106],[13.5312909,52.5388926],[13.5316877,52.5389729],[13.5315767,52.5391736],[13.5322649,52.5393146],[13.5318978,52.5395277],[13.5313581,52.5409847],[13.5312438,52.5412311],[13.5309924,52.5417361],[13.5307822,52.5423883],[13.5307567,52.5424401],[13.530634,52.5428166],[13.5305977,52.5429151],[13.5306297,52.5429447],[13.5305744,52.5435264],[13.530567,52.5435445],[13.5304497,52.5435479],[13.5302039,52.5440495],[13.5300073,52.5444711],[13.5298364,52.5449631],[13.5296979,52.5454016],[13.5296935,52.5454397],[13.5295006,52.5459699],[13.5293381,52.5463592],[13.5291877,52.5467534],[13.5288778,52.5476104],[13.5288437,52.5476306],[13.5288062,52.5477342],[13.5288234,52.5477608],[13.5286577,52.5482415],[13.5284606,52.5487704],[13.528446,52.5487842],[13.5282152,52.5493837],[13.5282677,52.5493908],[13.5282435,52.5494468],[13.5281906,52.5494396],[13.5278915,52.5501627],[13.5279554,52.5502186],[13.5277405,52.5507984],[13.5277478,52.5508145],[13.5277497,52.5508303],[13.5277034,52.5508971],[13.5274839,52.5515234],[13.527222,52.5521746],[13.5272382,52.5522734],[13.5271806,52.5522882],[13.5269307,52.5528418],[13.5266295,52.5534149],[13.5263054,52.5539886],[13.5262311,52.5540368],[13.5260538,52.5543272],[13.5259222,52.5545142],[13.5259877,52.5545305],[13.5259592,52.5545725],[13.5259001,52.5545539],[13.5257166,52.5548303],[13.5253557,52.5553184],[13.525539,52.55538],[13.5254932,52.555431],[13.5254068,52.5555112]]]]}},{"type":"Feature","properties":{"osm_id":"413420","name":"Neu-Hohenschönhausen","admin_level":"10"},"geometry":{"type":"MultiPolygon","coordinates":[[[[13.5254068,52.5555112],[13.5253081,52.5554709],[13.5249495,52.5553141],[13.5249204,52.555386],[13.5248202,52.5555082],[13.524616,52.5557467],[13.5245526,52.5558302],[13.5244779,52.5559199],[13.524423,52.5559819],[13.5232198,52.556302],[13.5223163,52.5565346],[13.5220294,52.5566084],[13.5211465,52.5568481],[13.5201687,52.5571032],[13.5196089,52.5572532],[13.5193637,52.5573147],[13.518898,52.5574285],[13.5183406,52.5575613],[13.5176652,52.5577191],[13.5160353,52.5581099],[13.515922,52.5581395],[13.5158981,52.5580852],[13.5157401,52.5581234],[13.5157657,52.558169],[13.5133635,52.5588247],[13.5118901,52.5592385],[13.5111534,52.5594429],[13.5074585,52.5604387],[13.5044348,52.5612885],[13.5026554,52.5618729],[13.5021515,52.5620365],[13.5020455,52.562],[13.501662,52.5620895],[13.5010775,52.5622078],[13.5008498,52.5622554],[13.4996288,52.5625167],[13.4995394,52.5625325],[13.4993957,52.5625661],[13.4986027,52.5626636],[13.4982904,52.5627034],[13.4978426,52.5627573],[13.4974965,52.5627958],[13.4971672,52.5628352],[13.4965777,52.5629088],[13.4963432,52.5629363],[13.4956565,52.5630255],[13.4955537,52.563041],[13.495146,52.5630935],[13.494629,52.5631641],[13.4943765,52.5631951],[13.494115,52.5632316],[13.4933582,52.5633174],[13.4933219,52.5633215],[13.4932667,52.5633278],[13.4931179,52.5633415],[13.4923254,52.5634285],[13.4920913,52.5634523],[13.4916289,52.5635028],[13.4913943,52.5635301],[13.4909335,52.5635868],[13.4891627,52.5637895],[13.489077,52.563801],[13.4886167,52.5638558],[13.4883857,52.5638869],[13.4881569,52.5639145],[13.4879252,52.5639521],[13.4874627,52.564004],[13.4871126,52.5640476],[13.4860688,52.5641532],[13.4837806,52.5644264],[13.483959,52.5653026],[13.4839947,52.5653264],[13.4840132,52.5653446],[13.4840271,52.5653644],[13.4840435,52.5654],[13.4840808,52.5655008],[13.4840918,52.565546],[13.4840971,52.5655917],[13.4840939,52.5657152],[13.4840996,52.5657391],[13.4840968,52.5658402],[13.4841084,52.5659724],[13.4841543,52.5660267],[13.4839748,52.566074],[13.4835902,52.5661193],[13.4837534,52.5662388],[13.4838456,52.5663097],[13.4875885,52.5692187],[13.4885358,52.5687632],[13.4896043,52.5682312],[13.4898315,52.5684085],[13.4908927,52.5692641],[13.4906096,52.569513],[13.4906738,52.5695417],[13.4905666,52.5696361],[13.490754,52.5697156],[13.4906263,52.5698399],[13.4905109,52.5699703],[13.4903973,52.5701057],[13.4903028,52.5702427],[13.4902169,52.5703796],[13.4901419,52.5705202],[13.4900762,52.5706619],[13.4900212,52.5708053],[13.4899802,52.5709561],[13.4899517,52.5711005],[13.4899351,52.5712458],[13.4899215,52.571395],[13.4899219,52.5714467],[13.4899312,52.5715504],[13.4899694,52.5717141],[13.4900357,52.571867],[13.4901332,52.5720183],[13.4902662,52.5721605],[13.4904256,52.5722909],[13.490604,52.5724087],[13.4908047,52.572511],[13.4910282,52.5726018],[13.4909892,52.5726455],[13.4909515,52.5726972],[13.490849,52.5728256],[13.4909015,52.5728403],[13.4909537,52.5728524],[13.4912041,52.5729068],[13.4913999,52.5729365],[13.4915131,52.5727278],[13.4918061,52.5727838],[13.4914437,52.5734979],[13.4914047,52.5735782],[13.4938714,52.5736739],[13.4946743,52.573696],[13.4947931,52.5737065],[13.4949124,52.5737359],[13.4956214,52.5740843],[13.4963908,52.5744566],[13.4971301,52.5748259],[13.4974495,52.5749833],[13.4979502,52.5752354],[13.4981139,52.5752954],[13.4981829,52.5753515],[13.4982311,52.5754153],[13.498309,52.5755958],[13.4983353,52.5756975],[13.4983145,52.5757761],[13.4983059,52.5758969],[13.4983098,52.5759801],[13.4983292,52.576087],[13.4983714,52.5761681],[13.4987221,52.5765626],[13.4988107,52.5765058],[13.4987774,52.5765682],[13.4989088,52.5766889],[13.4991383,52.5768033],[13.4994561,52.5769237],[13.499861,52.5771396],[13.499926,52.577177],[13.4999304,52.5771654],[13.5001074,52.5772342],[13.5002285,52.5772734],[13.5004566,52.5773337],[13.5006513,52.5773803],[13.5007528,52.5773918],[13.501288,52.5774187],[13.5017782,52.5774716],[13.5020725,52.5775148],[13.5028714,52.5777232],[13.5030323,52.5777596],[13.5032096,52.5777867],[13.5035732,52.5778049],[13.5035701,52.5778228],[13.5044668,52.5778674],[13.5050449,52.5777799],[13.5051789,52.5777796],[13.5067113,52.5782036],[13.5069298,52.5782597],[13.5074097,52.5783937],[13.5077418,52.578516],[13.5093499,52.578866],[13.5098319,52.5789552],[13.5102687,52.5790275],[13.5104933,52.5790569],[13.5106703,52.57907],[13.5112914,52.5790535],[13.5115987,52.5790213],[13.5117187,52.5790031],[13.511712,52.578957],[13.5115571,52.5772254],[13.5115625,52.5771438],[13.5115435,52.5769434],[13.5115159,52.5769442],[13.5114982,52.5767446],[13.5115058,52.5767146],[13.511516,52.5767047],[13.5114876,52.5764284],[13.5119842,52.5764114],[13.5120868,52.5763679],[13.5120264,52.5757342],[13.5119849,52.575696],[13.5119832,52.5756653],[13.5119787,52.5755836],[13.5119395,52.575471],[13.5121667,52.5753056],[13.5121156,52.5747145],[13.5134262,52.5746682],[13.5132337,52.5742619],[13.5130566,52.5738882],[13.5130496,52.5738144],[13.5131015,52.5736461],[13.5131238,52.5736426],[13.5131226,52.5731645],[13.5131148,52.5730557],[13.5131177,52.573013],[13.5131164,52.5727818],[13.5141113,52.5727069],[13.5142816,52.5726925],[13.5145259,52.5726644],[13.5145124,52.5726289],[13.5145779,52.5726168],[13.5146976,52.5725907],[13.5149656,52.5725275],[13.5149782,52.5725238],[13.5150274,52.5724905],[13.5151264,52.5724562],[13.5151794,52.5724388],[13.5152286,52.5724258],[13.5153291,52.5724075],[13.5157143,52.5723776],[13.5157227,52.5724131],[13.5161398,52.5723816],[13.5161326,52.5723449],[13.5166212,52.5723068],[13.5166294,52.5723424],[13.5176091,52.5722645],[13.5178197,52.5722593],[13.5178941,52.5725313],[13.5187141,52.572408],[13.519494,52.5723373],[13.5204631,52.5723528],[13.5205838,52.572307],[13.5207151,52.5722074],[13.5208078,52.5721286],[13.5209617,52.5721083],[13.5212647,52.5720588],[13.52158,52.572003],[13.5217661,52.5719758],[13.5222641,52.5718918],[13.522963,52.5717286],[13.5243085,52.5714256],[13.5251952,52.57123],[13.5253409,52.5711785],[13.5253976,52.5711667],[13.5278463,52.5708322],[13.5288851,52.5707011],[13.5291834,52.5706777],[13.5295055,52.5706591],[13.5300301,52.5705976],[13.5305875,52.5704377],[13.5314269,52.5701883],[13.5315493,52.570121],[13.5317084,52.5700502],[13.5321439,52.570144],[13.5350523,52.5679691],[13.5359154,52.5677977],[13.5368264,52.567368],[13.5378902,52.5678091],[13.5389804,52.5673677],[13.5400306,52.5669426],[13.5413253,52.5664199],[13.5417766,52.5661808],[13.5418782,52.5661004],[13.5418883,52.5661003],[13.5418963,52.5660981],[13.5419,52.5660938],[13.541899,52.5660869],[13.5418886,52.5660745],[13.5418773,52.5660683],[13.5418636,52.5660645],[13.5413401,52.5660371],[13.5412737,52.5660281],[13.5411926,52.5660146],[13.541148,52.565994],[13.5411031,52.5659703],[13.541038,52.5659291],[13.5406183,52.5655963],[13.5405506,52.5655243],[13.5404137,52.56542],[13.5403298,52.5653417],[13.5397761,52.564928],[13.5372326,52.562929],[13.5370758,52.5628033],[13.5359293,52.5618999],[13.5354737,52.5615518],[13.5348217,52.5610446],[13.5339506,52.5603875],[13.5325277,52.5594854],[13.5311024,52.558616],[13.5310116,52.5585517],[13.5294191,52.5575602],[13.5291879,52.55742],[13.5279852,52.5567616],[13.5272281,52.5563663],[13.5268775,52.5561691],[13.5267803,52.5561304],[13.5262272,52.5558219],[13.5259165,52.5556526],[13.5256093,52.5554817],[13.5254932,52.555431],[13.5254068,52.5555112]]]]}},{"type":"Feature","properties":{"osm_id":"413421","name":"Oberschöneweide","admin_level":"10"},"geometry":{"type":"MultiPolygon","coordinates":[[[[13.5582113,52.4532166],[13.5567436,52.4532009],[13.5559797,52.4532218],[13.5540657,52.4532742],[13.5525036,52.453588],[13.5514993,52.4536978],[13.5506668,52.453996],[13.5490532,52.4542732],[13.5483751,52.4544615],[13.5475855,52.4546864],[13.5465212,52.4549898],[13.5452395,52.4552047],[13.5435128,52.4553575],[13.5426189,52.4554286],[13.5426171,52.455482],[13.5421817,52.4555063],[13.5401619,52.4556149],[13.5400748,52.4555856],[13.5383429,52.4555849],[13.5381009,52.4555657],[13.5377321,52.4554971],[13.5372686,52.4553245],[13.5366926,52.4550025],[13.5356752,52.4543891],[13.5350695,52.4541074],[13.533904,52.4537031],[13.5337063,52.4536288],[13.533154,52.4534036],[13.5319251,52.4531734],[13.5307955,52.452935],[13.5290642,52.4527389],[13.5285307,52.4526845],[13.5280676,52.4527563],[13.5273895,52.4528766],[13.5265054,52.453044],[13.525939,52.4531434],[13.5252094,52.4533055],[13.5244198,52.4535252],[13.524175,52.4535949],[13.5237589,52.4537135],[13.5232267,52.453928],[13.5226431,52.4541477],[13.5219993,52.4544981],[13.5218015,52.4546383],[13.5216303,52.4547596],[13.5211754,52.4551937],[13.5208063,52.4555965],[13.5204715,52.4561195],[13.5202827,52.4565641],[13.5200939,52.4569406],[13.5198106,52.4572388],[13.5193557,52.4575787],[13.5189523,52.4577722],[13.5185146,52.4578978],[13.5179352,52.4580081],[13.517828,52.4580285],[13.5172186,52.4580337],[13.516386,52.4581122],[13.5156736,52.4582325],[13.5150728,52.4584208],[13.5125509,52.4593674],[13.5102867,52.460448],[13.5082841,52.4612407],[13.5062738,52.461918],[13.505743,52.4621705],[13.5043783,52.4626673],[13.5034342,52.4632373],[13.5027389,52.4637393],[13.5022926,52.4642152],[13.5013399,52.4655173],[13.5001297,52.4672795],[13.4996125,52.4677867],[13.4991846,52.4687782],[13.4990222,52.4689924],[13.4988073,52.4692721],[13.4986582,52.4693983],[13.4984496,52.4696498],[13.4982362,52.4698252],[13.498107,52.4699132],[13.4975605,52.4701633],[13.4972736,52.4702443],[13.4969036,52.4703281],[13.4961888,52.4705801],[13.4958472,52.4709178],[13.4957775,52.4711332],[13.4953287,52.4717703],[13.4950409,52.4723293],[13.4948443,52.4727783],[13.4946791,52.4735085],[13.4945077,52.4743055],[13.4944835,52.4752026],[13.4949589,52.4766039],[13.4954907,52.47778],[13.4956033,52.4783352],[13.4955069,52.4791685],[13.495109,52.4806171],[13.4949711,52.4814377],[13.49462,52.4821996],[13.4943553,52.4827759],[13.4941951,52.4831241],[13.4966378,52.483304],[13.4967049,52.4833172],[13.4968149,52.4832893],[13.4968593,52.4832894],[13.4968688,52.4832736],[13.4970661,52.4833008],[13.4972426,52.4833058],[13.497883,52.4832804],[13.4982784,52.4832121],[13.4985909,52.4831226],[13.4995903,52.482874],[13.5005855,52.4826829],[13.5013119,52.4825956],[13.5014175,52.482589],[13.5015358,52.4825754],[13.5019663,52.4824494],[13.5031442,52.4801895],[13.5041913,52.4782815],[13.5043372,52.4780671],[13.5077876,52.4749148],[13.5116586,52.4754898],[13.513461,52.475746],[13.5140361,52.4757774],[13.5144996,52.4757669],[13.5149888,52.4757356],[13.5154866,52.475678],[13.5158643,52.4755996],[13.5163106,52.475448],[13.5205678,52.4740103],[13.5217732,52.4751713],[13.5242372,52.4733847],[13.5306615,52.4678355],[13.5323867,52.4690538],[13.5351301,52.4712503],[13.5381187,52.4735882],[13.5398694,52.4749399],[13.5420688,52.4739886],[13.5484774,52.4733124],[13.5500426,52.471558],[13.5516095,52.4697889],[13.5528906,52.4691983],[13.552389,52.4687745],[13.5543125,52.4667652],[13.5549032,52.46685],[13.5557748,52.4669192],[13.5572562,52.4668013],[13.5578819,52.4666473],[13.5584677,52.4663744],[13.5583949,52.4661226],[13.5576436,52.4664625],[13.5575847,52.4664151],[13.5571748,52.4664962],[13.5565492,52.4664678],[13.5553222,52.4663063],[13.5548557,52.466155],[13.5615428,52.4586422],[13.5638366,52.4565456],[13.5663036,52.455794],[13.5665957,52.455517],[13.5663605,52.4554169],[13.5658058,52.4551808],[13.5651458,52.4549236],[13.5645832,52.454772],[13.5649402,52.4531697],[13.5645183,52.4533016],[13.5639773,52.4534203],[13.5633281,52.4534664],[13.5628087,52.4534664],[13.5624084,52.4533411],[13.5618349,52.4532159],[13.5612831,52.4531631],[13.5609585,52.4531829],[13.5607637,52.4531763],[13.5607094,52.4531997],[13.5604391,52.4532027],[13.5598258,52.4532293],[13.5588919,52.4533016],[13.5582113,52.4532166]]]]}}]}
