{"type":"FeatureCollection","crs":{"type":"name","properties":{"name":"urn:ogc:def:crs:OGC::CRS84"}},"features":[{"type":"Feature","properties":{"id":"way/4685998","name":"Treptower Park","source":"OSM 29 September 2026","license":"ODbL-1.0","role":"exact owner-authorized named park"},"geometry":{"type":"MultiPolygon","coordinates":[[[[13.4698699,52.4898281],[13.4696845,52.4895839],[13.4689128,52.4898157],[13.468803,52.4898483],[13.4687286,52.4898704],[13.4686795,52.4898321],[13.4686232,52.4898021],[13.4685648,52.4897826],[13.4684947,52.489769],[13.4684358,52.4897642],[13.4683912,52.4897642],[13.4683402,52.4897682],[13.4683303,52.4897738],[13.4682715,52.4897894],[13.4682081,52.4898062],[13.468187,52.489813],[13.4681328,52.489844],[13.4681007,52.4898698],[13.4680715,52.4899027],[13.4680505,52.4899442],[13.4680433,52.4899872],[13.4680499,52.4900232],[13.4680584,52.4900495],[13.4680669,52.4900678],[13.4679931,52.4900902],[13.4678894,52.4901217],[13.4635498,52.4914274],[13.4609722,52.4922064],[13.4609065,52.4921939],[13.4608345,52.4922147],[13.4608268,52.492197],[13.460847,52.4921912],[13.4608676,52.4921809],[13.4608794,52.4921657],[13.4608845,52.4921455],[13.4608773,52.4921159],[13.4608989,52.4920898],[13.4607679,52.4918597],[13.460625,52.4916026],[13.4605157,52.4912662],[13.4603783,52.4906612],[13.4602762,52.4901718],[13.4604864,52.4900275],[13.4606093,52.4899431],[13.4609219,52.4897319],[13.4611641,52.4895682],[13.4620053,52.4889998],[13.462101,52.4889352],[13.4633342,52.4881029],[13.463426,52.4880411],[13.4641211,52.4875734],[13.4641989,52.4875211],[13.464341,52.4874288],[13.4644952,52.4873286],[13.4646516,52.4872539],[13.4651602,52.4869117],[13.4665799,52.4858979],[13.4679006,52.4850084],[13.4688249,52.4843682],[13.4710153,52.482897],[13.4729864,52.4815498],[13.4796456,52.4846706],[13.4813447,52.4854897],[13.4816806,52.4858194],[13.4818267,52.4859587],[13.481767,52.4859887],[13.4810746,52.4859867],[13.4805261,52.4860644],[13.4804222,52.4860944],[13.4802014,52.4861631],[13.4798045,52.4863267],[13.478946,52.4868056],[13.4788699,52.4867738],[13.4788239,52.4868116],[13.4786597,52.4869948],[13.4780467,52.487769],[13.4778938,52.4880728],[13.4777136,52.4887848],[13.4770475,52.4893287],[13.4761801,52.4899424],[13.4755721,52.4902776],[13.4735962,52.4911218],[13.4729469,52.4912152],[13.4716532,52.4914445],[13.4702852,52.4917513],[13.4694971,52.4920152],[13.4685073,52.4923466],[13.4670172,52.4927111],[13.4658169,52.4931572],[13.465779,52.4931694],[13.4657466,52.4931823],[13.4654486,52.4932965],[13.4651473,52.493405],[13.4651105,52.4934186],[13.4650572,52.4934383],[13.4644558,52.4936639],[13.4644167,52.4936769],[13.4643805,52.4936897],[13.4640604,52.4938282],[13.4640287,52.4938419],[13.4639922,52.4938576],[13.463542,52.4940623],[13.4635204,52.4940729],[13.4634961,52.4940837],[13.4633682,52.4941431],[13.4633515,52.4941513],[13.4633323,52.4941606],[13.463199,52.4942157],[13.4631751,52.4943467],[13.4639547,52.4949859],[13.4639761,52.4950117],[13.463983,52.4950249],[13.463984,52.4950412],[13.4639759,52.4950628],[13.4639663,52.4950788],[13.4639502,52.495095],[13.4638334,52.4951589],[13.4637707,52.4951193],[13.4637366,52.4951359],[13.4635977,52.4950345],[13.4622774,52.4938338],[13.4612835,52.4928367],[13.4610936,52.4926044],[13.4610281,52.4925091],[13.4611801,52.4924337],[13.4634004,52.4917717],[13.4637448,52.4916674],[13.4659035,52.4910127],[13.4698699,52.4898281]]]]}}]}