{"type":"FeatureCollection","coordinateFrame":"OGC:CRS84 longitude, latitude","features":[{"type":"Feature","properties":{"id":"DEBE11YYI00009hE","osmId":"way/11269749","name":"Schloss Friedrichsfelde","completeSourceOwner":true,"height":19.678},"geometry":{"type":"Polygon","coordinates":[[[13.52367609839785,52.50477956197409],[13.523586326940778,52.50476055879126],[13.5235142874133,52.504745310264155],[13.523426886053347,52.50472681305666],[13.523428303130629,52.504724097490715],[13.523428429688764,52.50472383833239],[13.523337262920522,52.504704709654604],[13.523335783312044,52.50470753233054],[13.523269479034195,52.504693497083686],[13.523264138902377,52.50469236949997],[13.523289885930543,52.5046482125874],[13.523298136420184,52.50464998787886],[13.523318680927279,52.50461290484749],[13.523310825686027,52.504611206418076],[13.523334325628737,52.50457034810434],[13.523337281375028,52.504570960414924],[13.523403523298287,52.50458465319034],[13.52340188768464,52.504587734657925],[13.523484789926865,52.50460506086144],[13.523487441456263,52.5046020010616],[13.52357819332045,52.50462075581811],[13.523664181048728,52.504637904614384],[13.523747054008023,52.50465567082443],[13.523744405448623,52.504659521871176],[13.523831461748683,52.50467820334924],[13.523834235378775,52.50467369752122],[13.523903711702406,52.504688050744065],[13.523907925933187,52.504688921496616],[13.523882502005508,52.50473312752613],[13.523870930826009,52.50473063652505],[13.523848150931379,52.50477024519189],[13.523859441961516,52.504773182247774],[13.523836256222323,52.50481346916148],[13.523828033931125,52.50481173022352],[13.523764480116103,52.50479826902908],[13.523765341400956,52.50479587019906],[13.523677547570419,52.504777647000815],[13.52367609839785,52.50477956197409]]]}},{"type":"Feature","properties":{"id":"DEBE11YYI0000Nxm","osmId":"way/11269594","name":"Alfred-Brehm-Haus","completeSourceOwner":true,"height":8.071},"geometry":{"type":"Polygon","coordinates":[[[13.53396926266338,52.49954592195832],[13.533955714188306,52.49959137416956],[13.53399777505776,52.499595356869435],[13.533989874724078,52.499620712363274],[13.53393167310298,52.49961212408619],[13.53391098838077,52.49965597738279],[13.533947779695511,52.49966336530891],[13.533934267335448,52.49968824666512],[13.533883950179966,52.499676033810815],[13.53385388488437,52.49971710953158],[13.533897071335817,52.49972977349338],[13.53387489044083,52.499753945029724],[13.533819704295556,52.49973486566069],[13.533780243597652,52.4997727230516],[13.533816289006372,52.49978880501636],[13.533605193260497,52.49990996727069],[13.533597686903674,52.49990355359493],[13.53355937990897,52.49992267008501],[13.533545116739905,52.49991166819007],[13.533481273381998,52.49991588480942],[13.53348838840858,52.499957960751416],[13.533504149656032,52.49996644577332],[13.533491761275169,52.49997259487508],[13.533575093730883,52.500028202851716],[13.533633637094335,52.50006726587449],[13.533772159127901,52.50013611807666],[13.533975030899942,52.49997743327874],[13.533985451931953,52.499967978051664],[13.533996366779196,52.49995873573444],[13.53400776071515,52.49994970614441],[13.53402673878976,52.499935897430284],[13.534046860501801,52.499922696286255],[13.534068051023372,52.49991013774842],[13.53409026497953,52.49989825721783],[13.534113456995549,52.4998870900955],[13.53413753811581,52.49987665326062],[13.53416246296601,52.49986698211432],[13.534170706758415,52.499872487813214],[13.534192208376961,52.4998656333713],[13.534214233637819,52.49985942377057],[13.534236723636385,52.49985385828097],[13.534259618571292,52.49984896313421],[13.534287421855561,52.499843993926],[13.534315649365366,52.49984000098951],[13.53434421214661,52.49983700120437],[13.53437300681791,52.499835002280626],[13.534401929997935,52.49983401192842],[13.534430908056999,52.499834029235544],[13.534459837613836,52.49983506191234],[13.534488615884985,52.4998370996947],[13.534510815751352,52.499839370669356],[13.534532818579626,52.49984225058396],[13.534554595814646,52.49984571211207],[13.534576102979315,52.49984976369384],[13.53459729619426,52.499854395795],[13.534602567926152,52.49984959698508],[13.534630404954925,52.49985823142425],[13.534657598682474,52.49986760413826],[13.5346841055284,52.499877696605886],[13.53470983773309,52.499888489758796],[13.534734781168519,52.49989996544059],[13.534758878125125,52.49991208697329],[13.534782069697782,52.499924853627874],[13.53479147755999,52.499930355717304],[13.534800719848448,52.49993596364689],[13.534809781836785,52.4999416772343],[13.53505865484019,52.50008930655398],[13.535302065599785,52.49991909155693],[13.53531634131121,52.49990357907896],[13.535290840426848,52.49986765022378],[13.535264920853113,52.49986736529991],[13.535233749768942,52.49988855767274],[13.534975756619657,52.499775089289194],[13.534950317660465,52.49976389523235],[13.53497961697076,52.49973608039765],[13.534930058813337,52.499701471937385],[13.534881611210066,52.499726514190414],[13.534856476605043,52.49970040789325],[13.534894410886428,52.49968494568812],[13.53485312284797,52.49964486521651],[13.534806172303007,52.49966077318906],[13.53478665732178,52.49963535684617],[13.534821955845116,52.49962605678797],[13.534791563443974,52.499583953396694],[13.53474013152864,52.499595957716956],[13.534728880728842,52.49957056279456],[13.53476755065967,52.499563102697266],[13.534743555016796,52.49951825535421],[13.5346906025506,52.4995259251642],[13.53468498471658,52.4995021464458],[13.534727791366954,52.49949743488128],[13.53471053056005,52.49944986576319],[13.53465608584796,52.499455008600314],[13.534654606747209,52.499425059401055],[13.53469290977828,52.49942331302997],[13.534692189426327,52.49937852017523],[13.53463736544826,52.49938000797947],[13.534638120262306,52.4993550944084],[13.534683183908008,52.49935427692433],[13.534687360812072,52.49928891947774],[13.5346269039724,52.49928835051189],[13.534627293215427,52.49926113971976],[13.534647940436457,52.49925958826681],[13.534643474934407,52.499189196737426],[13.534436574055754,52.49919767486057],[13.534439934050575,52.49923928165646],[13.534222132495303,52.49924727372835],[13.534218017090083,52.49922395415572],[13.534012994272159,52.49923221205097],[13.534016361136395,52.49928112859068],[13.534040379558949,52.49928186675397],[13.534041487252434,52.49931455360243],[13.533990044075617,52.49931627180664],[13.533999771897358,52.49937503134018],[13.534040710745593,52.49937420794507],[13.534042931256028,52.49939957196397],[13.533995258258416,52.49940176845148],[13.534000108939958,52.499447709389074],[13.534045915727296,52.49944758466795],[13.534049283621334,52.49947432952798],[13.533993328126813,52.49947306976458],[13.53398805569423,52.49952128585026],[13.534030103117074,52.49952434230426],[13.534024824237274,52.49955061139557],[13.53396926266338,52.49954592195832]]]}},{"type":"Feature","properties":{"id":"DEBE11YYI0000GSB","osmId":"way/11643292","name":"Giraffenhaus","completeSourceOwner":true,"height":11.56},"geometry":{"type":"Polygon","coordinates":[[[13.533798174649766,52.50377915064669],[13.534262895547874,52.5038144438983],[13.534308797267673,52.503589267846884],[13.533844093428439,52.50355397497386],[13.533798174649766,52.50377915064669]]]}},{"type":"Feature","properties":{"id":"DEBE09YYP00036uB","osmId":"way/137219848","name":"Schloss K\u00f6penick","completeSourceOwner":true,"height":29.191},"geometry":{"type":"Polygon","coordinates":[[[13.572894352607792,52.44411165234139],[13.57279044663747,52.44413388278985],[13.572705047846389,52.44399551464357],[13.572713322793643,52.44399260253939],[13.572679541024726,52.44392611998364],[13.572675174294009,52.443926930411415],[13.572653636249402,52.44393094116108],[13.572638688133098,52.44390633220157],[13.57261567396354,52.4439109455051],[13.572599408525866,52.44388020676399],[13.572619661769549,52.443874975722714],[13.572600830012338,52.44384397223832],[13.572627492326983,52.443838018360516],[13.572592563548497,52.443772888562826],[13.572582053075344,52.44377440704233],[13.57249402266202,52.44363464932243],[13.572725360289942,52.443586975320514],[13.572805074871184,52.443728655474416],[13.572757765203146,52.44373883770315],[13.572790019881007,52.443795663463185],[13.572790671676191,52.44379552747402],[13.57280452057997,52.443792691628246],[13.572825674762026,52.44382786795698],[13.572834864188668,52.44382852731448],[13.572838772347437,52.44382779226533],[13.57284206359953,52.44383339741171],[13.572837888955105,52.44383418319073],[13.572841518856261,52.44384069152352],[13.572847748954972,52.44385187958087],[13.572853430488902,52.44385090519498],[13.572855671305918,52.443855778384034],[13.572850746846601,52.4438565461232],[13.5728450569795,52.4438623305896],[13.572864837686357,52.44389721161359],[13.572851397670455,52.44390014231122],[13.572850730875485,52.443900287110694],[13.572884485126409,52.44395715791333],[13.572928938543251,52.443947948154864],[13.57292879217896,52.44394610323503],[13.573254324146363,52.44387714137142],[13.573267813746316,52.4438986307618],[13.573280449735291,52.44391876120273],[13.57295605143696,52.44398905849602],[13.573003141305744,52.444065357891695],[13.573015682581794,52.444085685019616],[13.572894352607792,52.44411165234139]]]}},{"type":"Feature","properties":{"id":"DEBE09YYP0002bXT","osmId":"way/27058690","name":"Stadtkirche St. Laurentius","completeSourceOwner":true,"height":45.61},"geometry":{"type":"Polygon","coordinates":[[[13.575429675220821,52.44668740931149],[13.575420491048202,52.44666969432144],[13.575408826245125,52.446647229179064],[13.57539861685354,52.44662754180145],[13.575484825446665,52.44661033760736],[13.575464198600956,52.44656646486469],[13.57583732860913,52.446492611688164],[13.575858720881348,52.4465351179618],[13.575859402125655,52.44653498231028],[13.575937895180425,52.446519294255026],[13.575970910742154,52.44658465170932],[13.575893489298446,52.44660041562889],[13.575893222799856,52.44660046636544],[13.575914593018863,52.44664092241736],[13.57574977467597,52.44667377753845],[13.575715638207674,52.446680577166354],[13.575540719104211,52.44671545019556],[13.575518966133284,52.44667364081651],[13.575429675220821,52.44668740931149]]]}},{"type":"Feature","properties":{"id":"DEBE09YYP0002hWB","osmId":"relation/57493","name":"Rathaus K\u00f6penick","completeSourceOwner":true,"height":19.489},"geometry":{"type":"Polygon","coordinates":[[[13.57526509812135,52.44547339655243],[13.5752359472282,52.4454739174593],[13.575230464010817,52.44543454279453],[13.575136158840385,52.44543688603512],[13.575140758793463,52.44548311018606],[13.575054654085369,52.44548621750431],[13.575041394549013,52.445393729266485],[13.575123054295894,52.44537606593537],[13.575120713408165,52.44535832548181],[13.575259559789629,52.44535365078092],[13.575263258886224,52.44543372413507],[13.57526509812135,52.44547339655243]]]}},{"type":"Feature","properties":{"id":"DEBE09YYP0002ue2","osmId":"relation/57493","name":"Rathaus K\u00f6penick","completeSourceOwner":true,"height":4.02},"geometry":{"type":"Polygon","coordinates":[[[13.575179949542651,52.445611479204345],[13.575189523033158,52.44564037470653],[13.57522784216628,52.44563617007737],[13.575224269230374,52.44561648172014],[13.575208602674772,52.44560814712523],[13.575179949542651,52.445611479204345]]]}},{"type":"Feature","properties":{"id":"DEBE09YYP0002y5Q","osmId":"relation/57493","name":"Rathaus K\u00f6penick","completeSourceOwner":true,"height":24.502},"geometry":{"type":"Polygon","coordinates":[[[13.575434131879554,52.44549172465189],[13.575439375844825,52.44549200360822],[13.575440544021381,52.4455059627032],[13.575434932181611,52.445506596395994],[13.575436276200415,52.44552924290363],[13.575443388147784,52.44552954436284],[13.575443490387137,52.445541881229865],[13.575437863624794,52.445542065193656],[13.575449833520155,52.4456768314509],[13.5754079221879,52.4457111936047],[13.575295823796449,52.44572412079633],[13.575296478273549,52.4457284623375],[13.57518850603358,52.445741196382386],[13.575186697172917,52.4457379737961],[13.574933234774097,52.4457674310146],[13.574926989356127,52.44577994313444],[13.574923898130375,52.44578362815105],[13.574919499377863,52.44578679391518],[13.574914063654463,52.44578926386738],[13.574907845067182,52.44579091519598],[13.57490117010571,52.44579166192559],[13.574894393226552,52.44579146337282],[13.574887867145701,52.44579033277937],[13.574838847305406,52.44577412466798],[13.574807784040273,52.44580835661035],[13.574799259972457,52.445805304833726],[13.574803099577705,52.44580031615557],[13.574746328755237,52.44578035525798],[13.57474212848189,52.44578466526324],[13.57473249391325,52.44578091678224],[13.57475976940037,52.445747790053936],[13.574706293141173,52.44573061109544],[13.574700755914638,52.445728476428435],[13.574696198825063,52.44572560732271],[13.574692881694029,52.445722159756784],[13.574690989349522,52.44571833376025],[13.574690618077955,52.44571433728649],[13.574691804461102,52.44571040454207],[13.574694482411099,52.44570675950515],[13.57469848375083,52.44570359795031],[13.574703596758024,52.44570109714535],[13.574718240694388,52.445698261665385],[13.574672866637853,52.44563612650184],[13.574665335233734,52.4456378788769],[13.574585942259182,52.4455251459363],[13.574600593889151,52.44552252634755],[13.574417091049105,52.445191280058516],[13.574634118798405,52.4451490491596],[13.574664043701695,52.44514323304786],[13.57478342565885,52.44512023442664],[13.574819392066322,52.44518525916453],[13.574869357188643,52.44517854266805],[13.574919589776009,52.44517265654477],[13.574970060704507,52.44516759145238],[13.575020754978457,52.445163356200865],[13.575071599058871,52.44515994990374],[13.575122577950184,52.44515738137115],[13.575118784234178,52.445058362854],[13.575134938037028,52.445058431623835],[13.575242593828303,52.44505454095486],[13.57534323712997,52.44505091635324],[13.575357529023194,52.44525461754213],[13.575366373697356,52.44525457125059],[13.575375100252334,52.44525544960716],[13.575383459515926,52.44525722263709],[13.575391202895801,52.445259842390676],[13.575398097667804,52.44526322514548],[13.575403940814354,52.445267278546055],[13.575408589021189,52.44527188398315],[13.575411870137014,52.445276904518195],[13.575413700550722,52.44528219528825],[13.575414026647872,52.4452875938097],[13.575424109524976,52.44528702297105],[13.575424638416123,52.445297081267405],[13.575418337498599,52.44529672664035],[13.575428320076908,52.44541738008638],[13.575435785298938,52.44541767681099],[13.575437027497587,52.44542888555556],[13.575428790104189,52.44542926284393],[13.575432303111802,52.44547042095262],[13.575434131879554,52.44549172465189]],[[13.574909180299446,52.44557129942706],[13.574816262825921,52.44559537237441],[13.574838001031907,52.44562666226151],[13.57486017699632,52.44562159786322],[13.574859596421147,52.445614056418115],[13.574868974037232,52.44561300060455],[13.574870289953257,52.44562100945198],[13.574893472803131,52.44562167545052],[13.574897011271293,52.445613707123066],[13.574908925980914,52.44561564890768],[13.574904644836868,52.44562383306005],[13.574926194014756,52.445629981849244],[13.574934520557077,52.44562502026601],[13.574942309088526,52.44562852170962],[13.5749361964848,52.445634184297596],[13.57494979484574,52.44564413935618],[13.574962563428649,52.44564196456161],[13.574965085478627,52.44564679614183],[13.57495195709901,52.445648265303745],[13.574960538784303,52.44566548756125],[13.575189523033158,52.44564037470653],[13.57522784216628,52.44563617007737],[13.575224269230374,52.44561648172014],[13.575223519840232,52.44561234582762],[13.575250183366002,52.4455908729258],[13.575284611953375,52.44558958842996],[13.575281751983376,52.445534124531925],[13.575280426724706,52.445508619113966],[13.575221285762956,52.44551058588024],[13.575207326795137,52.445499493643446],[13.575207210327607,52.445488055703194],[13.575221722816785,52.445474699121334],[13.5752359472282,52.4454739174593],[13.57526509812135,52.44547339655243],[13.575259559789629,52.44535365078092],[13.575256667694404,52.44531833529789],[13.575226256372597,52.4453200727813],[13.57522197592231,52.44529768759282],[13.575254865409143,52.44529621373395],[13.575221976212331,52.445297678605314],[13.575085025686034,52.44530379668204],[13.57500765716425,52.445307494746174],[13.574921425274116,52.44531546455816],[13.574743745182298,52.445343029409315],[13.574814193852069,52.445468925149605],[13.57483710469913,52.44546479568452],[13.574909180299446,52.44557129942706]]]}},{"type":"Feature","properties":{"id":"DEBE09YYP00039u7","osmId":"relation/57493","name":"Rathaus K\u00f6penick","completeSourceOwner":true,"height":6.657},"geometry":{"type":"Polygon","coordinates":[[[13.574992514025784,52.44533902348154],[13.575026178095815,52.44539743900393],[13.575041394549013,52.445393729266485],[13.575123054295894,52.44537606593537],[13.575120713408165,52.44535832548181],[13.575096806221122,52.4453167328104],[13.574992514025784,52.44533902348154]]]}},{"type":"Feature","properties":{"id":"way/180315073","osmId":"way/180315073","height":54,"name":"Rathaus K\u00f6penick tower"},"geometry":{"type":"Polygon","coordinates":[[[13.574755,52.44573750000001],[13.5748117,52.445677700000005],[13.5749146,52.4457139],[13.574857900000001,52.44577369999999],[13.574755,52.44573750000001]]]}}]}
