{"type":"FeatureCollection","crs":{"type":"name","properties":{"name":"LOCAL:BERLIN-SCENE-XZ"}},"features":[{"type":"Feature","geometry":{"type":"Polygon","coordinates":[[[-6719.108633678057,5643.790869085118],[-6718.940341853652,5643.868591895448],[-6719.112,5644.237],[-6709.963,5648.481],[-6711.986,5652.822],[-6706.058,5655.544],[-6703.211,5649.389],[-6702.438,5649.744],[-6702.327407001453,5649.504389437376],[-6702.261363838741,5649.5348598100245],[-6697.489085031324,5639.24396447558],[-6698.874020503019,5638.609960961156],[-6698.071786262983,5636.88589527889],[-6697.816,5637.002],[-6697.805,5637.007],[-6696.731,5634.653],[-6696.907,5634.572],[-6696.980989907145,5634.538087959225],[-6696.266025867662,5632.996862128377],[-6691.11680584267,5635.378877000883],[-6691.014093530981,5635.156891481771],[-6690.823,5635.245],[-6689.78,5632.995],[-6685.111,5635.144],[-6681.753,5627.858],[-6681.987994645433,5627.748869677547],[-6681.897375933768,5627.553363724612],[-6683.955684526447,5626.611638792928],[-6681.854,5622.147],[-6681.9235029618285,5622.114916206297],[-6681.880839813966,5622.023034540005],[-6688.614344508866,5618.922160294262],[-6685.453,5612.079],[-6685.662805162821,5611.982418874917],[-6685.607328878134,5611.862999135628],[-6703.3138329903595,5603.683713146485],[-6706.488191624056,5610.529639987275],[-6708.511505624396,5609.591050473973],[-6713.978532808484,5621.367648534477],[-6713.9064811752905,5621.40075626761],[-6714.033,5621.675],[-6711.92686488916,5622.624152519114],[-6713.957006326178,5627.010170453228],[-6713.796702241413,5627.084195982174],[-6713.932,5627.376],[-6707.613505028849,5630.297651985285],[-6709.579802458717,5634.536779688404],[-6718.519,5630.389],[-6722.304,5638.587],[-6717.691172993604,5640.7352013749105],[-6719.108633678057,5643.790869085118]],[[-6705.078481579432,5621.7916875826195],[-6701.224588739221,5613.473787679848],[-6694.017875606416,5617.139973969423],[-6694.901906325057,5619.050412395033],[-6694.954,5619.028],[-6697.760118595821,5625.186934658544],[-6705.078481579432,5621.7916875826195]]]},"properties":{"name":"Brücke-Museum","crs":"scene x,z; EPSG:25833 easting-389500,5820000-northing","parentIds":["DEBE06YYB0000Bv3","DEBE06YYB0004u5T"],"sourceIds":["OSM-relation-7868401"]}},{"type":"Feature","geometry":{"type":"Polygon","coordinates":[[[-11950.765274337318,4242.405367041007],[-11953.110575358034,4238.908041296527],[-11949.337550316588,4236.386996677145],[-11952.580419928709,4231.554074308835],[-11956.367302440107,4234.085899086669],[-11958.725899084413,4230.577109622769],[-11960.796667102595,4231.959316173905],[-11962.74,4229.027],[-11962.36,4228.784],[-11962.407375546243,4228.712609431909],[-11962.064511321892,4228.490580564365],[-11963.210408168321,4226.759275911376],[-11964.854383361642,4227.831097010523],[-11964.597130080962,4228.220735132755],[-11964.687,4228.28],[-11964.436,4228.655],[-11982.482,4240.629],[-11982.725,4240.254],[-11983.049110933132,4240.473730228685],[-11983.25084065512,4240.1697199949995],[-11983.95544487302,4240.630657956004],[-11984.895102540264,4241.252656261437],[-11983.749209423258,4242.98396600876],[-11983.332269588083,4242.7115531397285],[-11983.244,4242.844],[-11982.877471988231,4242.594721540384],[-11981.888539339687,4244.065037854016],[-11970.932,4260.487],[-11971.305,4260.74],[-11971.225168746927,4260.858750904284],[-11971.514035849134,4261.050925039686],[-11970.37492389197,4262.782061904669],[-11969.608089703019,4262.278161030263],[-11968.717354572727,4261.710581657477],[-11968.931187318663,4261.389482875687],[-11968.744,4261.259],[-11968.987,4260.884],[-11951.032,4248.797],[-11950.774,4249.172],[-11950.615306224827,4249.064571263469],[-11950.356756535824,4249.448908587918],[-11948.712777769833,4248.377082603052],[-11949.858684293053,4246.645781252533],[-11950.269879160081,4246.911587518531],[-11950.331,4246.821],[-11950.711,4247.074],[-11952.745,4244.046],[-11952.889323526784,4243.829360885377],[-11950.765274337318,4242.405367041007]]]},"properties":{"name":"Grunewaldturm auf dem Karlsberg","crs":"scene x,z; EPSG:25833 easting-389500,5820000-northing","parentIds":["DEBE04YY50003FsE"],"sourceIds":["OSM-way-23722446","OSM-way-1525010580","OSM-way-1540042306","OSM-way-1540042311","OSM-way-1540042312","OSM-way-1540042313","OSM-way-1540043981"]}}]}
