{"type":"FeatureCollection","features":[{"type":"Feature","geometry":{"type":"Polygon","coordinates":[[[-6228.599,1378.649],[-6231.116,1378.068],[-6231.706,1377.767],[-6232.345,1377.59],[-6233.006,1377.542],[-6233.663,1377.626],[-6234.29,1377.839],[-6234.863,1378.171],[-6235.359,1378.611],[-6235.758,1379.14],[-6236.044,1379.737],[-6236.206,1380.38],[-6236.238,1381.041],[-6236.138,1381.696],[-6235.911,1382.319],[-6235.564,1382.883],[-6235.113,1383.368],[-6234.575,1383.755],[-6233.97,1384.026],[-6233.324,1384.173],[-6232.662,1384.189],[-6233.108,1385.958],[-6233.748,1385.701],[-6234.425,1385.57],[-6235.114,1385.568],[-6235.792,1385.696],[-6236.433,1385.949],[-6237.015,1386.319],[-6237.517,1386.791],[-6237.921,1387.35],[-6238.213,1387.974],[-6238.381,1388.643],[-6238.421,1389.331],[-6238.331,1390.015],[-6238.113,1390.669],[-6237.776,1391.27],[-6237.332,1391.798],[-6236.797,1392.232],[-6236.189,1392.558],[-6235.531,1392.763],[-6234.846,1392.841],[-6232.311,1393.487],[-6228.859,1394.062],[-6236.463,1424.782],[-6239.932,1424.041],[-6243.507,1423.156],[-6244.169,1423.017],[-6244.845,1423.016],[-6245.507,1423.151],[-6246.128,1423.418],[-6246.682,1423.805],[-6247.147,1424.296],[-6247.502,1424.871],[-6247.733,1425.507],[-6247.831,1426.175],[-6247.791,1426.85],[-6247.615,1427.503],[-6247.311,1428.107],[-6246.89,1428.636],[-6246.371,1429.069],[-6245.775,1429.388],[-6245.127,1429.58],[-6245.611,1431.493],[-6246.276,1431.423],[-6246.941,1431.489],[-6247.579,1431.688],[-6248.163,1432.013],[-6248.669,1432.449],[-6249.076,1432.979],[-6249.368,1433.58],[-6249.531,1434.228],[-6249.56,1434.896],[-6249.452,1435.556],[-6249.213,1436.18],[-6248.853,1436.742],[-6248.386,1437.22],[-6247.832,1437.594],[-6247.213,1437.847],[-6243.372,1438.663],[-6244.204,1442.095],[-6248.024,1441.141],[-6248.913,1440.919],[-6256.646,1438.986],[-6268.527,1436.016],[-6271.592,1435.249],[-6282.389,1432.55],[-6286.517,1431.518],[-6287.896,1431.175],[-6306.665,1426.481],[-6307.664,1430.481],[-6311.468,1445.716],[-6312.726,1450.754],[-6312.01,1450.938],[-6298.415,1454.336],[-6293.772,1455.498],[-6292.476,1455.823],[-6288.337,1456.859],[-6277.52,1459.568],[-6274.465,1460.333],[-6265.265,1462.636],[-6255.94,1464.963],[-6254.944,1465.212],[-6254.006,1465.44],[-6250.182,1466.367],[-6251.022,1469.766],[-6254.863,1468.925],[-6255.513,1468.931],[-6256.15,1469.059],[-6256.753,1469.302],[-6257.299,1469.654],[-6257.771,1470.101],[-6258.151,1470.628],[-6258.426,1471.217],[-6258.587,1471.846],[-6258.627,1472.495],[-6258.547,1473.14],[-6258.347,1473.758],[-6258.036,1474.329],[-6257.624,1474.832],[-6257.126,1475.249],[-6256.559,1475.566],[-6256.93,1477.021],[-6257.588,1476.983],[-6258.241,1477.074],[-6258.863,1477.292],[-6259.431,1477.627],[-6259.922,1478.066],[-6260.318,1478.593],[-6260.603,1479.188],[-6260.766,1479.826],[-6260.801,1480.485],[-6260.706,1481.137],[-6260.486,1481.758],[-6260.149,1482.324],[-6259.707,1482.814],[-6259.178,1483.207],[-6258.582,1483.489],[-6257.308,1483.806],[-6252.391,1485.02],[-6251.42,1485.192],[-6252.905,1491.191],[-6259.022,1515.9],[-6262.589,1514.884],[-6264.785,1514.349],[-6266.063,1514.038],[-6266.75,1514.092],[-6267.413,1514.276],[-6268.029,1514.585],[-6268.575,1515.006],[-6269.029,1515.524],[-6269.376,1516.119],[-6269.601,1516.77],[-6269.698,1517.452],[-6269.662,1518.14],[-6269.495,1518.808],[-6269.202,1519.432],[-6268.795,1519.988],[-6268.289,1520.455],[-6267.703,1520.817],[-6267.058,1521.06],[-6266.379,1521.174],[-6266.7,1522.548],[-6267.337,1522.244],[-6268.021,1522.071],[-6268.726,1522.036],[-6269.424,1522.142],[-6270.088,1522.383],[-6270.691,1522.75],[-6271.21,1523.229],[-6271.624,1523.801],[-6271.917,1524.443],[-6272.077,1525.13],[-6272.099,1525.836],[-6271.982,1526.532],[-6271.729,1527.191],[-6271.351,1527.787],[-6270.863,1528.297],[-6270.284,1528.701],[-6269.637,1528.983],[-6268.947,1529.132],[-6268.241,1529.141],[-6266.299,1529.622],[-6262.676,1530.656],[-6266.702,1546.92],[-6262.967,1547.933],[-6250.28,1550.993],[-6226.409,1556.75],[-6207.903,1561.213],[-6203.987,1562.179],[-6200.009,1546.158],[-6194.044,1547.767],[-6193.445,1548.07],[-6192.8,1548.256],[-6192.131,1548.318],[-6191.462,1548.252],[-6190.818,1548.063],[-6190.221,1547.756],[-6189.692,1547.343],[-6189.249,1546.837],[-6188.91,1546.258],[-6188.685,1545.625],[-6188.583,1544.961],[-6188.607,1544.29],[-6188.757,1543.636],[-6189.027,1543.021],[-6189.407,1542.467],[-6189.884,1541.995],[-6190.442,1541.62],[-6191.059,1541.357],[-6191.716,1541.214],[-6192.387,1541.197],[-6191.967,1539.532],[-6191.353,1539.764],[-6190.708,1539.884],[-6190.052,1539.888],[-6189.405,1539.776],[-6188.788,1539.552],[-6188.221,1539.223],[-6187.72,1538.798],[-6187.302,1538.292],[-6186.98,1537.721],[-6186.764,1537.101],[-6186.66,1536.453],[-6186.673,1535.797],[-6186.8,1535.153],[-6187.04,1534.542],[-6187.383,1533.983],[-6187.82,1533.493],[-6188.336,1533.088],[-6188.916,1532.78],[-6189.541,1532.579],[-6190.191,1532.492],[-6196.257,1531.045],[-6192.712,1516.768],[-6188.695,1500.593],[-6182.562,1502.132],[-6181.941,1502.461],[-6181.27,1502.666],[-6180.571,1502.742],[-6179.871,1502.684],[-6179.195,1502.495],[-6178.566,1502.182],[-6178.008,1501.757],[-6177.539,1501.233],[-6177.178,1500.631],[-6176.937,1499.971],[-6176.825,1499.278],[-6176.845,1498.576],[-6176.997,1497.89],[-6177.276,1497.246],[-6177.672,1496.665],[-6178.169,1496.17],[-6178.752,1495.777],[-6179.398,1495.501],[-6180.084,1495.352],[-6180.786,1495.335],[-6180.399,1493.856],[-6179.759,1494.158],[-6179.072,1494.331],[-6178.364,1494.367],[-6177.664,1494.265],[-6176.996,1494.03],[-6176.386,1493.669],[-6175.858,1493.197],[-6175.432,1492.631],[-6175.123,1491.994],[-6174.944,1491.308],[-6174.901,1490.602],[-6174.997,1489.9],[-6175.226,1489.23],[-6175.581,1488.617],[-6176.048,1488.084],[-6176.609,1487.653],[-6177.244,1487.338],[-6177.927,1487.153],[-6178.634,1487.103],[-6184.98,1485.632],[-6182.418,1475.31],[-6178.962,1476.193],[-6179.267,1477.307],[-6174.69,1478.393],[-6171.725,1466.528],[-6176.201,1465.47],[-6176.455,1466.56],[-6180.018,1465.647],[-6177.32,1454.78],[-6171.375,1456.19],[-6170.743,1456.49],[-6170.064,1456.66],[-6169.366,1456.693],[-6168.674,1456.59],[-6168.016,1456.352],[-6167.417,1455.991],[-6166.9,1455.519],[-6166.486,1454.955],[-6166.191,1454.321],[-6166.025,1453.642],[-6165.995,1452.943],[-6166.103,1452.252],[-6166.345,1451.595],[-6166.71,1450.998],[-6167.185,1450.485],[-6167.751,1450.074],[-6168.387,1449.783],[-6169.068,1449.621],[-6169.767,1449.596],[-6169.454,1448.31],[-6168.795,1448.6],[-6168.092,1448.757],[-6167.373,1448.776],[-6166.663,1448.656],[-6165.99,1448.402],[-6165.378,1448.022],[-6164.851,1447.531],[-6164.428,1446.948],[-6164.126,1446.295],[-6163.956,1445.595],[-6163.923,1444.876],[-6164.03,1444.164],[-6164.272,1443.486],[-6164.641,1442.868],[-6165.122,1442.332],[-6165.697,1441.898],[-6166.344,1441.584],[-6167.04,1441.401],[-6167.759,1441.355],[-6173.642,1439.967],[-6172.346,1434.747],[-6168.734,1420.2],[-6163.506,1421.458],[-6162.288,1416.441],[-6167.498,1415.222],[-6166.001,1409.192],[-6160.041,1410.6],[-6159.391,1410.867],[-6158.7,1410.997],[-6157.997,1410.986],[-6157.311,1410.834],[-6156.67,1410.547],[-6156.099,1410.136],[-6155.622,1409.62],[-6155.259,1409.018],[-6155.025,1408.355],[-6154.929,1407.659],[-6154.974,1406.958],[-6155.16,1406.28],[-6155.478,1405.653],[-6155.916,1405.103],[-6156.456,1404.653],[-6157.075,1404.32],[-6157.748,1404.118],[-6158.448,1404.056],[-6158.072,1402.511],[-6157.436,1402.777],[-6156.76,1402.916],[-6156.071,1402.924],[-6155.392,1402.8],[-6154.75,1402.549],[-6154.167,1402.18],[-6153.666,1401.707],[-6153.264,1401.147],[-6152.976,1400.52],[-6152.813,1399.85],[-6152.78,1399.161],[-6152.88,1398.479],[-6153.108,1397.828],[-6153.456,1397.233],[-6153.911,1396.715],[-6154.457,1396.293],[-6155.073,1395.983],[-6155.737,1395.797],[-6156.424,1395.74],[-6162.329,1394.405],[-6158.46,1378.825],[-6160.214,1378.355],[-6152.669,1347.315],[-6155.591,1346.601],[-6208.176,1333.744],[-6211.763,1332.867],[-6219.671,1363.923],[-6221.325,1363.634],[-6225.205,1379.293],[-6228.599,1378.649]]]},"properties":{"name":"ICC Berlin complete measured owner","parentIds":["DEBE04YY500001II"]}},{"type":"Feature","geometry":{"type":"Polygon","coordinates":[[[-6229.784,1649.659],[-6230.44,1651.97],[-6246.288,1648.254],[-6252.888,1646.669],[-6260.177,1644.919],[-6259.354,1639.898],[-6259.162,1638.723],[-6260.484,1638.794],[-6261.808,1638.756],[-6263.124,1638.609],[-6264.423,1638.355],[-6265.697,1637.995],[-6266.937,1637.531],[-6268.135,1636.967],[-6269.283,1636.307],[-6270.51,1635.454],[-6271.667,1634.51],[-6272.749,1633.479],[-6273.749,1632.369],[-6274.66,1631.185],[-6275.478,1629.935],[-6276.198,1628.626],[-6276.815,1627.265],[-6277.326,1625.861],[-6277.728,1624.422],[-6278.018,1622.957],[-6278.195,1621.473],[-6278.206,1619.973],[-6278.102,1618.478],[-6277.882,1616.994],[-6277.549,1615.532],[-6277.104,1614.1],[-6276.549,1612.707],[-6275.889,1611.361],[-6275.127,1610.069],[-6274.267,1608.84],[-6273.316,1607.682],[-6272.277,1606.6],[-6271.158,1605.601],[-6269.966,1604.692],[-6270.386,1603.999],[-6276.621,1602.548],[-6273.593,1591.349],[-6273.582,1591.32],[-6272.208,1585.836],[-6271.782,1584.144],[-6271.147,1581.627],[-6270.317,1578.331],[-6270.055,1577.291],[-6268.795,1572.291],[-6268.417,1570.796],[-6266.107,1561.632],[-6265.719,1560.091],[-6262.967,1547.933],[-6250.28,1550.993],[-6226.409,1556.75],[-6207.903,1561.213],[-6211.667,1575.785],[-6211.845,1576.474],[-6214.82,1587.995],[-6215.392,1590.209],[-6222.714,1622.018],[-6223.052,1623.341],[-6226.038,1635.015],[-6229.784,1649.659]]]},"properties":{"name":"ICC Berlin complete measured owner","parentIds":["DEBE04YY500004dG"]}},{"type":"Feature","geometry":{"type":"Polygon","coordinates":[[[-6314.462,1306.936],[-6323.661,1344.844],[-6325.181,1351.111],[-6325.551,1352.636],[-6326.72,1357.453],[-6329.61,1369.363],[-6330.83,1374.39],[-6332.425,1380.963],[-6333.756,1386.448],[-6335.246,1392.59],[-6336.592,1398.139],[-6338.085,1404.289],[-6339.281,1409.219],[-6340.913,1415.946],[-6342.772,1423.606],[-6344.676,1423.696],[-6347.254,1435.038],[-6345.782,1436.009],[-6347.787,1444.276],[-6349.403,1450.937],[-6350.61,1455.909],[-6354.985,1473.937],[-6355.307,1475.264],[-6358.893,1490.042],[-6355.003,1491.904],[-6354.229,1492.275],[-6330.987,1503.403],[-6330.116,1499.783],[-6328.655,1500.093],[-6324.562,1483.684],[-6323.419,1483.837],[-6323.234,1483.262],[-6322.314,1479.547],[-6322.021,1478.365],[-6318.57,1463.447],[-6315.925,1452.015],[-6315.013,1448.072],[-6311.468,1445.716],[-6307.664,1430.481],[-6309.836,1426.57],[-6294.482,1364.414],[-6293.328,1359.741],[-6292.748,1357.156],[-6291.52,1352.422],[-6292.278,1352.151],[-6282.191,1311.454],[-6283.1,1311.244],[-6281.827,1306.121],[-6309.098,1306.959],[-6314.462,1306.936]]]},"properties":{"name":"ICC Berlin complete measured owner","parentIds":["DEBE04YY500006BE"]}}]}
