{
  "type": "FeatureCollection",
  "name": "regierungsviertel_landmarks",
  "crs": {
    "type": "name",
    "properties": {
      "name": "urn:ogc:def:crs:OGC:1.3:CRS84"
    }
  },
  "features": [
    {
      "type": "Feature",
      "properties": {
        "name": "Brandenburger Tor",
        "role": "must_be_visible",
        "tour_order": 25
      },
      "geometry": {
        "type": "Point",
        "coordinates": [
          13.377701755,
          52.5162787
        ]
      }
    },
    {
      "type": "Feature",
      "properties": {
        "name": "Pariser Platz",
        "role": "owner_added",
        "tour_order": 27
      },
      "geometry": {
        "type": "Point",
        "coordinates": [
          13.3788652,
          52.516363
        ]
      }
    },
    {
      "type": "Feature",
      "properties": {
        "name": "Denkmal für die ermordeten Juden Europas",
        "role": "owner_added",
        "tour_order": 31
      },
      "geometry": {
        "type": "Point",
        "coordinates": [
          13.3784494,
          52.513979
        ]
      }
    },
    {
      "type": "Feature",
      "properties": {
        "name": "Denkmal für die im Nationalsozialismus verfolgten Homosexuellen",
        "role": "owner_added",
        "tour_order": 32
      },
      "geometry": {
        "type": "Point",
        "coordinates": [
          13.3761369,
          52.5132577
        ]
      }
    },
    {
      "type": "Feature",
      "properties": {
        "name": "Denkmal für die im Nationalsozialismus ermordeten Sinti und Roma Europas",
        "role": "owner_added",
        "tour_order": 23
      },
      "geometry": {
        "type": "Point",
        "coordinates": [
          13.3760406,
          52.5172829
        ]
      }
    },
    {
      "type": "Feature",
      "properties": {
        "name": "Reichstagsgebäude",
        "role": "hero_tile",
        "tour_order": 16
      },
      "geometry": {
        "type": "Point",
        "coordinates": [
          13.3761,
          52.5186
        ]
      }
    },
    {
      "type": "Feature",
      "properties": {
        "name": "Sowjetisches Ehrenmal Tiergarten",
        "role": "owner_added",
        "tour_order": 24
      },
      "geometry": {
        "type": "Point",
        "coordinates": [
          13.371919,
          52.5166949
        ]
      }
    },
    {
      "type": "Feature",
      "properties": {
        "name": "Bundeskanzleramt",
        "role": "must_be_visible",
        "tour_order": 9
      },
      "geometry": {
        "type": "Point",
        "coordinates": [
          13.369129324,
          52.52015925
        ]
      }
    },
    {
      "type": "Feature",
      "properties": {
        "name": "Paul-Löbe-Haus",
        "role": "must_be_visible",
        "tour_order": 14
      },
      "geometry": {
        "type": "Point",
        "coordinates": [
          13.374800521,
          52.520128028
        ]
      }
    },
    {
      "type": "Feature",
      "properties": {
        "name": "Marie-Elisabeth-Lüders-Haus",
        "role": "must_be_visible",
        "tour_order": 13
      },
      "geometry": {
        "type": "Point",
        "coordinates": [
          13.37751165,
          52.52082875
        ]
      }
    },
    {
      "type": "Feature",
      "properties": {
        "name": "Berlin Hauptbahnhof",
        "role": "hero_tile",
        "tour_order": 1
      },
      "geometry": {
        "type": "Point",
        "coordinates": [
          13.3694,
          52.5251
        ]
      }
    },
    {
      "type": "Feature",
      "properties": {
        "name": "Humboldthafen",
        "role": "owner_added",
        "tour_order": 2
      },
      "geometry": {
        "type": "Point",
        "coordinates": [
          13.3719899,
          52.5250901
        ]
      }
    },
    {
      "type": "Feature",
      "properties": {
        "name": "Hugo-Preuß-Brücke",
        "role": "owner_added",
        "tour_order": 3
      },
      "geometry": {
        "type": "Point",
        "coordinates": [
          13.3721183,
          52.5235582
        ]
      }
    },
    {
      "type": "Feature",
      "properties": {
        "name": "Rahel-Hirsch-Straße",
        "role": "owner_added",
        "tour_order": 4
      },
      "geometry": {
        "type": "Point",
        "coordinates": [
          13.3696072,
          52.5231174
        ]
      }
    },
    {
      "type": "Feature",
      "properties": {
        "name": "Moltkebrücke",
        "role": "owner_added",
        "tour_order": 6
      },
      "geometry": {
        "type": "Point",
        "coordinates": [
          13.3682697,
          52.5221566
        ]
      }
    },
    {
      "type": "Feature",
      "properties": {
        "name": "Haus der Kulturen der Welt (Schwangere Auster)",
        "role": "must_be_visible",
        "tour_order": 20
      },
      "geometry": {
        "type": "Point",
        "coordinates": [
          13.364,
          52.5189
        ]
      }
    },
    {
      "type": "Feature",
      "properties": {
        "name": "Großer Tiergarten",
        "role": "owner_added",
        "tour_order": 37
      },
      "geometry": {
        "type": "Point",
        "coordinates": [
          13.3716983,
          52.5135731
        ]
      }
    },
    {
      "type": "Feature",
      "properties": {
        "name": "Beethoven-Haydn-Mozart-Denkmal",
        "role": "owner_added",
        "tour_order": 34
      },
      "geometry": {
        "type": "Point",
        "coordinates": [
          13.370336,
          52.5137454
        ]
      }
    },
    {
      "type": "Feature",
      "properties": {
        "name": "Venusbassin / Goldfischteich",
        "role": "owner_added",
        "tour_order": 35,
        "source": "Wikidata Q131192370 / OpenStreetMap way 28873112"
      },
      "geometry": {
        "type": "Point",
        "coordinates": [
          13.370688333,
          52.514502778
        ]
      }
    },
    {
      "type": "Feature",
      "properties": {
        "name": "Goethe-Denkmal",
        "role": "owner_added",
        "tour_order": 33
      },
      "geometry": {
        "type": "Point",
        "coordinates": [
          13.3763737,
          52.5137982
        ]
      }
    },
    {
      "type": "Feature",
      "properties": {
        "name": "Spielplatz an der Luiseninsel",
        "role": "owner_added",
        "tour_order": 38,
        "source": "OpenStreetMap way 24911694; Bezirksamt Mitte Spielplatzversorgungsplanung object 2126-6"
      },
      "geometry": {
        "type": "Point",
        "coordinates": [
          13.36686014,
          52.51082053
        ]
      }
    },
    {
      "type": "Feature",
      "properties": {
        "name": "Kemperplatz / Tiergartentunnel",
        "role": "owner_added",
        "tour_order": 39
      },
      "geometry": {
        "type": "Point",
        "coordinates": [
          13.3712477,
          52.5111395
        ]
      }
    },
    {
      "type": "Feature",
      "properties": {
        "name": "Tiergartentunnel Südeingang (Sony Center / Potsdamer Platz)",
        "role": "must_be_visible",
        "tour_order": 40
      },
      "geometry": {
        "type": "Point",
        "coordinates": [
          13.3743,
          52.5096
        ]
      }
    },
    {
      "type": "Feature",
      "properties": {
        "name": "Max-Liebermann-Haus",
        "role": "owner_added",
        "tour_order": 29
      },
      "geometry": {
        "type": "Point",
        "coordinates": [
          13.377821855,
          52.516702099
        ]
      }
    },
    {
      "type": "Feature",
      "properties": {
        "name": "Botschaft der Vereinigten Staaten von Amerika",
        "role": "owner_added",
        "tour_order": 30
      },
      "geometry": {
        "type": "Point",
        "coordinates": [
          13.3781671,
          52.515292
        ]
      }
    },
    {
      "type": "Feature",
      "properties": {
        "name": "Zollpackhof",
        "role": "owner_added",
        "tour_order": 7
      },
      "geometry": {
        "type": "Point",
        "coordinates": [
          13.3668503,
          52.5212821
        ]
      }
    },
    {
      "type": "Feature",
      "properties": {
        "name": "Gustav-Heinemann-Brücke",
        "role": "owner_added",
        "tour_order": 5
      },
      "geometry": {
        "type": "Point",
        "coordinates": [
          13.3707522,
          52.5224857
        ]
      }
    },
    {
      "type": "Feature",
      "properties": {
        "name": "Spreebogen",
        "role": "owner_added",
        "tour_order": 12
      },
      "geometry": {
        "type": "Point",
        "coordinates": [
          13.3698,
          52.5208
        ]
      }
    },
    {
      "type": "Feature",
      "properties": {
        "name": "TIPI am Kanzleramt",
        "role": "owner_added",
        "tour_order": 21,
        "source": "Wikimedia Commons object location and official TIPI address"
      },
      "geometry": {
        "type": "Point",
        "coordinates": [
          13.367084,
          52.518362
        ]
      }
    },
    {
      "type": "Feature",
      "properties": {
        "name": "Eduardo-Chillida-Skulptur Berlin",
        "role": "owner_added",
        "tour_order": 10,
        "source": "Berlin.de / Bundesregierung / Wikimedia Commons; approximate Chancellery forecourt point"
      },
      "geometry": {
        "type": "Point",
        "coordinates": [
          13.3704874,
          52.5202262
        ]
      }
    },
    {
      "type": "Feature",
      "properties": {
        "name": "Reichstagsvorfeld / Berlin-Pavillon",
        "role": "owner_added",
        "tour_order": 18,
        "source": "Berlin LoD2 parent DEBE01YYK0002Pvf centroid; 2025 Wikimedia Commons north-front visual QA"
      },
      "geometry": {
        "type": "Point",
        "coordinates": [
          13.373813857786939,
          52.51748347900633
        ]
      }
    },
    {
      "type": "Feature",
      "properties": {
        "name": "Platz der Republik Heckenbosquets",
        "role": "owner_added",
        "tour_order": 19,
        "source": "Platz der Republik public map/Wikipedia QA; approximate lawn and hedge-bosquet point"
      },
      "geometry": {
        "type": "Point",
        "coordinates": [
          13.37435,
          52.51745
        ]
      }
    },
    {
      "type": "Feature",
      "properties": {
        "name": "Kanzlergarten / Non-Violence-Skulptur",
        "role": "owner_added",
        "tour_order": 11,
        "source": "Wikimedia Commons Kanzlerpark / Bundeskanzleramt article; approximate Kanzlergarten point"
      },
      "geometry": {
        "type": "Point",
        "coordinates": [
          13.36585,
          52.51985
        ]
      }
    },
    {
      "type": "Feature",
      "properties": {
        "name": "Carillon im Tiergarten",
        "role": "owner_added",
        "tour_order": 22,
        "source": "Official mesh tile tile-3890_58196.glb roof-plate centre (EPSG:25833 389192.9, 5819881.5); replaces the Wikimedia photographer-standpoint geotag that sat 29.4 m south-west (task 08)"
      },
      "geometry": {
        "type": "Point",
        "coordinates": [
          13.36696,
          52.51776
        ]
      }
    },
    {
      "type": "Feature",
      "properties": {
        "name": "Mahnmal für verfolgte Zeugen Jehovas",
        "role": "owner_added",
        "tour_order": 36,
        "source": "OSM node 13951345000; Kulturstaatsminister / RBB / ALST reports"
      },
      "geometry": {
        "type": "Point",
        "coordinates": [
          13.3700036,
          52.5130436
        ]
      }
    },
    {
      "type": "Feature",
      "properties": {
        "name": "Gedenkort für Polen 1939-1945",
        "role": "owner_added",
        "tour_order": 15,
        "source": "Deutsch-Polnisches Haus / Stiftung Denkmal / Kulturstaatsminister; approximate former Kroll-Oper site"
      },
      "geometry": {
        "type": "Point",
        "coordinates": [
          13.3722,
          52.51872
        ]
      }
    },
    {
      "type": "Feature",
      "properties": {
        "name": "Schweizerische Botschaft",
        "role": "owner_added",
        "tour_order": 8,
        "source": "OpenStreetMap relation 2886766 / EDA official address and building description"
      },
      "geometry": {
        "type": "Point",
        "coordinates": [
          13.37128072047285,
          52.52110815
        ]
      }
    },
    {
      "type": "Feature",
      "properties": {
        "name": "Fahne der Einheit",
        "role": "owner_added",
        "tour_order": 17,
        "source": "OpenStreetMap node 437140233 / Deutscher Bundestag"
      },
      "geometry": {
        "type": "Point",
        "coordinates": [
          13.3747951,
          52.5184194
        ]
      }
    },
    {
      "type": "Feature",
      "properties": {
        "name": "Quadriga mit Victoria",
        "role": "owner_added",
        "tour_order": 26,
        "source": "OpenStreetMap node 3786417057 / Wikimedia Commons"
      },
      "geometry": {
        "type": "Point",
        "coordinates": [
          13.3777021,
          52.51627
        ]
      }
    },
    {
      "type": "Feature",
      "properties": {
        "name": "Starbucks Pariser Platz",
        "role": "owner_added",
        "tour_order": 28,
        "source": "OpenStreetMap node 66917229"
      },
      "geometry": {
        "type": "Point",
        "coordinates": [
          13.3797732,
          52.5167295
        ]
      }
    },
    {
      "type": "Feature",
      "properties": {
        "name": "Jakob-Kaiser-Haus",
        "role": "owner_added",
        "tour_order": 41,
        "source": "OpenStreetMap relations 374391 and 3203717; centroid of the combined Dorotheenstraße/Wilhelmstraße complex"
      },
      "geometry": {
        "type": "Point",
        "coordinates": [
          13.378477587,
          52.518032234
        ]
      }
    },
    {
      "type": "Feature",
      "properties": {
        "name": "Lessing-Denkmal",
        "role": "owner_added",
        "tour_order": 42,
        "source": "OpenStreetMap node 884700390 (historic=memorial, Gotthold Ephraim Lessing)"
      },
      "geometry": {
        "type": "Point",
        "coordinates": [
          13.3749541,
          52.5120477
        ]
      }
    },
    {
      "type": "Feature",
      "properties": {
        "name": "Königin-Luise-Denkmal (Luiseninsel)",
        "role": "owner_added",
        "tour_order": 43,
        "source": "OpenStreetMap way 28586183 (Luiseninsel) centroid; statue itself is not mapped in the committed OSM extract, Wikimedia Commons Luiseninsel photos confirm it stands at the island centre"
      },
      "geometry": {
        "type": "Point",
        "coordinates": [
          13.365044975,
          52.510774284
        ]
      }
    },
    {
      "type": "Feature",
      "properties": {
        "name": "Siegessäule",
        "role": "owner_added",
        "tour_order": 44,
        "source": "OpenStreetMap Sankt Matthäus-Kirche way 22990222 representative point"
      },
      "geometry": {
        "type": "Point",
        "coordinates": [
          13.350063,
          52.514488
        ]
      }
    },
    {
      "type": "Feature",
      "properties": {
        "name": "Großer Stern",
        "role": "owner_added",
        "tour_order": 45,
        "source": "tasks/09 grand expansion (OpenStreetMap positions)"
      },
      "geometry": {
        "type": "Point",
        "coordinates": [
          13.350063,
          52.514488
        ]
      }
    },
    {
      "type": "Feature",
      "properties": {
        "name": "Bismarck-Nationaldenkmal",
        "role": "owner_added",
        "tour_order": 46,
        "source": "OpenStreetMap memorial node 270687313 (Otto von Bismarck)"
      },
      "geometry": {
        "type": "Point",
        "coordinates": [
          13.3497493,
          52.5158896
        ]
      }
    },
    {
      "type": "Feature",
      "properties": {
        "name": "Berliner Philharmonie",
        "role": "owner_added",
        "tour_order": 47,
        "source": "tasks/09 grand expansion (OpenStreetMap positions)"
      },
      "geometry": {
        "type": "Point",
        "coordinates": [
          13.36975,
          52.51
        ]
      }
    },
    {
      "type": "Feature",
      "properties": {
        "name": "St. Matthäus-Kirche",
        "role": "owner_added",
        "tour_order": 48,
        "source": "OpenStreetMap Sankt Matthäus-Kirche way 22990222 representative point"
      },
      "geometry": {
        "type": "Point",
        "coordinates": [
          13.367462805,
          52.50794505
        ]
      }
    },
    {
      "type": "Feature",
      "properties": {
        "name": "Gemäldegalerie",
        "role": "owner_added",
        "tour_order": 49,
        "source": "tasks/09 grand expansion (OpenStreetMap positions)"
      },
      "geometry": {
        "type": "Point",
        "coordinates": [
          13.3667,
          52.5085
        ]
      }
    },
    {
      "type": "Feature",
      "properties": {
        "name": "Neue Nationalgalerie",
        "role": "owner_added",
        "tour_order": 50,
        "source": "Berlin LoD2 footprint DEBE3DWiMSMgX8rD representative point"
      },
      "geometry": {
        "type": "Point",
        "coordinates": [
          13.367391414,
          52.50694869
        ]
      }
    },
    {
      "type": "Feature",
      "properties": {
        "name": "Staatsbibliothek zu Berlin (Haus Potsdamer Straße)",
        "role": "owner_added",
        "tour_order": 51,
        "source": "OpenStreetMap Staatsbibliothek relation 9261463 representative point"
      },
      "geometry": {
        "type": "Point",
        "coordinates": [
          13.370841109,
          52.5073702
        ]
      }
    },
    {
      "type": "Feature",
      "properties": {
        "name": "Leipziger Platz",
        "role": "owner_added",
        "tour_order": 52,
        "source": "tasks/09 grand expansion (OpenStreetMap positions)"
      },
      "geometry": {
        "type": "Point",
        "coordinates": [
          13.3781,
          52.5094
        ]
      }
    },
    {
      "type": "Feature",
      "properties": {
        "name": "Mall of Berlin",
        "role": "owner_added",
        "tour_order": 53,
        "source": "tasks/09 grand expansion (OpenStreetMap positions)"
      },
      "geometry": {
        "type": "Point",
        "coordinates": [
          13.3801,
          52.5104
        ]
      }
    },
    {
      "type": "Feature",
      "properties": {
        "name": "Kollhoff-Tower",
        "role": "owner_added",
        "tour_order": 54,
        "source": "Berlin LoD2 footprint DEBE3DjvWtTpo3vD representative point"
      },
      "geometry": {
        "type": "Point",
        "coordinates": [
          13.375341843,
          52.509215169
        ]
      }
    },
    {
      "type": "Feature",
      "properties": {
        "name": "Hamburger Bahnhof",
        "role": "owner_added",
        "tour_order": 55,
        "source": "tasks/09 grand expansion (OpenStreetMap positions)"
      },
      "geometry": {
        "type": "Point",
        "coordinates": [
          13.3722,
          52.5285
        ]
      }
    },
    {
      "type": "Feature",
      "properties": {
        "name": "Geschichtspark Ehemaliges Zellengefängnis Moabit",
        "role": "owner_added",
        "tour_order": 56,
        "source": "OpenStreetMap Geschichtspark way 498278335 representative point"
      },
      "geometry": {
        "type": "Point",
        "coordinates": [
          13.366211222,
          52.52696075
        ]
      }
    },
    {
      "type": "Feature",
      "properties": {
        "name": "Invalidenpark / Sinkende Mauer",
        "role": "owner_added",
        "tour_order": 57,
        "source": "OpenStreetMap way 1065885229 (tourism=artwork, Sinkende Mauer) and way 28880840 (the fountain basin); centre of the basin the wall runs into"
      },
      "geometry": {
        "type": "Point",
        "coordinates": [
          13.3763385,
          52.5293075
        ]
      }
    },
    {
      "type": "Feature",
      "properties": {
        "name": "Rieckhallen",
        "role": "owner_added",
        "tour_order": 58,
        "source": "OpenStreetMap and Landesdenkmalamt Berlin"
      },
      "geometry": { "type": "Point", "coordinates": [13.370007506, 52.529817853] }
    },
    {
      "type": "Feature",
      "properties": {
        "name": "Sozialgericht Berlin",
        "role": "owner_added",
        "tour_order": 59,
        "source": "Official court address Invalidenstraße 52 and Berlin monument database; historic railway-administration building"
      },
      "geometry": { "type": "Point", "coordinates": [13.371109849, 52.527565748] }
    },
    {
      "type": "Feature",
      "properties": {
        "name": "KPMG Europacity",
        "role": "owner_added",
        "tour_order": 60,
        "source": "OpenStreetMap position"
      },
      "geometry": { "type": "Point", "coordinates": [13.3694386, 52.5274267] }
    },
    {
      "type": "Feature",
      "properties": {
        "name": "DKB Campus Upbeat",
        "role": "owner_added",
        "tour_order": 61,
        "source": "OpenStreetMap building position and DKB official future-headquarters notice"
      },
      "geometry": { "type": "Point", "coordinates": [13.360817841, 52.536491746] }
    },
    {
      "type": "Feature",
      "properties": {
        "name": "Kammermusiksaal",
        "role": "owner_added",
        "tour_order": 62,
        "source": "OpenStreetMap position"
      },
      "geometry": { "type": "Point", "coordinates": [13.368994765, 52.509350231] }
    },
    {
      "type": "Feature",
      "properties": {
        "name": "Tilla-Durieux-Park",
        "role": "owner_added",
        "tour_order": 63,
        "source": "OpenStreetMap park geometry"
      },
      "geometry": { "type": "Point", "coordinates": [13.374993237, 52.506193662] }
    },
    {
      "type": "Feature",
      "properties": {
        "name": "berlin modern — Museum des 20. Jahrhunderts",
        "role": "owner_added",
        "tour_order": 64,
        "source": "OpenStreetMap construction footprint and Stiftung Preußischer Kulturbesitz planning information"
      },
      "geometry": { "type": "Point", "coordinates": [13.368478519, 52.508086503] }
    },
    {
      "type": "Feature",
      "properties": {
        "name": "Der Bogenschütze (Henry Moore)",
        "role": "owner_added",
        "tour_order": 65,
        "source": "OpenStreetMap artwork position at Neue Nationalgalerie"
      },
      "geometry": { "type": "Point", "coordinates": [13.3683147, 52.5072478] }
    },
    {
      "type": "Feature",
      "properties": {
        "name": "Café am Neuen See",
        "role": "owner_added",
        "tour_order": 66,
        "source": "OpenStreetMap position"
      },
      "geometry": { "type": "Point", "coordinates": [13.344478792, 52.5103663] }
    },
    {
      "type": "Feature",
      "properties": {
        "name": "Spanische Botschaft",
        "role": "owner_added",
        "tour_order": 67,
        "source": "OpenStreetMap position"
      },
      "geometry": { "type": "Point", "coordinates": [13.345486549, 52.510313617] }
    },
    {
      "type": "Feature",
      "properties": {
        "name": "Charlottenburger Tor",
        "role": "owner_added",
        "tour_order": 68,
        "source": "OpenStreetMap position"
      },
      "geometry": { "type": "Point", "coordinates": [13.331406182, 52.513227439] }
    },
    {
      "type": "Feature",
      "properties": {
        "name": "Rosengarten im Tiergarten",
        "role": "owner_added",
        "tour_order": 69,
        "source": "OpenStreetMap garden geometry"
      },
      "geometry": { "type": "Point", "coordinates": [13.356964817, 52.513808041] }
    },
    {
      "type": "Feature",
      "properties": {
        "name": "Luiseninsel",
        "role": "owner_added",
        "tour_order": 70,
        "source": "OpenStreetMap position"
      },
      "geometry": { "type": "Point", "coordinates": [13.36443781, 52.510887071] }
    },
    {
      "type": "Feature",
      "properties": {
        "name": "Anhalter Bahnhof",
        "role": "owner_added",
        "tour_order": 71,
        "source": "OpenStreetMap historic station-portico position"
      },
      "geometry": { "type": "Point", "coordinates": [13.381245698, 52.503518377] }
    },
    {
      "type": "Feature",
      "properties": {
        "name": "WELT Balloon",
        "role": "owner_added",
        "tour_order": 72,
        "source": "OpenStreetMap position and WELT visitor information"
      },
      "geometry": { "type": "Point", "coordinates": [13.386117256, 52.50793251] }
    },
    {
      "type": "Feature",
      "properties": {
        "name": "Kochstraße",
        "role": "owner_added",
        "tour_order": 73,
        "source": "OpenStreetMap position"
      },
      "geometry": { "type": "Point", "coordinates": [13.3904331, 52.5066718] }
    },
    {
      "type": "Feature",
      "properties": {
        "name": "Tramhaltestelle S+U Hauptbahnhof",
        "role": "owner_added",
        "tour_order": 74,
        "source": "OpenStreetMap tram-stop/platform geometry and BVG station information"
      },
      "geometry": { "type": "Point", "coordinates": [13.369730255, 52.526560305] }
    },
    {
      "type": "Feature",
      "properties": {
        "name": "S15-Station Berlin Hauptbahnhof",
        "role": "owner_added",
        "tour_order": 75,
        "source": "OpenStreetMap station position and Deutsche Bahn/S-Bahn Berlin opening information dated 2026-06-15"
      },
      "geometry": { "type": "Point", "coordinates": [13.369585101, 52.526621405] }
    },
    {
      "type": "Feature",
      "properties": {
        "name": "Oggi's Gemüsekebab",
        "role": "owner_added",
        "tour_order": 76,
        "source": "OpenStreetMap point position"
      },
      "geometry": { "type": "Point", "coordinates": [13.368830905, 52.529461799] }
    },
    {
      "type": "Feature",
      "properties": {
        "name": "Taxistand Washingtonplatz",
        "role": "owner_added",
        "tour_order": 77,
        "source": "OpenStreetMap mobility-hub context and Berlin-Mitte Hauptbahnhof mobility plan"
      },
      "geometry": { "type": "Point", "coordinates": [13.370742055, 52.523669612] }
    },
    {
      "type": "Feature",
      "properties": {
        "name": "Futurium",
        "role": "owner_added",
        "tour_order": 78,
        "source": "OpenStreetMap position and Futurium official architecture documentation"
      },
      "geometry": { "type": "Point", "coordinates": [13.374327187, 52.523910466] }
    },
    {
      "type": "Feature",
      "properties": {
        "name": "Bundesministerium für Forschung, Technologie und Raumfahrt",
        "role": "owner_added",
        "tour_order": 79,
        "source": "OpenStreetMap government-office geometry at Kapelle-Ufer"
      },
      "geometry": { "type": "Point", "coordinates": [13.375537943, 52.52319431] }
    },
    {
      "type": "Feature",
      "properties": {
        "name": "Parlament der Bäume gegen Krieg und Gewalt",
        "role": "owner_added",
        "tour_order": 80,
        "source": "OpenStreetMap memorial position and Stiftung Berliner Mauer documentation"
      },
      "geometry": { "type": "Point", "coordinates": [13.377442438, 52.52126227] }
    },
    {
      "type": "Feature",
      "properties": {
        "name": "Berliner Ensemble",
        "role": "owner_added",
        "tour_order": 81,
        "source": "OpenStreetMap theatre site/POI way 422928025; protected building geometry way 43017010 (ref:lda=09011192); Berliner Ensemble official venue history"
      },
      "geometry": { "type": "Point", "coordinates": [13.38555, 52.52215] }
    },
    {
      "type": "Feature",
      "properties": {
        "name": "Bahnhof Berlin Friedrichstraße",
        "role": "owner_added",
        "tour_order": 82,
        "source": "OpenStreetMap station position and DB InfraGO station information"
      },
      "geometry": { "type": "Point", "coordinates": [13.3869884, 52.5201744] }
    },
    {
      "type": "Feature",
      "properties": {
        "name": "Bundesministerium der Finanzen / Detlev-Rohwedder-Haus",
        "role": "owner_added",
        "tour_order": 83,
        "source": "OpenStreetMap government-office geometry and Bundesfinanzministerium official building history"
      },
      "geometry": { "type": "Point", "coordinates": [13.383553467, 52.508637596] }
    },
    {
      "type": "Feature",
      "properties": {
        "name": "Gropius Bau",
        "role": "owner_added",
        "tour_order": 84,
        "source": "OpenStreetMap museum geometry and Berlin monument data"
      },
      "geometry": { "type": "Point", "coordinates": [13.381947981, 52.506615669] }
    },
    {
      "type": "Feature",
      "properties": {
        "name": "Abgeordnetenhaus von Berlin",
        "role": "owner_added",
        "tour_order": 85,
        "source": "OpenStreetMap government-office geometry and Abgeordnetenhaus/Denkmaldatenbank documentation"
      },
      "geometry": { "type": "Point", "coordinates": [13.381504518, 52.507865347] }
    },
    {
      "type": "Feature",
      "properties": {
        "name": "Topographie des Terrors",
        "role": "owner_added",
        "tour_order": 86,
        "source": "OpenStreetMap museum geometry and Stiftung Topographie des Terrors site documentation"
      },
      "geometry": { "type": "Point", "coordinates": [13.384141671, 52.50623855] }
    },
    {
      "type": "Feature",
      "properties": {
        "name": "Bundesministerium für Bildung, Familie, Senioren, Frauen und Jugend",
        "role": "owner_added",
        "tour_order": 87,
        "source": "OpenStreetMap government-office geometry"
      },
      "geometry": { "type": "Point", "coordinates": [13.387390978, 52.513300417] }
    },
    {
      "type": "Feature",
      "properties": {
        "name": "Denkzeichen Georg Elser",
        "role": "owner_added",
        "tour_order": 88,
        "source": "OpenStreetMap node 1986458966 and Berlin.de memorial documentation"
      },
      "geometry": { "type": "Point", "coordinates": [13.3827365, 52.5123071] }
    },
    {
      "type": "Feature",
      "properties": {
        "name": "Queer Rainbow Memorial Berlin",
        "role": "owner_added",
        "tour_order": 89,
        "source": "Owner-supplied Ahornsteig place link and field views; display geometry is not surveyed"
      },
      "geometry": { "type": "Point", "coordinates": [13.372264, 52.5129712] }
    },
    {
      "type": "Feature",
      "properties": {
        "name": "Richard Wagner",
        "role": "owner_added",
        "tour_order": 90,
        "source": "OpenStreetMap node 243487615 and Landesdenkmalamt Berlin part 09046318,T,041"
      },
      "geometry": { "type": "Point", "coordinates": [13.3618687, 52.5100656] }
    },
    {
      "type": "Feature",
      "properties": {
        "name": "Weidendammer Brücke",
        "role": "owner_added",
        "tour_order": 91,
        "source": "OpenStreetMap way 6228081 and Landesdenkmalamt Berlin object 09030074"
      },
      "geometry": { "type": "Point", "coordinates": [13.387954900426, 52.522129700023] }
    },
    {
      "type": "Feature",
      "properties": {
        "name": "Bertolt Brecht",
        "role": "owner_added",
        "tour_order": 92,
        "source": "OpenStreetMap node 988668382 and Bildhauerei in Berlin sculpture inventory"
      },
      "geometry": { "type": "Point", "coordinates": [13.386450998964369, 52.52224460446284] }
    },
    {
      "type": "Feature",
      "properties": {
        "name": "Scharnhorst-Grabmal",
        "role": "owner_added",
        "tour_order": 93,
        "source": "OpenStreetMap node 273120316 and Landesdenkmalamt Berlin ensemble 09010206"
      },
      "geometry": { "type": "Point", "coordinates": [13.37154090274083, 52.531708097275754] }
    }
  ]
}
