{"type":"FeatureCollection","features":[{"type":"Feature","properties":{"id":"DEBE03YY60001riE","osmId":"way/185763575","name":"lapidarium","completeSourceOwner":true},"geometry":{"type":"Polygon","coordinates":[[[13.413086721768712,52.534563483243396],[13.413066239304003,52.53456192287426],[13.413059455258038,52.53459345337173],[13.41308008510842,52.53459501571826],[13.413086721768712,52.534563483243396]]]}},{"type":"Feature","properties":{"id":"DEBE03YY6000008c","osmId":"way/121840587","name":"platzhaus","completeSourceOwner":true},"geometry":{"type":"Polygon","coordinates":[[[13.408991803145925,52.53226895233667],[13.409048838343471,52.53232054545786],[13.409196605959975,52.53226402716241],[13.409145964559443,52.53221134223569],[13.408991803145925,52.53226895233667]]]}},{"type":"Feature","properties":{"id":"DEBE03YY60001rix","osmId":"way/185763575","name":"lapidarium","completeSourceOwner":true},"geometry":{"type":"Polygon","coordinates":[[[13.412903758452236,52.53457825656671],[13.41293057576535,52.53458036945029],[13.41293690513071,52.53455000169668],[13.41291010257285,52.53454788901231],[13.412903758452236,52.53457825656671]]]}},{"type":"Feature","properties":{"id":"DEBE03YY600005dx","osmId":"way/185763575","name":"lapidarium","completeSourceOwner":true},"geometry":{"type":"Polygon","coordinates":[[[13.41293690513071,52.53455000169668],[13.41293057576535,52.53458036945029],[13.412903758452236,52.53457825656671],[13.412892448989181,52.534632239915936],[13.412919251597398,52.534634352604655],[13.41291442683817,52.53465815909768],[13.413011499506919,52.53466561970434],[13.413015419438556,52.53464891298207],[13.413065802440528,52.53465295123384],[13.413147990617349,52.534659393954726],[13.413160071358961,52.53460118614772],[13.41308008510842,52.53459501571826],[13.413059455258038,52.53459345337173],[13.413066239304003,52.53456192287426],[13.413086721768712,52.534563483243396],[13.413121865953041,52.534394779192],[13.413018013038807,52.53438686811076],[13.413013034510817,52.534410852366975],[13.412939969692225,52.534405332098494],[13.41291010257285,52.53454788901231],[13.41293690513071,52.53455000169668]]]}},{"type":"Feature","properties":{"id":"DEBE03YY60001rJZ","osmId":"way/185763575","name":"lapidarium","completeSourceOwner":true},"geometry":{"type":"Polygon","coordinates":[[[13.413062331123472,52.534669484152545],[13.413065802440528,52.53465295123384],[13.413015419438556,52.53464891298207],[13.413011499506919,52.53466561970434],[13.413062331123472,52.534669484152545]]]}},{"type":"Feature","properties":{"id":"DEBE03YY60001rDa","osmId":"way/185763575","name":"lapidarium","completeSourceOwner":true},"geometry":{"type":"Polygon","coordinates":[[[13.412919251597398,52.534634352604655],[13.412892448989181,52.534632239915936],[13.412887458866116,52.53465613410064],[13.41291442683817,52.53465815909768],[13.412919251597398,52.534634352604655]]]}},{"type":"Feature","properties":{"id":"DEBE03YY60001rPn","osmId":"way/185763575","name":"lapidarium","completeSourceOwner":true},"geometry":{"type":"Polygon","coordinates":[[[13.413018013038807,52.53438686811076],[13.41294494858337,52.53438133885894],[13.412939969692225,52.534405332098494],[13.413013034510817,52.534410852366975],[13.413018013038807,52.53438686811076]]]}},{"type":"Feature","properties":{"id":"DEBE03YY6000076A","osmId":"way/32294784","name":"kulturbrauerei","completeSourceOwner":true},"geometry":{"type":"Polygon","coordinates":[[[13.414039073941229,52.538392240476966],[13.414039042520967,52.53839229400209],[13.414019002054026,52.5384332403183],[13.414015148369153,52.538441154726655],[13.41401557094842,52.538467477126495],[13.414015592814417,52.53846891598389],[13.414016274707725,52.538511362770464],[13.414007601698856,52.538511435357805],[13.414006042016997,52.538514615262635],[13.413911992419788,52.53851509016013],[13.413889501386743,52.53851520233108],[13.413888443446002,52.538600593921444],[13.413886612192414,52.538732800416184],[13.413889617162056,52.53876561298151],[13.41390236680199,52.538765352278176],[13.4138881439429,52.539134962599846],[13.413902006375302,52.53913574178624],[13.413901565574767,52.53918437733201],[13.41395023898384,52.539186081570186],[13.413950514737946,52.539259838654495],[13.414223679003287,52.53925989364084],[13.414264509227573,52.539283241951345],[13.414259606111113,52.53928549594177],[13.414600142340063,52.5393343029589],[13.414629289117093,52.53925997797253],[13.414648677057002,52.53921053529048],[13.414661277007777,52.53917841729601],[13.414885334433384,52.53860713457067],[13.414792408848744,52.538592367451706],[13.414795838399373,52.53858476202397],[13.414819299110988,52.5385327664646],[13.414039073941229,52.538392240476966]]]}},{"type":"Feature","properties":{"id":"DEBE03YY600000nb","osmId":"way/32294784","name":"kulturbrauerei","completeSourceOwner":true},"geometry":{"type":"Polygon","coordinates":[[[13.413326346339378,52.539184803995276],[13.413325494271271,52.5392795849699],[13.413287375459099,52.53927919980259],[13.413286655922738,52.539325323115285],[13.413325090781589,52.53932471451567],[13.413325039685425,52.53932981174289],[13.413340273562977,52.53933835964604],[13.413430938397955,52.53933897268835],[13.413431203413044,52.539323035150574],[13.413434375291072,52.53913324112926],[13.413326812129698,52.53913222172225],[13.413265402166482,52.53913164117784],[13.413265277884733,52.53918415610139],[13.413326346339378,52.539184803995276]]]}},{"type":"Feature","properties":{"id":"DEBE03YY600009O1","osmId":"way/32294784","name":"kulturbrauerei","completeSourceOwner":true},"geometry":{"type":"Polygon","coordinates":[[[13.413430938397955,52.53933897268835],[13.413430603681755,52.53935929691276],[13.413579354544149,52.53935985233291],[13.413579356970383,52.53936019402444],[13.41357845971357,52.539425978329305],[13.413577762455024,52.53947721783368],[13.41371265068612,52.5394790528026],[13.413721628864131,52.53947911020039],[13.413722660091837,52.539427191854315],[13.413723992336932,52.539360379411654],[13.41371124495111,52.53936098178594],[13.413714370187279,52.53913400025337],[13.413434375291072,52.53913324112926],[13.413430938397955,52.53933897268835]]]}},{"type":"Feature","properties":{"id":"DEBE03YY60000Btt","osmId":"way/32294784","name":"kulturbrauerei","completeSourceOwner":true},"geometry":{"type":"Polygon","coordinates":[[[13.413208630096916,52.5398672541092],[13.413199609802323,52.540057266400495],[13.413259079429961,52.54005607669904],[13.413265710340932,52.5400562105536],[13.413312717249658,52.54005712846901],[13.413318252182293,52.53986806744967],[13.413297675076326,52.539867018355274],[13.413208630096916,52.5398672541092]]]}},{"type":"Feature","properties":{"id":"DEBE03YY60000CPf","osmId":"way/32294784","name":"kulturbrauerei","completeSourceOwner":true},"geometry":{"type":"Polygon","coordinates":[[[13.41424505731311,52.539616764161124],[13.414208321483397,52.53970810628136],[13.414093454645684,52.5396924422388],[13.414021377167549,52.53968260224775],[13.413988672142944,52.53976765065219],[13.414074036605225,52.53977992545595],[13.414143322777022,52.539789889850475],[13.414406604951763,52.53982774511611],[13.414600142340063,52.5393343029589],[13.414259606111113,52.53928549594177],[13.41424789534919,52.53929088649763],[13.41412770647413,52.539598837093926],[13.41424505731311,52.539616764161124]]]}},{"type":"Feature","properties":{"id":"DEBE03YY60000CCq","osmId":"way/32294784","name":"kulturbrauerei","completeSourceOwner":true},"geometry":{"type":"Polygon","coordinates":[[[13.412574917167024,52.538628477728246],[13.412572706188575,52.53871592179052],[13.413027137602187,52.53872286128213],[13.41304064942191,52.5387227277751],[13.413042874415288,52.5386332339428],[13.412574917167024,52.538628477728246]]]}},{"type":"Feature","properties":{"id":"DEBE03YY60000Bln","osmId":"way/32294784","name":"kulturbrauerei","completeSourceOwner":true},"geometry":{"type":"Polygon","coordinates":[[[13.414028744682337,52.54006935102796],[13.414019248904632,52.54009469535483],[13.414018155791343,52.5400976117808],[13.414284738487428,52.540138451599645],[13.414285956945301,52.54013533005714],[13.41434550244553,52.53998350519804],[13.414346622745029,52.53998065207053],[13.414082166263471,52.53994057814032],[13.414081112353758,52.53994322536146],[13.414070896533136,52.539968910694114],[13.414070632204062,52.53996888017904],[13.414035366465546,52.53996500900537],[13.413996225174591,52.540064563594854],[13.414028744682337,52.54006935102796]]]}},{"type":"Feature","properties":{"id":"DEBE03YY60000Cyi","osmId":"way/32294784","name":"kulturbrauerei","completeSourceOwner":true},"geometry":{"type":"Polygon","coordinates":[[[13.414064880075177,52.5398048607459],[13.414132320845138,52.53981447674117],[13.414082166263471,52.53994057814032],[13.414267426627164,52.53996864892361],[13.414346622745029,52.53998065207053],[13.414406604951763,52.53982774511611],[13.41432814992772,52.539816462227684],[13.414143322777022,52.539789889850475],[13.414074036605225,52.53977992545595],[13.414064880075177,52.5398048607459]]]}},{"type":"Feature","properties":{"id":"DEBE03YY60000Cp0","osmId":"way/32294784","name":"kulturbrauerei","completeSourceOwner":true},"geometry":{"type":"Polygon","coordinates":[[[13.413305268996893,52.539704688283],[13.413254977478822,52.53970408596708],[13.413216398155091,52.539703784515176],[13.41321072543831,52.53982305534382],[13.413208630096916,52.5398672541092],[13.413297675076326,52.539867018355274],[13.413305268996893,52.539704688283]]]}},{"type":"Feature","properties":{"id":"DEBE03YY60000BrY","osmId":"way/32294784","name":"kulturbrauerei","completeSourceOwner":true},"geometry":{"type":"Polygon","coordinates":[[[13.413374565169145,52.538431543774514],[13.413363617923338,52.53843171170033],[13.413363631197859,52.5384321614297],[13.413363155236206,52.53873038744392],[13.413623208611265,52.53873163470381],[13.413623249353005,52.538600851764265],[13.413623295558487,52.538433924963606],[13.41345718354421,52.53843279519067],[13.413457099030941,52.538430231614775],[13.413442138724202,52.53843046263454],[13.413440881464071,52.538413803387435],[13.413374048911217,52.538414372980874],[13.413374565169145,52.538431543774514]]]}},{"type":"Feature","properties":{"id":"DEBE03YY600000VR","osmId":"way/32294784","name":"kulturbrauerei","completeSourceOwner":true},"geometry":{"type":"Polygon","coordinates":[[[13.413578410771914,52.5394289716851],[13.413579354544149,52.53935985233291],[13.413430603681755,52.53935929691276],[13.413430499297789,52.539365463357754],[13.413439492190532,52.53936552097434],[13.413438457423663,52.53942775198039],[13.413438263082249,52.53943927587125],[13.413427012709555,52.539439664516415],[13.413426781931696,52.5394755086457],[13.413439148884875,52.53947605205342],[13.413438007113658,52.53952080306852],[13.413430165925647,52.539520293357754],[13.41342991242696,52.53953468459287],[13.413437776457416,52.539534969834186],[13.413436533107927,52.539632020287485],[13.41334283925025,52.53963115086056],[13.413306900829989,52.53963081291403],[13.413305268996893,52.539704688283],[13.413341970656571,52.53970512637209],[13.413435714877833,52.539706239231656],[13.413480980456919,52.53970677409803],[13.413477542600507,52.539867550496524],[13.413432946744143,52.53986724938334],[13.413430726921366,52.54002164049531],[13.41347424148219,52.540022079961105],[13.413704977483771,52.54002441751402],[13.413709415705318,52.53970948540604],[13.41371265068612,52.5394790528026],[13.413577762455024,52.53947721783368],[13.413578250797077,52.53944117935466],[13.413578410771914,52.5394289716851]]]}},{"type":"Feature","properties":{"id":"DEBE03YY600004Vp","osmId":"way/32294784","name":"kulturbrauerei","completeSourceOwner":true},"geometry":{"type":"Polygon","coordinates":[[[13.414819299110988,52.5385327664646],[13.414792408848744,52.538592367451706],[13.414885334433384,52.53860713457067],[13.414908228053546,52.53854877474363],[13.414819299110988,52.5385327664646]]]}},{"type":"Feature","properties":{"id":"DEBE03YY600002Jl","osmId":"way/32294784","name":"kulturbrauerei","completeSourceOwner":true},"geometry":{"type":"Polygon","coordinates":[[[13.412572604163508,52.53816696415684],[13.412589554690436,52.538182683054785],[13.412590196517849,52.538183285071376],[13.41257736329369,52.53818913693161],[13.412575608161246,52.53824964099943],[13.412570949870416,52.53824960549142],[13.412569161092526,52.53833883544547],[13.412568238243626,52.53838444354902],[13.412568140753727,52.53838918950474],[13.412566925404613,52.5384498536582],[13.412565181544348,52.538536611679014],[13.41266860154008,52.5385379898058],[13.412672324058933,52.53845033224645],[13.412776867565153,52.538450808263306],[13.412777123634333,52.53839097640097],[13.412905266896471,52.53839207449731],[13.412908317672173,52.53838843807761],[13.413000482386085,52.53838952112555],[13.413000065996371,52.538425596539625],[13.413117801782471,52.53842661778551],[13.41311785139026,52.538390897094786],[13.413117960289902,52.5383294089112],[13.413117987895415,52.53830901762862],[13.413134493916091,52.53830844773405],[13.413134372213534,52.53830364489302],[13.413133585206223,52.538271905000926],[13.413119726116292,52.53827226762829],[13.413118929187966,52.53822649260711],[13.413113127481548,52.53822545277608],[13.41300739612177,52.53820641263278],[13.413005322617177,52.53821075446871],[13.412763962045567,52.53816802017207],[13.412766106368283,52.53816294202559],[13.412662177429368,52.53814422244864],[13.412644296772237,52.538153512279656],[13.41262786648495,52.53813804396584],[13.412572604163508,52.53816696415684]]]}},{"type":"Feature","properties":{"id":"DEBE03YY60000DO4","osmId":"way/32294784","name":"kulturbrauerei","completeSourceOwner":true},"geometry":{"type":"Polygon","coordinates":[[[13.413886612192414,52.538732800416184],[13.413888443446002,52.538600593921444],[13.413685330403835,52.53860079376795],[13.413623249353005,52.538600851764265],[13.413623208611265,52.53873163470381],[13.413886612192414,52.538732800416184]]]}},{"type":"Feature","properties":{"id":"DEBE03YY600008DB","osmId":"way/32294784","name":"kulturbrauerei","completeSourceOwner":true},"geometry":{"type":"Polygon","coordinates":[[[13.412572706188575,52.53871592179052],[13.412561569241621,52.538715214968335],[13.412554966078384,52.53904374848773],[13.412553241626066,52.53912914911564],[13.412798880308483,52.53913027675842],[13.412977982107444,52.539131105101774],[13.413040995181094,52.539131392605256],[13.413159782063843,52.53913194237728],[13.413160831499953,52.53906767959313],[13.413159782387941,52.53913193339059],[13.413175321784864,52.539132006873395],[13.413265402166482,52.53913164117784],[13.413434375291072,52.53913324112926],[13.413714370187279,52.53913400025337],[13.413715236756145,52.539071515241126],[13.413716548920101,52.538976218952406],[13.413162420714988,52.53897086753488],[13.413162334938571,52.53897610815387],[13.413042045463808,52.53897552924306],[13.41304229698078,52.53893830076982],[13.413019440032135,52.53893792235457],[13.413027137602187,52.53872286128213],[13.412572706188575,52.53871592179052]]]}},{"type":"Feature","properties":{"id":"DEBE03YY600008Ch","osmId":"way/32294784","name":"kulturbrauerei","completeSourceOwner":true},"geometry":{"type":"Polygon","coordinates":[[[13.413267775682343,52.54013633030153],[13.413257499044489,52.54013629142589],[13.41325616497205,52.54021826270404],[13.413321339916589,52.54021916345008],[13.413597470507595,52.54022299988327],[13.413501460885373,52.54013745803471],[13.413360365032881,52.54013678037876],[13.413305622325632,52.540136514019615],[13.413267775682343,52.54013633030153]]]}},{"type":"Feature","properties":{"id":"DEBE03YY600007ek","osmId":"way/32294784","name":"kulturbrauerei","completeSourceOwner":true},"geometry":{"type":"Polygon","coordinates":[[[13.413921533888452,52.54031579687699],[13.413840774945937,52.540305408870594],[13.413703360893502,52.540187052486374],[13.41368640386058,52.54019356847768],[13.413659431336528,52.54017030681452],[13.413633949550325,52.54016991132177],[13.413635494439134,52.54014546744893],[13.4136021566273,52.540144562053385],[13.413601142290135,52.54013793106255],[13.413501460885373,52.54013745803471],[13.413597470507595,52.54022299988327],[13.413621021006314,52.5402438330707],[13.4136814120602,52.540297258001964],[13.413791520159013,52.540394650010654],[13.413988126147597,52.54042219894986],[13.414163780510917,52.54044681447658],[13.414199813006169,52.54035495945561],[13.413921533888452,52.54031579687699]]]}},{"type":"Feature","properties":{"id":"DEBE03YY6000035j","osmId":"way/32294784","name":"kulturbrauerei","completeSourceOwner":true},"geometry":{"type":"Polygon","coordinates":[[[13.413961652693795,52.54024845227363],[13.413949303819757,52.54024699207956],[13.413936755021686,52.54027807671501],[13.413921533888452,52.54031579687699],[13.413935677542753,52.54031778462328],[13.414199813006169,52.54035495945561],[13.414284738487428,52.540138451599645],[13.414018155791343,52.5400976117808],[13.413961652693795,52.54024845227363]]]}},{"type":"Feature","properties":{"id":"DEBE03YY60001rSi","osmId":"way/32294784","name":"kulturbrauerei","completeSourceOwner":true},"geometry":{"type":"Polygon","coordinates":[[[13.414207578622033,52.53928193070327],[13.414086589876456,52.53959283758074],[13.41412770647413,52.539598837093926],[13.41424789534919,52.53929088649763],[13.414259606111113,52.53928549594177],[13.414264509227573,52.539283241951345],[13.414223679003287,52.53925989364084],[13.414207578622033,52.53928193070327]]]}},{"type":"Feature","properties":{"id":"DEBE03YY6000071O","osmId":"way/32294784","name":"kulturbrauerei","completeSourceOwner":true},"geometry":{"type":"Polygon","coordinates":[[[13.413621021006314,52.5402438330707],[13.413597470507595,52.54022299988327],[13.413575097004115,52.540222690996416],[13.41337596140619,52.540219931673775],[13.413321339592512,52.54021917243678],[13.413321048823212,52.540273033772905],[13.413320985136583,52.54028543154333],[13.41332120447278,52.540293661272166],[13.413342583052772,52.54029334547904],[13.41337379493741,52.54030863506108],[13.413372537800544,52.54036026265799],[13.41347032871654,52.54036205910343],[13.413573622813288,52.540364594569425],[13.413575782621905,52.54028669830453],[13.413574678079202,52.540262938201366],[13.413621021006314,52.5402438330707]]]}},{"type":"Feature","properties":{"id":"DEBE03YY70000HEA","osmId":"way/156581840","name":"weissensee-hall","completeSourceOwner":true},"geometry":{"type":"Polygon","coordinates":[[[13.458573357054572,52.54503257663702],[13.45856226053065,52.54505295850558],[13.458554394982471,52.54506741244814],[13.458550878190856,52.545073921063754],[13.458665804759523,52.54509755350136],[13.458686468559616,52.545055816787624],[13.458606771377669,52.54503942235321],[13.458573357054572,52.54503257663702]]]}},{"type":"Feature","properties":{"id":"DEBE03YY70000RBp","osmId":"way/156581840","name":"weissensee-hall","completeSourceOwner":true},"geometry":{"type":"Polygon","coordinates":[[[13.458311382680742,52.54510191952878],[13.458408675628064,52.545122472393494],[13.458448354193866,52.545052823663994],[13.458475194642386,52.545004433196326],[13.458454286300142,52.54500011494827],[13.458435589041489,52.54499624806994],[13.45837895533551,52.54498454145792],[13.458343280819157,52.5450485060804],[13.458314132734303,52.54509709123518],[13.458311382680742,52.54510191952878]]]}},{"type":"Feature","properties":{"id":"DEBE03YY70000Ibh","osmId":"way/156581840","name":"weissensee-hall","completeSourceOwner":true},"geometry":{"type":"Polygon","coordinates":[[[13.458584797316147,52.545219566937554],[13.458616922008781,52.54516136418207],[13.458552042084943,52.545148030791935],[13.458519886575315,52.545206269092844],[13.458584797316147,52.545219566937554]]]}},{"type":"Feature","properties":{"id":"DEBE03YY70000EmJ","osmId":"way/156581840","name":"weissensee-hall","completeSourceOwner":true},"geometry":{"type":"Polygon","coordinates":[[[13.457720748570386,52.54486981921568],[13.457653368163657,52.54498924037649],[13.457696072532979,52.544998212394816],[13.457662435094425,52.54505788769625],[13.457810711287127,52.54508893252905],[13.457841833740376,52.545033683938875],[13.4578515212363,52.54501648456251],[13.457857340193595,52.545006148836734],[13.457911770836615,52.544909890409514],[13.457900205228537,52.54490746500797],[13.457763394820137,52.54487876348019],[13.457720748570386,52.54486981921568]]]}},{"type":"Feature","properties":{"id":"DEBE03YY70000Mcu","osmId":"way/156581840","name":"weissensee-hall","completeSourceOwner":true},"geometry":{"type":"Polygon","coordinates":[[[13.458588669859543,52.54508168692545],[13.45855087850575,52.54507391207688],[13.458448354193866,52.545052823663994],[13.458408675628064,52.545122472393494],[13.45836254874972,52.545203581524426],[13.45850476908159,52.54523365649834],[13.458519886575315,52.545206269092844],[13.458552042084943,52.545148030791935],[13.458616922008781,52.54516136418207],[13.458629133808733,52.545163869855834],[13.458665804759523,52.54509755350136],[13.458588669859543,52.54508168692545]]]}},{"type":"Feature","properties":{"id":"DEBE03YY700007Cl","osmId":"way/156581840","name":"weissensee-hall","completeSourceOwner":true},"geometry":{"type":"Polygon","coordinates":[[[13.457911770836615,52.544909890409514],[13.457857340193595,52.545006148836734],[13.45794893943767,52.5450254590714],[13.457951862386755,52.54502032734558],[13.457979010018168,52.54497244448378],[13.458016605165092,52.54490587063567],[13.457913350514982,52.54488417883643],[13.457900205228537,52.54490746500797],[13.457911770836615,52.544909890409514]]]}},{"type":"Feature","properties":{"id":"DEBE03YY70000DEW","osmId":"way/156581840","name":"weissensee-hall","completeSourceOwner":true},"geometry":{"type":"Polygon","coordinates":[[[13.45839933994689,52.544670914254276],[13.458396903519718,52.54466511031835],[13.458392638856294,52.544659714136564],[13.458386715918648,52.54465492572381],[13.458379363631762,52.54465094586287],[13.458370871458145,52.54464793117013],[13.458361560231154,52.544645984724944],[13.458351824802861,52.544645201579755],[13.458342003896279,52.54464559513737],[13.45833252530914,52.544647161978965],[13.458323715858127,52.54464983443378],[13.458315948157269,52.5446535004728],[13.458309521431785,52.544658038120204],[13.458298891167404,52.544676897573886],[13.458264585851882,52.54466981538847],[13.458252249543552,52.544691907346284],[13.458252190895193,52.54469189759138],[13.45822072828816,52.54468533793454],[13.458188269434173,52.54474339237932],[13.458219631096314,52.544749887792825],[13.458209721369585,52.544767542843545],[13.458243554729505,52.54477462788766],[13.458289173865262,52.54478416812756],[13.458243554414551,52.54477463687453],[13.458221136166156,52.544814246773775],[13.458203733291729,52.54484498497739],[13.458115395580366,52.545001077288255],[13.457979010018168,52.54497244448378],[13.457966261298393,52.54499493563258],[13.457951862386755,52.54502032734558],[13.458084564480437,52.54504844466445],[13.458080739575728,52.545053222986546],[13.458089199365544,52.545055059460786],[13.458131287605472,52.54506394237592],[13.458171179838137,52.54507236510306],[13.458178473272921,52.545073817747536],[13.458179995808097,52.54506866777376],[13.458314132734303,52.54509709123518],[13.458329388643786,52.54507164770521],[13.458343280819157,52.5450485060804],[13.45820821622438,52.54502046616967],[13.458296073367443,52.54486292897684],[13.458312611328344,52.54483330336534],[13.458334674149418,52.54479373377458],[13.458335903878593,52.544793992548236],[13.458367469766863,52.54480055351906],[13.458377499945277,52.5447824055211],[13.45840105895169,52.544787252810785],[13.458433029477098,52.54472965947955],[13.458409354775464,52.54472474775238],[13.458421778575305,52.54470226131558],[13.458389420523133,52.54469558214943],[13.45839986756524,52.54467690012084],[13.45839933994689,52.544670914254276]]]}}]}
