{"type":"FeatureCollection","features":[{"type":"Feature","properties":{"id":"DEBE06YYB0004uZ5","osmOwner":"way/26763411","name":"Rost- und Silberlaube","replacement":"Complete LoD2 source owner in SouthWestLandmarksV187; no unrelated source omission"},"geometry":{"type":"Polygon","coordinates":[[[13.287879514681594,52.45286775927022],[13.287873001119943,52.452873671146406],[13.287977690970145,52.45291675363937],[13.287983319687179,52.4529116471546],[13.288006136040368,52.45289103676055],[13.28790143116476,52.45284796306617],[13.287879514681594,52.45286775927022]]]}},{"type":"Feature","properties":{"id":"DEBE06YYB0004uTl","osmOwner":"way/26763411","name":"Rost- und Silberlaube","replacement":"Complete LoD2 source owner in SouthWestLandmarksV187; no unrelated source omission"},"geometry":{"type":"Polygon","coordinates":[[[13.288048714014808,52.45293843488746],[13.288042949435813,52.45294362932131],[13.288146609225864,52.452986337097926],[13.288175053895841,52.45296062916455],[13.288071383262634,52.45291782235132],[13.288048714014808,52.45293843488746]]]}},{"type":"Feature","properties":{"id":"DEBE06YYB0004uoS","osmOwner":"way/26763411","name":"Rost- und Silberlaube","replacement":"Complete LoD2 source owner in SouthWestLandmarksV187; no unrelated source omission"},"geometry":{"type":"Polygon","coordinates":[[[13.289049621885574,52.45283462267589],[13.289035104141755,52.452847701750855],[13.289134680865601,52.452888695181485],[13.289149036795846,52.45287561375334],[13.289049621885574,52.45283462267589]]]}},{"type":"Feature","properties":{"id":"DEBE06YYB0004v6R","osmOwner":"way/26763411","name":"Rost- und Silberlaube","replacement":"Complete LoD2 source owner in SouthWestLandmarksV187; no unrelated source omission"},"geometry":{"type":"Polygon","coordinates":[[[13.287420738989725,52.45253960513699],[13.287374110093287,52.45252077639],[13.287308606941856,52.45258025818141],[13.287278708194064,52.452607401438506],[13.287644018723197,52.452757919387274],[13.287794422686172,52.4528198893672],[13.287871744977297,52.45274974392864],[13.287721444799434,52.45268775756588],[13.287674190130481,52.45273057318758],[13.287354817051392,52.45259926071436],[13.287420738989725,52.45253960513699]]]}},{"type":"Feature","properties":{"id":"DEBE06YYB00009Fd","osmOwner":"relation/6018664","name":"Silberlaube","replacement":"Complete LoD2 source owner in SouthWestLandmarksV187; no unrelated source omission"},"geometry":{"type":"MultiPolygon","coordinates":[[[[13.287420738989725,52.45253960513699],[13.287402420646579,52.452556180533044],[13.287354817051392,52.45259926071436],[13.287674190130481,52.45273057318758],[13.287721444799434,52.45268775756588],[13.287734611896596,52.45269319015134],[13.287764582244648,52.45270554657569],[13.287871744977297,52.45274974392864],[13.287794422686172,52.4528198893672],[13.287784784334674,52.45282857925968],[13.287794317417452,52.452832466664155],[13.287781279057617,52.452844200331256],[13.287829824384504,52.45286447728654],[13.287842855349298,52.4528525546899],[13.287879514681594,52.45286775927022],[13.28790143116476,52.45284796306617],[13.288006136040368,52.45289103676055],[13.288006105576844,52.45289106329339],[13.287983319687179,52.4529116471546],[13.288048714014808,52.45293843488746],[13.288071291872127,52.45291790194989],[13.288071383262634,52.45291782235132],[13.288175053895841,52.45296062916455],[13.288146609225864,52.452986337097926],[13.288120400630095,52.45301017124123],[13.28874170187754,52.4532664065821],[13.28902034911678,52.45338131929285],[13.289140088582162,52.453430696605224],[13.289315920429564,52.45327150505228],[13.289196410962536,52.453222275103606],[13.289358745492175,52.45307562887472],[13.289478107660653,52.45312485653097],[13.289654072919472,52.45296557649878],[13.289534927084093,52.45291646903363],[13.289251542282395,52.4527996637467],[13.289239098913523,52.45279453851464],[13.289149036795846,52.45287561375334],[13.289134680865601,52.452888695181485],[13.289035104141755,52.452847701750855],[13.289049621885574,52.45283462267589],[13.28840898477316,52.45257046643881],[13.288519625963401,52.452470313367655],[13.288554293566127,52.452438958965395],[13.288936858858355,52.45259660097333],[13.289514079695117,52.45207361139301],[13.290287137177863,52.452391780873285],[13.289882620749125,52.45275844973443],[13.289839942657608,52.45279715144423],[13.28971021534618,52.45291477849782],[13.28988067394513,52.4529849392008],[13.29002460862605,52.453044187302936],[13.289960923092858,52.45310089154356],[13.289938188580988,52.45309130174436],[13.289922345717597,52.45310553962294],[13.2899450546451,52.45311503015096],[13.289945069005933,52.453115039349925],[13.289914414023032,52.45314236114503],[13.289893242618108,52.453161179449936],[13.289870867399433,52.4531810592967],[13.28985813758954,52.45319243800015],[13.289825137743161,52.453178860440396],[13.289832550609939,52.45317214325659],[13.28979588651028,52.45315703812342],[13.289788477122613,52.453163665442354],[13.289770294476481,52.45315624540481],[13.289751971710585,52.45314864351205],[13.289759369874197,52.45314192612013],[13.28970071602402,52.45311776338532],[13.289693348318382,52.45312445424029],[13.2896933178557,52.453124480773575],[13.28968247004779,52.453119954109155],[13.289617882522055,52.45317827254545],[13.289628730337402,52.45318279921581],[13.289621335629485,52.45318942673673],[13.28966547080917,52.453207706013714],[13.289672865513648,52.453201078490025],[13.28970557463016,52.4532145619746],[13.289683941716817,52.453234272696804],[13.289683883925328,52.453234244887064],[13.28967294679275,52.45322974390395],[13.289588668756387,52.453306254632935],[13.289599516948076,52.45331077231987],[13.289587510826744,52.45332170290623],[13.289625492968897,52.453337357653574],[13.289601800056333,52.453358953710364],[13.289618801419303,52.45336609593975],[13.289588610829242,52.453393577220446],[13.28962232071078,52.45340744384521],[13.289588610480994,52.453393586206694],[13.289588580366308,52.45339360375369],[13.289546773497026,52.453376383134774],[13.289514976704776,52.453363281446634],[13.289522371458238,52.45335665393292],[13.289463728684183,52.453332581155394],[13.289456466307797,52.45333921058036],[13.289445614641366,52.453334782742935],[13.289338813333462,52.4534311709178],[13.289346853549493,52.45345725408106],[13.28949802684064,52.453519241979045],[13.289449016904898,52.45356331866461],[13.289536848976779,52.45359943041186],[13.289536964908779,52.45359947704524],[13.289628794522468,52.45363725598719],[13.289616061034025,52.453648724524605],[13.289700722245518,52.453683495538634],[13.28970330078374,52.45368455783984],[13.289715905359836,52.45367299751576],[13.289807104178548,52.45371073122854],[13.289856576094596,52.45366612160033],[13.28994156009045,52.45370092408242],[13.289942654667193,52.453700022799644],[13.290005484143483,52.45364340509393],[13.290178462722785,52.45348752476786],[13.290248002058409,52.453424844919965],[13.290302916505757,52.453375350606535],[13.290300033953166,52.45337415804477],[13.290215489911942,52.453339784768545],[13.290212548875859,52.453338582367714],[13.290224400795399,52.45332782931502],[13.290137738795314,52.453291905830554],[13.29018085064157,52.453253030460885],[13.290290595137039,52.4531543103887],[13.29046038515317,52.45322392109816],[13.290622865007604,52.45329077345731],[13.290825685526928,52.453374348037144],[13.291014277335892,52.453452924271105],[13.291016381310314,52.45345103953331],[13.291066269140783,52.45340629155619],[13.29129196979742,52.45320226791153],[13.291384204424237,52.45324062678304],[13.291489656251878,52.453145134400415],[13.29139727150817,52.45310685436254],[13.291647153615342,52.45288028761942],[13.2916784080274,52.4528518950862],[13.291801631642691,52.452740178135564],[13.291696639597202,52.452696833934574],[13.291617255433204,52.45276831872714],[13.291566234011073,52.452747333216266],[13.291485865685226,52.45271420802334],[13.291406922418382,52.45278569904684],[13.291277591277435,52.45273240009742],[13.291341281854816,52.452673986884975],[13.291297441465863,52.45265607214444],[13.291429415605805,52.45253692034432],[13.291529122806233,52.45257800354901],[13.291536674649448,52.45257110844195],[13.291544087153998,52.45256439114709],[13.291634572707254,52.452482511010636],[13.291629012524123,52.45248015588579],[13.291534715054,52.45244151563278],[13.291651424880783,52.45233571090757],[13.291717413609057,52.4523627659398],[13.291817539344486,52.4522721055701],[13.291033933102103,52.451949064273435],[13.290939209706497,52.45183214817846],[13.290440064346145,52.45162645916567],[13.290310718180189,52.45157328478274],[13.290141376645517,52.45150366230397],[13.288316281404283,52.4507519387811],[13.288069802586417,52.45097562568687],[13.288025825112278,52.45095752789986],[13.28791250711629,52.45106036612273],[13.287956351921146,52.451078471021745],[13.287690163757826,52.451319989249235],[13.287858647839563,52.45138921622766],[13.2876779360967,52.45155324423005],[13.287633943508034,52.45153514608245],[13.287520634315749,52.451638073975055],[13.287564468302845,52.45165608894573],[13.287280074359881,52.45191417431889],[13.287636966319512,52.452061144721334],[13.287584531066518,52.452108533788085],[13.287520834871717,52.45216622562102],[13.287476705879003,52.452148215357404],[13.287310352810302,52.45229898178905],[13.287442469168436,52.452353548271724],[13.287476639189073,52.45236765595696],[13.287522237660546,52.45238648772477],[13.287374110093287,52.45252077639],[13.287420738989725,52.45253960513699]],[[13.290053755692833,52.45275112402723],[13.290085007893659,52.452722812798896],[13.290098188434168,52.452710811198465],[13.290308180036535,52.45279723273298],[13.29022063951782,52.452876331185024],[13.290086143352157,52.45299816954727],[13.29008287935364,52.45300112544096],[13.290076099999801,52.4529983300231],[13.289931706199873,52.452938778630624],[13.290010648631657,52.45286737847914],[13.289952138609946,52.4528433078595],[13.289994654851647,52.45280460376932],[13.290053755692833,52.45275112402723]],[[13.29041258257008,52.452840569650384],[13.290483553176303,52.45286971144316],[13.290703064960537,52.45296001926367],[13.290659515396735,52.45300033609171],[13.290478365612305,52.45316437097118],[13.290320143269312,52.45309894663984],[13.290398805114624,52.45302718252453],[13.290443094218492,52.452986777578545],[13.290310811968002,52.452932931392866],[13.290325486898167,52.45291958469734],[13.29041258257008,52.452840569650384]],[[13.29061349396135,52.452764755368364],[13.290700743647905,52.45268592216427],[13.290791245714107,52.4526040429029],[13.290794799891389,52.45260081245416],[13.290945972795036,52.45266316715127],[13.29088212687712,52.452721398082794],[13.290940648485725,52.45274555832089],[13.29082318918958,52.452851261608416],[13.29061349396135,52.452764755368364]],[[13.290427999371685,52.45268838115229],[13.290196179846212,52.45259291367061],[13.290327696936693,52.45247385537855],[13.29044985275475,52.4525238957033],[13.290435185743664,52.45253742235442],[13.29054487429003,52.452582579890944],[13.290515102143912,52.452609545959234],[13.290427999371685,52.45268838115229]],[[13.29115576557323,52.45279505325556],[13.291187167673709,52.4527666539933],[13.291190416872368,52.45276369785568],[13.291407297211453,52.45285319308715],[13.291226298234252,52.45301722228427],[13.291009413991842,52.45292781658209],[13.29115576557323,52.45279505325556]],[[13.291106468708449,52.453125984602075],[13.291004419401071,52.45321834290525],[13.290884291114729,52.45332719059603],[13.290881027144327,52.45333014651183],[13.290751842161933,52.45327684910982],[13.290801172505196,52.45323205721963],[13.290713181434256,52.45319586319163],[13.290844864604109,52.45307670782938],[13.290889304713662,52.45303657463991],[13.291106468708449,52.453125984602075]],[[13.290385712150508,52.45167555706317],[13.290354156284799,52.45170413371849],[13.290163237272706,52.45187694624251],[13.290082739214382,52.451843818199656],[13.2899318606769,52.45178156552811],[13.290063386449724,52.451662237911975],[13.290165874053196,52.45170440548717],[13.290259488364898,52.451619658449204],[13.290388972548236,52.45167269102208],[13.290385712150508,52.45167555706317]],[[13.290058083349098,52.45197235185456],[13.289896775909215,52.45211810576422],[13.28986537693905,52.452146414821044],[13.289862127698868,52.452149370922186],[13.289630732161777,52.452054079265984],[13.28982641101189,52.45187688982307],[13.289977426537588,52.45193914052378],[13.290058083349098,52.45197235185456]],[[13.287883559222479,52.451804381381066],[13.287860823657871,52.451833166009706],[13.28784396841424,52.451864391496066],[13.287834596668702,52.451897703421],[13.287833307663524,52.45193131220361],[13.287839217710406,52.45196637391739],[13.287855263814755,52.45200191506989],[13.287875627263128,52.45203162943175],[13.287902504517318,52.45205732008796],[13.28791797956605,52.45207192122684],[13.28794774809004,52.452083780164756],[13.287989233189165,52.45212101132855],[13.28797694370445,52.45213203655552],[13.287556230571163,52.45196286956765],[13.287694144311528,52.45183763087225],[13.287500327044915,52.451752958392895],[13.287588758009061,52.45167259805684],[13.287849466365383,52.451779566294135],[13.287968704446973,52.451672884647195],[13.287707255981882,52.451565276561254],[13.287796137899976,52.45148465286327],[13.28789685291431,52.45152844216288],[13.287990466908523,52.45144342715257],[13.288471954264011,52.451646821000104],[13.288464555391826,52.45165317865062],[13.288412309489598,52.451656630359075],[13.288389871346023,52.45164739520383],[13.288297780167492,52.45164875058093],[13.288241717160988,52.4516527224028],[13.288186046550644,52.45166137535241],[13.288132854483553,52.451672905406795],[13.288082285318135,52.45168776422398],[13.288034492752969,52.45170578319795],[13.287990499686119,52.451726770341836],[13.287950157565364,52.451750381839766],[13.287913484931982,52.45177651905971],[13.287883559222479,52.451804381381066]],[[13.288096160914742,52.452143158430864],[13.288125926049945,52.452155107187096],[13.288169223253504,52.45216762946668],[13.288219042464425,52.45217325990669],[13.28827286925665,52.452174218916404],[13.28833306041464,52.45217007305768],[13.288388735953918,52.452160170317256],[13.288436367809298,52.45214592521693],[13.288483565030662,52.45212808628016],[13.288524769550225,52.45210690574135],[13.288559817281026,52.452083199439706],[13.288590628689068,52.452054882221006],[13.288619378683629,52.45202621147375],[13.288640223936788,52.45199454910454],[13.288655614478886,52.45196161194728],[13.2886651400237,52.45192811336978],[13.288668648545343,52.451893799417],[13.288666403568486,52.45185946513711],[13.288658587805838,52.4518245736963],[13.288643840793302,52.45179119138459],[13.288621163209791,52.45175472716727],[13.288597069358467,52.451732017111986],[13.288574495276356,52.45172286993789],[13.288559571828616,52.45169290175322],[13.288566830577548,52.4516863622429],[13.28892802289281,52.451828760460714],[13.288878706976185,52.45187355178966],[13.28903984925948,52.45193979360154],[13.288906689640244,52.45206055304254],[13.288738205174312,52.4519912286802],[13.288619852119531,52.4520986432044],[13.288788189715063,52.452167965607565],[13.288711754717426,52.452237306270256],[13.28860192533309,52.45219205506291],[13.288449072973231,52.452330637453066],[13.28801110564345,52.45214597313513],[13.288023262397152,52.452134954974326],[13.288096160914742,52.452143158430864]],[[13.287979643228466,52.45247145207425],[13.287600597733874,52.4523149998042],[13.28764000468887,52.4522787151373],[13.287661702956058,52.45228767897151],[13.28770925516169,52.45224476875875],[13.287773395558647,52.45218662470166],[13.287826120627818,52.45213897000983],[13.288397984113933,52.452374440854015],[13.288363177104435,52.45240597301915],[13.288252675076455,52.45250594813455],[13.28819342957376,52.452559694633806],[13.287979643228466,52.45247145207425]],[[13.288596647302883,52.4511925422611],[13.288172301374656,52.45101779517762],[13.288246216189878,52.450950792078515],[13.288348553301907,52.45099295907553],[13.288378186302307,52.4509661713566],[13.288531850037375,52.45102933851587],[13.288625458255275,52.45094441283893],[13.288793794983043,52.45101364534696],[13.288596647302883,52.4511925422611]],[[13.288134510765477,52.451437815985564],[13.287966176976433,52.45136849267622],[13.288015504457265,52.45132379180273],[13.287891163342021,52.45127257538173],[13.28803914572909,52.45113846380073],[13.28846347755994,52.45131321115115],[13.28831551056038,52.45144732347834],[13.288183838156524,52.451393115041554],[13.288134510765477,52.451437815985564]],[[13.288976775930557,52.45108893385231],[13.289115782872537,52.45114603482984],[13.28905179285452,52.451204181781186],[13.289124818998186,52.451234496054155],[13.2889918092138,52.45135524876688],[13.28877962864176,52.451267831072805],[13.288976775930557,52.45108893385231]],[[13.289260852859892,52.451641710823175],[13.289064292882168,52.451820608016355],[13.288866488732488,52.45173925184164],[13.288960248418181,52.45165423818271],[13.288857309626282,52.45161197311245],[13.288960993315307,52.451518093781736],[13.289260852859892,52.451641710823175]],[[13.288646326438272,52.451388507240246],[13.28885850731545,52.45147592517451],[13.288710526587936,52.45161002879897],[13.28861551870077,52.451570845418416],[13.288566335140635,52.45161563853456],[13.28844917645678,52.451567403878144],[13.288646326438272,52.451388507240246]],[[13.290456348724726,52.45227030930263],[13.290558533576593,52.452178223163415],[13.290936862124948,52.452334044126935],[13.29081984868103,52.452439663942435],[13.2907468271229,52.452409530633055],[13.290681136588205,52.4523823894536],[13.290602042067798,52.45245396767398],[13.290450417530643,52.452391525076976],[13.290543885701391,52.45230677570465],[13.290456348724726,52.45227030930263]],[[13.29083842057745,52.452551424391864],[13.291034366421112,52.45237422376187],[13.291265910671196,52.4524695957084],[13.291148746724978,52.45257531257414],[13.291075724715336,52.45254517946471],[13.290996781099022,52.45261667021326],[13.29083842057745,52.452551424391864]],[[13.291139239765643,52.45227881323935],[13.29121166951738,52.45221323444998],[13.291302019089635,52.45213144251214],[13.291305132375927,52.4521285743204],[13.291463932913363,52.45219345724035],[13.291399944409582,52.45225160546599],[13.291458598069118,52.452275767359424],[13.291401133233459,52.45232772493071],[13.291369731588118,52.45235612425565],[13.29135655497701,52.45236803613974],[13.291139239765643,52.45227881323935]],[[13.290941415319283,52.45204352037657],[13.290990887671766,52.451998820373284],[13.291127705894223,52.45205519498245],[13.291124291470183,52.452058238643566],[13.291033651030256,52.45213993633096],[13.290961077531735,52.45220542302237],[13.290744205537973,52.45211619679851],[13.290860916015824,52.45201040184306],[13.290941415319283,52.45204352037657]],[[13.290524986875706,52.45179385496716],[13.290598161316526,52.45182381080757],[13.290647483196208,52.451779198683596],[13.290783987936429,52.45183565908051],[13.290603292057328,52.45199951189383],[13.290558716897785,52.4520397329382],[13.29034872453586,52.45195341071348],[13.290524986875706,52.45179385496716]],[[13.290243415990245,52.45204863442662],[13.290453401281527,52.45213514555061],[13.290322014454818,52.45225429577712],[13.290263519773562,52.45223022552733],[13.29019922807569,52.45228817991136],[13.29004789964174,52.45222610072286],[13.290243415990245,52.45204863442662]],[[13.289459903381632,52.451983319388624],[13.289247439409124,52.45189589846657],[13.289370673012169,52.45178401332286],[13.289289580850145,52.451751424609355],[13.289407927857319,52.45164409924941],[13.289700755645713,52.45176427766856],[13.289459903381632,52.451983319388624]],[[13.28956353791665,52.45147370836111],[13.289474666184002,52.45155415369044],[13.289094309426202,52.45139742645715],[13.289183019731007,52.45131697907406],[13.289285810298589,52.45135888206866],[13.289393797493393,52.45126024528859],[13.289591313305026,52.45134141659735],[13.289483620861843,52.45144004882758],[13.28956353791665,52.45147370836111]],[[13.289827033306395,52.45156163300659],[13.289892868044205,52.45158994562809],[13.28978918927992,52.45168374491402],[13.289577005531527,52.45159632862842],[13.289774168093151,52.45141661211067],[13.289920507831978,52.45147670438562],[13.289827033306395,52.45156163300659]],[[13.28864836080966,52.45310253814476],[13.288644797799336,52.45310105696438],[13.288648372054773,52.453102527802585],[13.28864836080966,52.45310253814476]],[[13.28962671000939,52.45340925164228],[13.28965681241561,52.45338214671081],[13.28968148647719,52.45335991746095],[13.289681806859507,52.45335962538216],[13.289764508938765,52.45339367543227],[13.289764508658836,52.45339367568572],[13.289764668021409,52.45339374092958],[13.289709861920118,52.45344346134584],[13.289709644765672,52.45344336829218],[13.289709641945779,52.45344337084588],[13.28962671000939,52.45340925164228]],[[13.289681052219722,52.45359292049807],[13.289739913044963,52.45361745487359],[13.28976331813542,52.45362721625043],[13.289729847194739,52.45365731154594],[13.28964743493792,52.453623373305625],[13.289681052219722,52.45359292049807]],[[13.290153556311894,52.45339798901423],[13.290162738782026,52.453389660982545],[13.29015355596376,52.45339799800049],[13.290149224436231,52.45339621803231],[13.290153556311894,52.45339798901423]]],[[[13.287476638840408,52.45236766494321],[13.287442469168436,52.452353548271724],[13.287428986524608,52.45236573402228],[13.287463009114113,52.45237984856752],[13.287476638840408,52.45236766494321]]]]}},{"type":"Feature","properties":{"id":"DEBE06YYB0000xF5","osmOwner":"way/545598804","name":"Gefl\u00fcgelstall","replacement":"Complete LoD2 source owner in SouthWestLandmarksV187; no unrelated source omission"},"geometry":{"type":"Polygon","coordinates":[[[13.289602640388347,52.458950090296746],[13.289603674334389,52.45894999735567],[13.289608314242058,52.45903421388977],[13.289691005532186,52.45903310808116],[13.289685906723383,52.45894933447849],[13.289686936837972,52.458949340385395],[13.28968600646654,52.4589361277251],[13.289601860983051,52.458936780914996],[13.289602640388347,52.458950090296746]]]}},{"type":"Feature","properties":{"id":"DEBE06YYB00007sn","osmOwner":"way/30432421","name":"FB Veterin\u00e4rmedizin (Kuhstall und ehem. Molkerei)","replacement":"Complete LoD2 source owner in SouthWestLandmarksV187; no unrelated source omission"},"geometry":{"type":"Polygon","coordinates":[[[13.289072990098436,52.459318192340625],[13.288993387472813,52.45932048430147],[13.288947909330185,52.45932188529793],[13.288960045973232,52.45948718583229],[13.288963420046652,52.459487099781505],[13.28896675479307,52.459531681860064],[13.288593434126525,52.45954212246316],[13.28860085001542,52.45963137836754],[13.2889857903932,52.45962080015328],[13.288989745335172,52.45966115630876],[13.288982689424893,52.459662052252966],[13.288976210963506,52.45966399954052],[13.288970741801645,52.459666869550524],[13.2889665981915,52.459670478041915],[13.288964068357016,52.45967460440296],[13.288963280441656,52.45967898074931],[13.288964318803933,52.45968332957175],[13.288967105282412,52.45968738899213],[13.2889714580403,52.45969091361473],[13.28897710732186,52.45969364778045],[13.288983676211297,52.459695442175196],[13.288990801458374,52.45969617465643],[13.288997998638665,52.4596958112414],[13.289004796296659,52.459694363091494],[13.289010341259416,52.45969219549674],[13.289014913736311,52.459689294528886],[13.289018285742184,52.45968584570649],[13.289020289182174,52.4596820084407],[13.289020798352924,52.45967798771244],[13.289019804543766,52.459674008177736],[13.289033642038989,52.45967359697319],[13.289033195198607,52.45967752869048],[13.289034192145007,52.45968142734888],[13.289036626181487,52.459685086051955],[13.28904034280251,52.45968831374726],[13.289045141975047,52.45969095468875],[13.289050808257803,52.45969287089011],[13.289057021488782,52.45969396780628],[13.28906412560001,52.459694106552604],[13.289071050855336,52.45969316375682],[13.289077382205075,52.45969121433571],[13.289082747339554,52.45968836978962],[13.289086800584307,52.459684813934544],[13.289089283835422,52.45968074983598],[13.289089759667602,52.45967644989532],[13.289089117449748,52.45967213377916],[13.289102954169769,52.45967136290396],[13.289102505670753,52.45967571718779],[13.28910385507217,52.459680016561194],[13.289106881123463,52.45968397154881],[13.289111401290164,52.459687354727635],[13.289117159133196,52.459689946596704],[13.289123792795886,52.459691589068896],[13.289130864774826,52.459692176910515],[13.289137979261069,52.459691668430075],[13.289144648694315,52.45969011052169],[13.289150486750637,52.45968759650058],[13.28915513443823,52.45968427402513],[13.289158289519829,52.45968034552253],[13.289159750297864,52.45967607781343],[13.28915944852087,52.45967171267514],[13.289157892616421,52.4596681835653],[13.289155177742375,52.45966493440091],[13.289151416362142,52.4596621016782],[13.289146765769386,52.459659804559294],[13.289141443496007,52.459658127112746],[13.289135666028509,52.45965718036582],[13.289129697819433,52.45965697713563],[13.289127642309564,52.45961698114269],[13.289512596756683,52.45960603277542],[13.289505326136604,52.45951677903993],[13.28913127012791,52.45952721070397],[13.289127931731217,52.459482718491024],[13.289131173055576,52.45948263950625],[13.289118906082159,52.459316887543366],[13.289072990098436,52.459318192340625]]]}},{"type":"Feature","properties":{"id":"DEBE06YYB0000EU0","osmOwner":"way/30432417","name":"Herrenhaus","replacement":"Complete LoD2 source owner in SouthWestLandmarksV187; no unrelated source omission"},"geometry":{"type":"Polygon","coordinates":[[[13.288931812852406,52.45819697751615],[13.288937132986122,52.45830878920105],[13.288753808880307,52.458311045770095],[13.288754067449602,52.458315005677534],[13.288566279902566,52.45832570312368],[13.288572920197646,52.458370054332946],[13.28857957033659,52.4584145315619],[13.28865080522892,52.458410869006954],[13.288652337633417,52.45842183357795],[13.288696340768078,52.45841935038374],[13.288694812608677,52.4584086556134],[13.288761032931907,52.45840525310317],[13.288761592263892,52.45840866889429],[13.288913127202154,52.45840784051906],[13.288912733441574,52.458421411662734],[13.289001160864437,52.45842076697477],[13.289000521011804,52.45840727978024],[13.289159134221405,52.45840459340149],[13.289155828173334,52.45835547113734],[13.289152522131369,52.458306348872746],[13.289069686291258,52.458308180499614],[13.28906961641562,52.45830732531653],[13.28906069376291,52.458194652302474],[13.288931812852406,52.45819697751615]]]}},{"type":"Feature","properties":{"id":"DEBE06YYB0000ZS2","osmOwner":"way/30432422","name":"Dom\u00e4ne Dahlem outbuilding","replacement":"Complete LoD2 source owner in SouthWestLandmarksV187; no unrelated source omission"},"geometry":{"type":"Polygon","coordinates":[[[13.288841803484656,52.45986376523957],[13.288843124525789,52.4598805620897],[13.288847441550477,52.459935111733465],[13.289314369413676,52.459920809492985],[13.289309745030906,52.45986316242205],[13.289307920623836,52.45984036111081],[13.289304377616459,52.45978481565942],[13.288836576307713,52.459797765512455],[13.288841803484656,52.45986376523957]]]}},{"type":"Feature","properties":{"id":"DEBE06YYB0000DqQ","osmOwner":"way/30432418","name":"Pferdestall und Hofschmiede","replacement":"Complete LoD2 source owner in SouthWestLandmarksV187; no unrelated source omission"},"geometry":{"type":"Polygon","coordinates":[[[13.289549420284166,52.4589146591434],[13.28954882702854,52.45890528164469],[13.289569879950092,52.45890478592422],[13.289544799059842,52.45850984963916],[13.289452448872565,52.45851182265112],[13.289359553334027,52.45851381467608],[13.289385371596955,52.45890867176341],[13.28947788087319,52.458906413379076],[13.289517748566483,52.458905443534604],[13.28951871811892,52.45892030216829],[13.289549420284166,52.4589146591434]]]}},{"type":"Feature","properties":{"id":"DEBE06YYB0004uE9","osmOwner":"way/30432425","name":"Remise","replacement":"Complete LoD2 source owner in SouthWestLandmarksV187; no unrelated source omission"},"geometry":{"type":"Polygon","coordinates":[[[13.289195040590748,52.459249529351496],[13.289191350645684,52.4591939817648],[13.289240636288879,52.459192321061415],[13.289240503496796,52.45919043097075],[13.289242463895286,52.459190360426504],[13.289295554035027,52.45918852096407],[13.28928434222981,52.459038060469815],[13.28923146058474,52.45903946236943],[13.28917720872589,52.45904089837033],[13.289192093504461,52.459249612594625],[13.289195040590748,52.459249529351496]]]}},{"type":"Feature","properties":{"id":"DEBE06YYB0000R6X","osmOwner":"way/1377205618","name":"Hofladen","replacement":"Complete LoD2 source owner in SouthWestLandmarksV187; no unrelated source omission"},"geometry":{"type":"Polygon","coordinates":[[[13.288658407007317,52.45858945603654],[13.288621318556668,52.458592398936496],[13.288636696561479,52.458658905238494],[13.288659904212244,52.45875921518966],[13.288738216037652,52.45875260694594],[13.288715746615791,52.45865261339763],[13.288677609463642,52.45865564903527],[13.288658407007317,52.45858945603654]]]}},{"type":"Feature","properties":{"id":"DEBE06YYB0000I0m","osmOwner":"way/30432425","name":"Remise","replacement":"Complete LoD2 source owner in SouthWestLandmarksV187; no unrelated source omission"},"geometry":{"type":"Polygon","coordinates":[[[13.289191350645684,52.4591939817648],[13.289195040590748,52.459249529351496],[13.289299963763709,52.45924676735298],[13.289295995365736,52.459188527348324],[13.289295554035027,52.45918852096407],[13.289240503496796,52.45919043097075],[13.289240636288879,52.459192321061415],[13.289191350645684,52.4591939817648]]]}},{"type":"Feature","properties":{"id":"DEBE06YYB0000b7V","osmOwner":"way/108631421","name":"Imkerei","replacement":"Complete LoD2 source owner in SouthWestLandmarksV187; no unrelated source omission"},"geometry":{"type":"Polygon","coordinates":[[[13.28778599024236,52.45848292272719],[13.287787654018226,52.4584912547656],[13.28778976962758,52.458501598402904],[13.287936686586269,52.45849005873138],[13.28793272356985,52.45847118259383],[13.287930548387841,52.45846085607935],[13.287927181319784,52.458444829815974],[13.287798217723989,52.45845533467223],[13.287802005364375,52.458471142246665],[13.287803069869748,52.45847557238106],[13.287784808833367,52.45847695338997],[13.28778599024236,52.45848292272719]]]}},{"type":"Feature","properties":{"id":"DEBE06YYB0000jHZ","osmOwner":"way/564418754","name":"Dom\u00e4ne Dahlem outbuilding","replacement":"Complete LoD2 source owner in SouthWestLandmarksV187; no unrelated source omission"},"geometry":{"type":"Polygon","coordinates":[[[13.288427508812504,52.458329889713525],[13.288440633468618,52.458384656777916],[13.28850246360952,52.45837907792003],[13.28849008598841,52.45832440259622],[13.288427508812504,52.458329889713525]]]}},{"type":"Feature","properties":{"id":"DEBE06YYB0000i1O","osmOwner":"way/545601755","name":"Dom\u00e4ne Dahlem outbuilding","replacement":"Complete LoD2 source owner in SouthWestLandmarksV187; no unrelated source omission"},"geometry":{"type":"Polygon","coordinates":[[[13.28972642777464,52.4598285217298],[13.289724479147086,52.45980246378531],[13.289722284994546,52.45977324634966],[13.289304377616459,52.45978481565942],[13.28930623417931,52.45981400124708],[13.289307920623836,52.45984036111081],[13.289382671288509,52.459838331426354],[13.289612968441075,52.459831978861835],[13.289614888473928,52.45986864610835],[13.289615599262133,52.45987233382316],[13.289720963678496,52.459868858521794],[13.289729503520011,52.459868793209736],[13.28972923057689,52.459865201740676],[13.28972645867293,52.45982886384539],[13.28972642777464,52.4598285217298]]]}},{"type":"Feature","properties":{"id":"DEBE06YYB0000xp5","osmOwner":"way/545601395","name":"Dom\u00e4ne Dahlem outbuilding","replacement":"Complete LoD2 source owner in SouthWestLandmarksV187; no unrelated source omission"},"geometry":{"type":"Polygon","coordinates":[[[13.288646645974108,52.45983622417385],[13.288654854946417,52.45991793886849],[13.288802455037738,52.45991243214271],[13.288794260503868,52.459830717668794],[13.288646645974108,52.45983622417385]]]}},{"type":"Feature","properties":{"id":"DEBE06YYB0000P7s","osmOwner":"way/30432426","name":"T\u00f6pferei, Webstube, Blaudruck","replacement":"Complete LoD2 source owner in SouthWestLandmarksV187; no unrelated source omission"},"geometry":{"type":"Polygon","coordinates":[[[13.289571902195881,52.45894792837996],[13.289514920142894,52.458949172194785],[13.28945860112491,52.45895039859883],[13.289457135496939,52.45895137543165],[13.289476299228632,52.45923352038373],[13.28953242631934,52.459232318167004],[13.289590925019958,52.45923106930373],[13.289573659312603,52.4589489248529],[13.289571902195881,52.45894792837996]]]}},{"type":"Feature","properties":{"id":"DEBE06YYB00005Ih","osmOwner":"way/545601755","name":"Dom\u00e4ne Dahlem outbuilding","replacement":"Complete LoD2 source owner in SouthWestLandmarksV187; no unrelated source omission"},"geometry":{"type":"Polygon","coordinates":[[[13.289615599262133,52.45987233382316],[13.289629729122286,52.46008311401929],[13.289735834218307,52.46007991016143],[13.289720963678496,52.459868858521794],[13.289615599262133,52.45987233382316]]]}},{"type":"Feature","properties":{"id":"DEBE06YYB0000XBi","osmOwner":"way/545540803","name":"Dom\u00e4ne Dahlem outbuilding","replacement":"Complete LoD2 source owner in SouthWestLandmarksV187; no unrelated source omission"},"geometry":{"type":"Polygon","coordinates":[[[13.289192093504461,52.459249612594625],[13.289195532967936,52.45929985169962],[13.289303402225695,52.45929665577957],[13.289299963763709,52.45924676735298],[13.289192093504461,52.459249612594625]]]}},{"type":"Feature","properties":{"id":"DEBE06YYB0004u1b","osmOwner":"way/30432422","name":"Dom\u00e4ne Dahlem outbuilding","replacement":"Complete LoD2 source owner in SouthWestLandmarksV187; no unrelated source omission"},"geometry":{"type":"Polygon","coordinates":[[[13.289382671288509,52.459838331426354],[13.289307920623836,52.45984036111081],[13.289314369413676,52.459920809492985],[13.289389277778316,52.45991851234632],[13.289382671288509,52.459838331426354]]]}},{"type":"Feature","properties":{"id":"DEBE06YYB0004uKO","osmOwner":"way/1377205618","name":"Hofladen","replacement":"Complete LoD2 source owner in SouthWestLandmarksV187; no unrelated source omission"},"geometry":{"type":"Polygon","coordinates":[[[13.288658407007317,52.45858945603654],[13.288677609463642,52.45865564903527],[13.288715746615791,52.45865261339763],[13.288738216037652,52.45875260694594],[13.288758242392179,52.458750873700446],[13.288735811830845,52.458651015587805],[13.288720823478386,52.4585843261211],[13.288700800683214,52.4585859694985],[13.288658407007317,52.45858945603654]]]}},{"type":"Feature","properties":{"id":"DEBE06YYB0000zCa","osmOwner":"way/30432425","name":"Remise","replacement":"Complete LoD2 source owner in SouthWestLandmarksV187; no unrelated source omission"},"geometry":{"type":"Polygon","coordinates":[[[13.289295527019567,52.45903772774828],[13.289295242507723,52.45903557471563],[13.289293325900719,52.45903565488548],[13.289292917114185,52.45903215136245],[13.289300422417627,52.459031810369495],[13.289293153508416,52.458963407422935],[13.289152768527774,52.458967409685556],[13.289159742651835,52.45903581736859],[13.289167112073944,52.45903556433111],[13.289167520850501,52.459039067854505],[13.289165751004484,52.45903915913677],[13.289166038994072,52.459041222307235],[13.28917720872589,52.45904089837033],[13.28928434222981,52.459038060469815],[13.289295527019567,52.45903772774828]]]}},{"type":"Feature","properties":{"id":"DEBE06YYB0004v57","osmOwner":"way/108631421","name":"Imkerei","replacement":"Complete LoD2 source owner in SouthWestLandmarksV187; no unrelated source omission"},"geometry":{"type":"Polygon","coordinates":[[[13.28778041272968,52.45845672228329],[13.287784808833367,52.45847695338997],[13.287803069869748,52.45847557238106],[13.287798217723989,52.45845533467223],[13.28778041272968,52.45845672228329]]]}},{"type":"Feature","properties":{"id":"DEBE06YYA00003aT","osmOwner":"way/237543019","name":"Mexikoplatz station","replacement":"Complete LoD2 source owner in SouthWestLandmarksV187; no unrelated source omission"},"geometry":{"type":"Polygon","coordinates":[[[13.232345387884733,52.43724230794492],[13.232339395997853,52.43723726410811],[13.232182348704272,52.43730405075244],[13.23215163571046,52.437317869837926],[13.232234468044934,52.437383207937756],[13.232236249349597,52.43738869234156],[13.232254263615097,52.43739624470673],[13.232257617234895,52.43740361383534],[13.23226189001585,52.43741080788769],[13.232267040006631,52.437417772288114],[13.232273038520333,52.43742448862484],[13.232279858308813,52.43743090254204],[13.232271797201166,52.43743748958918],[13.232277174129322,52.43744209264818],[13.232287136382817,52.43744350938291],[13.232289535729768,52.437447888094766],[13.232293363863517,52.43745185658238],[13.232298480225586,52.43745525089916],[13.232304640974187,52.437457914545696],[13.23231158576545,52.43745973573279],[13.232318994722526,52.43746061976395],[13.232322866610353,52.437464597896145],[13.232338158271194,52.43746629211705],[13.232342133562579,52.43746327649799],[13.232412916638017,52.437466510661245],[13.23247228836354,52.437446088691416],[13.232506539008005,52.43741776535903],[13.232520390812878,52.43741941105716],[13.232527413404616,52.43740899612153],[13.23253148037004,52.43740074888139],[13.232532350123313,52.437368725583674],[13.232518115901,52.43736523992767],[13.23252298979023,52.43735668106099],[13.23252895707453,52.43734837231562],[13.232535985469571,52.43734038513981],[13.232543999660173,52.43733276336441],[13.232552983504144,52.43732554271345],[13.232613746793687,52.43728909185648],[13.232618161719905,52.437292367777374],[13.232737442349176,52.43722264231888],[13.232646755466881,52.437167176587785],[13.232584332746274,52.43720318905097],[13.232602270252215,52.43721707015014],[13.232550190850446,52.437248282962045],[13.232537260180665,52.437239062309395],[13.232507826185048,52.4372558497806],[13.232499273999279,52.43725485875643],[13.232490564625058,52.43725485443397],[13.232482021174206,52.437255850634976],[13.232473910463105,52.43725779740005],[13.23246655848103,52.437260636663076],[13.232460189733189,52.43726427287534],[13.232455045586294,52.437268556791864],[13.23245129281192,52.43727336502668],[13.232449085996267,52.43727851107191],[13.232448476443059,52.43728381586696],[13.23244950075282,52.437289100131345],[13.232420728741754,52.43730551983969],[13.232371489457027,52.43726650736862],[13.232342169131222,52.43724369844311],[13.232345387884733,52.43724230794492]]]}}]}
