{"type":"FeatureCollection","features":[{"type":"Feature","properties":{"officialId":"DEBE06YYB0000Ele","osmIds":["way/35265860"],"replacement":"Complete source LoD2 wall and roof surfaces in SteglitzV182","sourceIds":["DEBE06YYB0000Ele","way/35265860"]},"geometry":{"type":"Polygon","coordinates":[[[13.317971943741396,52.45457037182969],[13.317969477237357,52.4545717573648],[13.317947246775855,52.454556102075045],[13.3178714902631,52.4545959976357],[13.317893023880492,52.454611786887455],[13.317890218705685,52.45461317659475],[13.31790819716197,52.45462609201838],[13.31790844071975,52.4546262663167],[13.317790483133676,52.45468792278617],[13.317902888789634,52.45477193560441],[13.317905783100338,52.454773999807],[13.317928797690378,52.45479032261881],[13.318049693287419,52.454726882574946],[13.318054276092509,52.45473021158303],[13.31813477444478,52.45468792873384],[13.31813014579637,52.45468464403313],[13.318251294990123,52.454621099497146],[13.318110117909653,52.45452004398094],[13.317989667687431,52.4545834005072],[13.317989596193785,52.45458334554274],[13.317971943741396,52.45457037182969]]]}},{"type":"Feature","properties":{"officialId":"DEBE06YYB0000N1G","osmIds":["way/28504290"],"replacement":"Complete source LoD2 wall and roof surfaces in SteglitzV182","sourceIds":["DEBE06YYB0000N1G","way/28504290"]},"geometry":{"type":"Polygon","coordinates":[[[13.320574677926084,52.45710712090114],[13.320566212393262,52.45709828815632],[13.320537410610203,52.45710866862025],[13.320523875238578,52.45711354745672],[13.320533609622588,52.45712113944973],[13.320214217759371,52.457238299615106],[13.320214812344759,52.45723891946592],[13.320248566554868,52.45727437488682],[13.32026695050287,52.45729369746555],[13.320316618737833,52.45734415153291],[13.320318099718703,52.45734352519835],[13.320319121944632,52.457344510772664],[13.320359242538006,52.4573298764231],[13.320360408108595,52.45733096293677],[13.320378334243738,52.457333699131155],[13.32039824725177,52.45732638435175],[13.320402292577269,52.457315616343145],[13.320401274112394,52.45731453191924],[13.320410617385324,52.45731113106023],[13.320451707789982,52.45729615080372],[13.320418400546933,52.45726209543388],[13.32049464809872,52.45723488287997],[13.32051297087995,52.45725233437146],[13.320574540454054,52.457318035677204],[13.320627485126485,52.45729903378584],[13.320666629023709,52.45733984348728],[13.320643478017564,52.457348317156466],[13.320717971239775,52.45742445193549],[13.32071944879817,52.457423915459806],[13.320721345823083,52.4574258934991],[13.32085393116498,52.45737870193599],[13.320894489858778,52.457364154547584],[13.320893512777186,52.457363142645555],[13.320895556858677,52.45736241640419],[13.32072521586756,52.45718533363781],[13.3207234553964,52.45718595600859],[13.320717975778123,52.45718026765679],[13.320650498960468,52.457110058841685],[13.320634359170478,52.45709325876809],[13.320640993942396,52.457091024255014],[13.320630761399585,52.45708066488287],[13.320614101268609,52.45708682106826],[13.32061804649566,52.457091058026265],[13.320585725505065,52.45710302493232],[13.320574677926084,52.45710712090114]]]}},{"type":"Feature","properties":{"officialId":"DEBE06YYB00001xV","osmIds":["way/28504291"],"replacement":"Complete source LoD2 wall and roof surfaces in SteglitzV182","sourceIds":["DEBE06YYB00001xV","way/28504291"]},"geometry":{"type":"Polygon","coordinates":[[[13.320181932134805,52.4572508783191],[13.320063820360142,52.45729367122165],[13.319772360944459,52.45739925965106],[13.319280504409786,52.45757753489984],[13.319279482201978,52.45757654931672],[13.319275648498497,52.45757788847416],[13.319270635193105,52.45757966942017],[13.319120207084634,52.457634239179136],[13.319119610098092,52.457634455474945],[13.319112534865829,52.45763704329278],[13.319108848259445,52.45763838453567],[13.319109572484917,52.45763946478854],[13.319090986180633,52.45764633066535],[13.319054407469606,52.45765954036836],[13.319068594148714,52.457673507626374],[13.31922764115436,52.457837835533475],[13.31930682780943,52.457917841210936],[13.31937053322003,52.45789536034498],[13.319610202458714,52.458145360199445],[13.319599730652508,52.458149014697526],[13.319621793045261,52.458172624521254],[13.31963269865788,52.45816878736909],[13.31982607279555,52.458371032765605],[13.320834832930908,52.458010587449394],[13.320855128185995,52.45803230176844],[13.320861830830685,52.45803022105747],[13.320869007315332,52.45802883940023],[13.320876449294403,52.45802821677711],[13.320883980237738,52.45802835068152],[13.320891349718877,52.45802924654897],[13.320897901561517,52.458030742211434],[13.320904003537812,52.458032842890866],[13.320909510932655,52.4580354835939],[13.320914263294164,52.45803862607742],[13.320918176118253,52.458042170237945],[13.320983169246764,52.45811000589169],[13.32098832740666,52.458114862470666],[13.320994579636917,52.45811920409926],[13.32100179627476,52.45812295700641],[13.321009819261155,52.458126020044126],[13.321018503538232,52.45812833720526],[13.321027322248083,52.45812982907958],[13.321036376315183,52.458130551047454],[13.321045533682762,52.458130492242695],[13.321054558975737,52.45812964932358],[13.321063319111627,52.45812803838324],[13.321071621480561,52.45812569265215],[13.321110850328534,52.45811168376488],[13.32124033542605,52.458065553673464],[13.32126254165848,52.45808888649968],[13.321266812219692,52.45808728374201],[13.321313567732117,52.45807042351259],[13.321367213645134,52.458051188479324],[13.321507648175052,52.4580008257923],[13.321342595964882,52.45782929469797],[13.321248977057527,52.45773199316548],[13.321250593854163,52.457731278834814],[13.321238913499988,52.457719118698165],[13.321174360854931,52.45765208965422],[13.321162665831652,52.45763992930141],[13.321160897474966,52.45764037174181],[13.320922093113928,52.45739262614759],[13.320894489858778,52.457364154547584],[13.32085393116498,52.45737870193599],[13.320721345823083,52.4574258934991],[13.32071944879817,52.457423915459806],[13.320717971239775,52.45742445193549],[13.320643478017564,52.457348317156466],[13.320666629023709,52.45733984348728],[13.320627485126485,52.45729903378584],[13.320574540454054,52.457318035677204],[13.32051297087995,52.45725233437146],[13.32049464809872,52.45723488287997],[13.320418400546933,52.45726209543388],[13.320451707789982,52.45729615080372],[13.320401274112394,52.45731453191924],[13.320402292577269,52.457315616343145],[13.32039824725177,52.45732638435175],[13.320378334243738,52.457333699131155],[13.320360408108595,52.45733096293677],[13.320359242538006,52.4573298764231],[13.320319121944632,52.457344510772664],[13.320318099718703,52.45734352519835],[13.320316618737833,52.45734415153291],[13.32026695050287,52.45729369746555],[13.320214812344759,52.45723891946592],[13.320181932134805,52.4572508783191]],[[13.320419289223304,52.4575342012426],[13.320257331211351,52.45736583249585],[13.320419304276037,52.457534192465154],[13.320500502524151,52.457618622628374],[13.320419289223304,52.4575342012426]],[[13.320335843427126,52.45753787287865],[13.320205208649677,52.45758479330577],[13.320335843427124,52.45753787287865],[13.320335843427126,52.45753787287865]]]}},{"type":"Feature","properties":{"officialId":"DEBE06YYB0000nL1","osmIds":["way/35607218"],"replacement":"Complete source LoD2 wall and roof surfaces in SteglitzV182","sourceIds":["DEBE06YYB0000nL1","way/35607218"]},"geometry":{"type":"Polygon","coordinates":[[[13.32615301831461,52.45714218918354],[13.32604992562339,52.45713841917937],[13.326050236166788,52.45713527664011],[13.32569976052688,52.457122429740835],[13.325651520533052,52.45712068577352],[13.325638860757094,52.45725069074227],[13.325636662240866,52.45727372215336],[13.325635218773717,52.45728887893447],[13.32582566686228,52.45729690708717],[13.326022173909308,52.457303519162394],[13.326024819444541,52.45730361954977],[13.326081449747672,52.45730457401251],[13.326136307094526,52.45730687002174],[13.326143075643486,52.45724017887566],[13.32615301831461,52.45714218918354]]]}},{"type":"Feature","properties":{"officialId":"DEBE06YYB0000nx8","osmIds":["way/387263943"],"replacement":"Complete source LoD2 wall and roof surfaces in SteglitzV182","sourceIds":["DEBE06YYB0000nx8","way/387263943"]},"geometry":{"type":"Polygon","coordinates":[[[13.324733947471927,52.45663968737563],[13.324672100839889,52.45664046560317],[13.324648362017687,52.45666988132514],[13.324695932168323,52.45670864216355],[13.324733947471927,52.45663968737563]]]}},{"type":"Feature","properties":{"officialId":"DEBE06YYB0000AUq","osmIds":["way/31544586","way/35607217"],"replacement":"Complete source LoD2 wall and roof surfaces in SteglitzV182","sourceIds":["DEBE06YYB0000AUq","way/31544586","way/35607217"]},"geometry":{"type":"Polygon","coordinates":[[[13.325296648166228,52.456631455267875],[13.32528240710661,52.456637106890234],[13.32526929270217,52.456643709555905],[13.325257485229267,52.45665116691463],[13.325247135202698,52.456659391186],[13.325238364057727,52.456668285186446],[13.325231279883614,52.45667771557844],[13.325225989746825,52.45668757598365],[13.325222542895329,52.45669773223108],[13.325221002605666,52.45670806833086],[13.325221373994697,52.45671844948687],[13.325223662520337,52.45672873191644],[13.325227828826964,52.45673878918468],[13.325233833558832,52.45674849485659],[13.325241578177033,52.45675773065018],[13.325250979193916,52.45676636950536],[13.325261922677466,52.456774310904514],[13.32527425090488,52.456781444718644],[13.325287819840414,52.45678768798633],[13.325302456026987,52.45679295732952],[13.325317041078236,52.456796859277596],[13.325332221619702,52.456799807593626],[13.325347822829565,52.456801754845515],[13.325363668862806,52.45680268056044],[13.32537959790282,52.45680258244684],[13.325395418711963,52.456801457796615],[13.32541095442212,52.456799313096475],[13.325426027142257,52.45679618179249],[13.325440474032984,52.45679208855269],[13.325454145601608,52.45678709419917],[13.325466788700227,52.45678127606876],[13.325466863616656,52.45678124116461],[13.325467096680237,52.45679022671782],[13.32550869510224,52.4567897098474],[13.325508695440426,52.45678971882538],[13.325889330028602,52.45678501077267],[13.325889418291604,52.456785012022166],[13.325930664334226,52.45678448999676],[13.325929322512081,52.456745754706155],[13.326094979410641,52.45674338826595],[13.326094470328144,52.45673081130145],[13.32641477146429,52.45672460915267],[13.326414827067438,52.45672585972238],[13.326417963621854,52.45679723164325],[13.326413990080558,52.45679722036523],[13.326414007232986,52.456797544292726],[13.32641737859841,52.4568603958375],[13.326323953154166,52.45686214863502],[13.326326183505957,52.45690618334462],[13.326328358260376,52.45694896748422],[13.32642164632506,52.456946960983196],[13.326424269513225,52.457009747990455],[13.326424303136735,52.45701041381827],[13.326428132999377,52.45701033315004],[13.326432193796279,52.45708294994726],[13.326292429645523,52.45708520679871],[13.326297071343232,52.45718092133384],[13.326418450285123,52.457178718980856],[13.326438228282985,52.45721219454667],[13.326444173816034,52.45731079573029],[13.326647513518278,52.45730762208465],[13.326641420249636,52.45720785895309],[13.326640831482997,52.457207859613156],[13.326638918417363,52.457207850525336],[13.326637099735612,52.45717352320129],[13.32663901314051,52.45717352330269],[13.32663873379564,52.45717002175665],[13.326602389161447,52.45717091909104],[13.32659424292842,52.45700652482597],[13.326640153393086,52.45700565495916],[13.326629521971347,52.456793455053784],[13.326583626437932,52.456794325126516],[13.326575356881989,52.456625811115245],[13.326471553571878,52.4566276149779],[13.326471480019613,52.45662761393702],[13.326471236528779,52.45662122670849],[13.326389430406273,52.45662282030296],[13.326389674226066,52.45662919854514],[13.326002584844424,52.456636487228465],[13.326002732318456,52.45663919568043],[13.32600284583463,52.456641247290925],[13.325884715176391,52.456642829841854],[13.32588367053326,52.45662342093998],[13.325502615558229,52.45662838375997],[13.325461365568009,52.45662901347428],[13.325432000205033,52.4566294608087],[13.325431912624344,52.456629441586024],[13.325417581493776,52.45662583096727],[13.32540262682509,52.456623137615175],[13.325387282961557,52.45662139182175],[13.325371739432958,52.456620641227026],[13.325356144024695,52.45662086994122],[13.32534067326103,52.456622080464165],[13.325325489296826,52.456624266100974],[13.325310769679485,52.45662740239239],[13.325296648166228,52.456631455267875]]]}},{"type":"Feature","properties":{"osmIds":["way/34782006"],"replacement":"Exact OSM footprint and metric source height plus photo-guided frame in SteglitzV182","sourceIds":["way/34782006"]},"geometry":{"type":"MultiPolygon","coordinates":[[[[13.3199306,52.4555347],[13.3202344,52.4554253],[13.3201616,52.4552949],[13.3200443,52.4551032],[13.3200338,52.4550844],[13.3200218,52.4550627],[13.3200091,52.4550399],[13.3199944,52.4550134],[13.3200071,52.4550028],[13.3199344,52.4548774],[13.3199184,52.454881],[13.3198814,52.454818],[13.3198294,52.4548297],[13.3194495,52.4549102],[13.3193928,52.4549204],[13.3195817,52.4552428],[13.3196066,52.4552875],[13.319618,52.4553079],[13.3197299,52.4555011],[13.3198575,52.4554744],[13.3199168,52.4555329],[13.3199288,52.4555302],[13.3199306,52.4555347]]]]}},{"type":"Feature","properties":{"osmIds":["way/34782007"],"replacement":"Exact OSM footprint and metric source height plus photo-guided frame in SteglitzV182","sourceIds":["way/34782007"]},"geometry":{"type":"MultiPolygon","coordinates":[[[[13.3202344,52.4554253],[13.3199306,52.4555347],[13.3199288,52.4555302],[13.3199168,52.4555329],[13.3198575,52.4554744],[13.3197299,52.4555011],[13.3199204,52.4557052],[13.3198586,52.4557272],[13.3199408,52.4558129],[13.3199303,52.4558166],[13.3199005,52.4558273],[13.3200132,52.4559449],[13.32,52.4559496],[13.3201011,52.456055],[13.3201386,52.4560416],[13.3201545,52.456036],[13.3201969,52.4560802],[13.3202748,52.4560525],[13.3204696,52.4562566],[13.3204783,52.456266],[13.3204479,52.4562769],[13.3205184,52.4563506],[13.320616,52.4564525],[13.320742,52.4565838],[13.320773,52.4565729],[13.3208595,52.4566572],[13.3208896,52.4566866],[13.3214569,52.4564857],[13.321502,52.4565331],[13.3215117,52.4565432],[13.3217262,52.4564672],[13.3218733,52.4564185],[13.3221387,52.4563212],[13.3220093,52.4561854],[13.3219738,52.4561482],[13.3219118,52.4560831],[13.3218875,52.4560579],[13.3218594,52.4560288],[13.3217978,52.4559607],[13.3217911,52.4559538],[13.3216955,52.4559881],[13.3216647,52.4559563],[13.3216376,52.4559284],[13.3214528,52.455738],[13.321354,52.455773],[13.3210231,52.4554259],[13.3208726,52.4552682],[13.3208541,52.4552487],[13.3207382,52.4552898],[13.3206636,52.4553161],[13.3206459,52.4552972],[13.3203968,52.4550287],[13.3203767,52.4550331],[13.3203494,52.4550394],[13.3200977,52.4550913],[13.3200443,52.4551032],[13.3201616,52.4552949],[13.3202344,52.4554253]]]]}},{"type":"Feature","properties":{"osmIds":["way/34782008"],"replacement":"Exact OSM footprint and metric source height plus photo-guided frame in SteglitzV182","sourceIds":["way/34782008"]},"geometry":{"type":"Polygon","coordinates":[[[13.3201716,52.4560093],[13.3201042,52.455939],[13.3201897,52.4559086],[13.3202201,52.4558978],[13.3200692,52.4557403],[13.3201579,52.4557088],[13.3202057,52.4557586],[13.3202793,52.4557324],[13.3202953,52.4557491],[13.3204784,52.455684],[13.3205513,52.4557601],[13.3204377,52.4558005],[13.3206045,52.4559746],[13.3204746,52.4560208],[13.3204041,52.4559472],[13.3203893,52.4559318],[13.3201716,52.4560093]]]}}]}
