{"type":"FeatureCollection","features":[{"type":"Feature","id":"ortsteile.DEBE01YYK0000009","geometry":{"type":"MultiPolygon","coordinates":[[[[386669.863,5822535.019],[386656.458,5822535.844],[386630.634,5822541.111],[386613.442,5822544.619],[386613.744,5822545.566],[386613.842,5822545.874],[386608.142,5822547.954],[386601.71,5822551.953],[386564.709,5822574.959],[386563.931,5822566.238],[386563.851,5822565.343],[386563.545,5822561.904],[386561.202,5822535.648],[386558.671,5822507.238],[386558.316,5822503.248],[386558.051,5822500.281],[386556.93,5822487.693],[386556.826,5822486.54],[386556.646,5822484.549],[386553.129,5822445.598],[386547.932,5822386.371],[386548.884,5822383.335],[386549.251,5822382.163],[386550.958,5822376.715],[386580.795,5822339.32],[386581.652,5822338.247],[386594.548,5822322.084],[386595.761,5822320.564],[386601.529,5822313.337],[386607.662,5822305.681],[386611.521,5822300.848],[386615.691,5822295.629],[386616.369,5822294.778],[386618.051,5822292.671],[386618.381,5822292.259],[386624.768,5822284.259],[386627.921,5822280.309],[386630.346,5822277.272],[386637.365,5822268.48],[386637.913,5822267.793],[386639.03,5822266.395],[386639.247,5822266.122],[386643.506,5822260.782],[386660.915,5822238.977],[386662.638,5822236.819],[386666.877,5822231.519],[386670.764,5822226.635],[386672.646,5822224.28],[386673.514,5822223.193],[386679.095,5822216.208],[386675.7,5822214.344],[386672.275,5822212.534],[386668.823,5822210.777],[386665.344,5822209.075],[386661.839,5822207.427],[386658.308,5822205.834],[386654.753,5822204.296],[386651.174,5822202.814],[386647.572,5822201.388],[386643.949,5822200.018],[386640.313,5822198.706],[386636.656,5822197.45],[386632.981,5822196.252],[386629.287,5822195.111],[386625.576,5822194.028],[386621.844,5822193.005],[386618.097,5822192.04],[386614.335,5822191.133],[386610.559,5822190.285],[386606.771,5822189.496],[386594.579,5822186.946],[386524.429,5822172.274],[386524.631,5822171.3],[386524.72,5822170.642],[386524.703,5822169.979],[386524.582,5822169.326],[386524.359,5822168.701],[386524.04,5822168.119],[386523.633,5822167.595],[386523.148,5822167.142],[386522.597,5822166.772],[386521.995,5822166.493],[386521.356,5822166.313],[386511.929,5822164.353],[386507.582,5822163.435],[386491.195,5822160.017],[386474.242,5822156.48],[386469.915,5822155.573],[386461.904,5822153.895],[386460.508,5822153.602],[386459.839,5822153.531],[386459.167,5822153.564],[386458.508,5822153.698],[386457.878,5822153.931],[386457.29,5822154.257],[386456.758,5822154.67],[386456.296,5822155.158],[386455.914,5822155.711],[386455.62,5822156.316],[386455.422,5822156.959],[386455.257,5822157.752],[386455.028,5822158.856],[386453.794,5822158.599],[386186.85,5822102.844],[386065.473,5822077.487],[385979.781,5822059.587],[385470.469,5821953.207],[385482.401,5821896.044],[385494.239,5821839.384],[385503.589,5821794.628],[385524.045,5821696.745],[385539.81,5821621.351],[385555.19,5821583.591],[385563.562,5821571.632],[385564.292,5821567.82],[385564.916,5821564.57],[385565.631,5821560.84],[385566.769,5821554.898],[385567.522,5821550.97],[385568.613,5821545.276],[385569.366,5821541.348],[385570.046,5821537.801],[385570.557,5821535.132],[385570.427,5821534.604],[385573.752,5821535.381],[385590.204,5821539.257],[385593.338,5821539.988],[385594.205,5821535.632],[385595.21,5821534.842],[385616.801,5821538.898],[385626.089,5821540.654],[385636.515,5821542.586],[385701.007,5821554.498],[385748.69,5821563.76],[385843.18,5821581.42],[385853.498,5821578.734],[385875.896,5821583.438],[385843.642,5821547.884],[385859.523,5821491.256],[385852.541,5821483.209],[385848.365,5821478.394],[385844.941,5821474.446],[385836.571,5821464.794],[385834.365,5821463.085],[385830.29,5821459.928],[385820.333,5821452.214],[385811.658,5821449.82],[385815.567,5821436.366],[385816.214,5821434.138],[385820.048,5821420.942],[385788.961,5821412.183],[385766.131,5821405.751],[385760.149,5821404.065],[385726.563,5821394.603],[385722.371,5821393.423],[385677.503,5821380.777],[385667.991,5821378.1],[385664.494,5821377.115],[385642.912,5821369.066],[385630.37,5821364.393],[385621.925,5821361.246],[385609.781,5821358.887],[385601.072,5821357.2],[385588.213,5821354.708],[385589.022,5821350.483],[385593.637,5821326.406],[385595.189,5821318.307],[385595.735,5821315.458],[385633.042,5821120.951],[385670.712,5820924.568],[385681.065,5820870.595],[385682.833,5820861.382],[385682.935,5820860.852],[385685.694,5820846.483],[385685.793,5820845.966],[385687.606,5820836.523],[385707.764,5820731.377],[385708.383,5820728.185],[385785.469,5820326.329],[385787.564,5820315.408],[385788.321,5820314.734],[385791.066,5820312.286],[385793.637,5820309.994],[385795.35,5820308.467],[385864.013,5820247.248],[385867.195,5820251.057],[385867.86,5820251.855],[385898.476,5820288.53],[385899.785,5820290.094],[385930.467,5820326.558],[385932.452,5820328.92],[385932.21,5820379.811],[385932.124,5820399.981],[385932.066,5820412.692],[385931.779,5820414.437],[385930.051,5820419.279],[385929.612,5820424.018],[385929.478,5820425.4],[385929.015,5820432.068],[385928.771,5820435.553],[385930.214,5820443.055],[385934.044,5820466.21],[385934.131,5820467.078],[385939.507,5820499.514],[385943.72,5820524.912],[385944.081,5820526.515],[385944.932,5820530.259],[385948.643,5820546.617],[385955.008,5820563.724],[385965.132,5820584.48],[385977.66,5820604.921],[385983.426,5820612.6],[385987.838,5820618.466],[385991.705,5820623.622],[386007.534,5820640.41],[386013.008,5820645.375],[386023.682,5820655.081],[386041.237,5820668.036],[386059.795,5820679.552],[386079.387,5820689.689],[386092.999,5820695.12],[386093.563,5820695.339],[386099.256,5820697.61],[386117.176,5820703.439],[386138.116,5820708.24],[386159.415,5820711.445],[386186.996,5820714.73],[386215.428,5820717.008],[386245.187,5820719.182],[386263.45,5820718.905],[386283.097,5820717.191],[386303.198,5820713.679],[386323.893,5820708.215],[386345.467,5820700.095],[386367.243,5820691.012],[386375.874,5820686.878],[386382.614,5820683.22],[386396.922,5820675.328],[386416.734,5820663.412],[386442.671,5820645.47],[386458.311,5820634.473],[386463.067,5820630.613],[386473.133,5820622.012],[386486.017,5820610.688],[386490.506,5820606.462],[386491.508,5820605.523],[386508.572,5820586.315],[386525.604,5820567.079],[386542.606,5820547.815],[386549.585,5820539.903],[386560.079,5820528.044],[386575.143,5820510.979],[386578.447,5820507.172],[386581.687,5820503.309],[386584.861,5820499.393],[386587.969,5820495.424],[386591.009,5820491.403],[386593.982,5820487.332],[386594.786,5820486.211],[386595.585,5820485.086],[386596.378,5820483.957],[386599.892,5820478.92],[386603.872,5820473.185],[386604.196,5820473.399],[386604.58,5820473.584],[386604.997,5820473.676],[386605.423,5820473.67],[386605.837,5820473.567],[386606.216,5820473.371],[386606.54,5820473.094],[386607.868,5820470.975],[386610.201,5820467.25],[386618.167,5820454.534],[386620.794,5820450.341],[386622.116,5820448.23],[386622.224,5820447.802],[386622.228,5820447.361],[386622.127,5820446.932],[386621.928,5820446.539],[386621.641,5820446.204],[386621.283,5820445.946],[386620.99,5820445.781],[386621.191,5820444.778],[386627.298,5820433.642],[386632.762,5820422.269],[386636.342,5820414.494],[386637.099,5820412.846],[386640.402,5820405.102],[386641.232,5820403.101],[386645.096,5820393.391],[386646.975,5820387.451],[386649.762,5820378.947],[386651.724,5820372.183],[386653.734,5820364.316],[386655.548,5820355.95],[386655.589,5820355.741],[386657.004,5820347.816],[386658.826,5820340.074],[386659.974,5820336.23],[386661.52,5820323.459],[386662.206,5820319.046],[386662.9,5820300.884],[386662.917,5820290.715],[386662.448,5820280.294],[386661.246,5820266.478],[386659.773,5820254.257],[386657.511,5820239.431],[386652.738,5820217.184],[386650.128,5820206.664],[386649.291,5820203.237],[386648.404,5820199.607],[386646.35,5820192.017],[386643.546,5820182.861],[386641.343,5820174.284],[386640.453,5820170.611],[386639.392,5820165.291],[386636.245,5820148.603],[386634.329,5820139.9],[386633.725,5820137.496],[386633.551,5820136.743],[386632.435,5820131.285],[386630.861,5820123.106],[386630.361,5820120.393],[386629.504,5820113.883],[386628.268,5820105.77],[386627.498,5820098.061],[386627.075,5820089.246],[386626.962,5820081.645],[386627.143,5820076.263],[386627.393,5820072.897],[386627.501,5820071.492],[386628.035,5820064.505],[386629.37,5820051.11],[386630.301,5820043.793],[386631.362,5820038.623],[386632.567,5820033.591],[386632.974,5820032.413],[386636.031,5820021.226],[386637.06,5820016.987],[386637.692,5820014.945],[386640.57,5820006.98],[386643.531,5819998.095],[386643.794,5819997.21],[386649.835,5819982.596],[386660.809,5819960.249],[386670.816,5819944.35],[386676.92,5819936.174],[386683.77,5819927.244],[386691.306,5819918.132],[386693.215,5819915.995],[386705.304,5819902.836],[386708.592,5819899.604],[386711.822,5819896.433],[386715.031,5819893.252],[386720.084,5819888.176],[386723.586,5819884.59],[386724.978,5819883.164],[386730.664,5819877.716],[386733.064,5819875.59],[386737.234,5819871.951],[386740.612,5819869.217],[386742.317,5819867.885],[386743.822,5819866.596],[386744.483,5819866.07],[386749.867,5819862.371],[386755.325,5819858.845],[386761.845,5819855.068],[386777.311,5819846.578],[386787.185,5819841.173],[386801.049,5819833.54],[386807.746,5819830.253],[386814.462,5819827.435],[386827.081,5819822.685],[386832.718,5819820.448],[386837.335,5819817.131],[386856.974,5819814.547],[386857.164,5819814.823],[386857.416,5819815.044],[386857.715,5819815.196],[386858.042,5819815.269],[386858.347,5819815.284],[386866.362,5819814.496],[386874.352,5819813.777],[386890.313,5819812.459],[386892.767,5819812.291],[386895.194,5819812.144],[386897.584,5819812.037],[386900.395,5819811.905],[386903.17,5819811.839],[386905.945,5819811.839],[386908.72,5819811.902],[386911.492,5819812.03],[386915.406,5819812.238],[386919.314,5819812.539],[386923.213,5819812.932],[386927.103,5819813.418],[386930.979,5819813.996],[386934.841,5819814.666],[386943.301,5819816.277],[386951.745,5819817.972],[386960.172,5819819.751],[386968.581,5819821.613],[386968.553,5819821.724],[386970.665,5819822.302],[386972.77,5819822.905],[386974.867,5819823.534],[386977.771,5819824.476],[386980.661,5819825.456],[386983.539,5819826.476],[386986.402,5819827.534],[386989.738,5819828.835],[386993.048,5819830.203],[386996.33,5819831.635],[386999.157,5819832.918],[387001.96,5819834.253],[387004.737,5819835.641],[387007.488,5819837.08],[387010.211,5819838.57],[387011.521,5819839.287],[387012.824,5819840.016],[387014.12,5819840.757],[387016.895,5819842.394],[387019.638,5819844.085],[387022.348,5819845.829],[387022.367,5819845.768],[387027.026,5819848.919],[387038.009,5819856.45],[387040.245,5819858.33],[387043.919,5819861.419],[387051.138,5819867.489],[387057.983,5819873.539],[387064.621,5819879.792],[387079.005,5819894.757],[387087.367,5819904.367],[387104.834,5819924.234],[387113.07,5819934.026],[387130.036,5819953.872],[387139.945,5819965.221],[387141.918,5819967.479],[387143.631,5819969.442],[387185.302,5820017.966],[387244.632,5820087.062],[387251.714,5820095.41],[387254.708,5820098.939],[387255.68,5820100.07],[387257.326,5820101.982],[387257.908,5820102.658],[387257.967,5820102.617],[387258.186,5820102.908],[387258.87,5820103.82],[387256.957,5820105.236],[387268.651,5820121.242],[387268.838,5820121.109],[387270.06,5820122.785],[387272.503,5820126.119],[387272.811,5820126.46],[387273.191,5820126.72],[387273.62,5820126.883],[387274.076,5820126.942],[387274.533,5820126.892],[387274.966,5820126.736],[387275.35,5820126.484],[387277.471,5820126.534],[387279.461,5820129.166],[387286.645,5820139.389],[387289.672,5820143.981],[387289.668,5820144.504],[387289.745,5820145.022],[387289.9,5820145.522],[387290.13,5820145.992],[387293.587,5820151.606],[387296.403,5820156.122],[387298.813,5820160.376],[387303.581,5820169.204],[387306.332,5820174.541],[387309.77,5820181.765],[387311.369,5820185.435],[387319.078,5820201.677],[387324.989,5820214.384],[387329.053,5820223.536],[387332.76,5820232.844],[387335.452,5820240.313],[387337.36,5820246.006],[387339.099,5820251.762],[387341.337,5820259.509],[387341.546,5820260.256],[387343.268,5820266.402],[387343.482,5820267.168],[387343.592,5820267.156],[387344.498,5820266.978],[387345.549,5820272.119],[387346.557,5820277.269],[387347.523,5820282.427],[387348.436,5820287.613],[387349.434,5820292.784],[387350.518,5820297.937],[387351.686,5820303.072],[387352.845,5820308.045],[387354.099,5820312.996],[387355.446,5820317.921],[387356.886,5820322.821],[387358.419,5820327.692],[387360.044,5820332.533],[387361.383,5820336.209],[387362.832,5820339.843],[387364.39,5820343.432],[387366.055,5820346.973],[387367.825,5820350.462],[387369.7,5820353.896],[387371.677,5820357.273],[387373.754,5820360.588],[387376.292,5820364.564],[387378.919,5820368.482],[387381.635,5820372.339],[387384.437,5820376.133],[387387.324,5820379.864],[387390.294,5820383.528],[387393.347,5820387.124],[387396.481,5820390.649],[387399.693,5820394.104],[387402.983,5820397.484],[387406.273,5820400.506],[387409.641,5820403.441],[387413.083,5820406.289],[387416.598,5820409.046],[387420.183,5820411.711],[387423.836,5820414.282],[387427.555,5820416.758],[387431.336,5820419.137],[387434.837,5820421.262],[387438.384,5820423.31],[387441.975,5820425.278],[387445.609,5820427.167],[387449.284,5820428.975],[387452.998,5820430.701],[387456.749,5820432.345],[387460.536,5820433.905],[387463.285,5820434.96],[387466.06,5820435.945],[387468.86,5820436.859],[387471.681,5820437.702],[387474.523,5820438.473],[387477.384,5820439.171],[387487.164,5820440.851],[387488.074,5820442.921],[387488.818,5820443.011],[387491.153,5820440.814],[387492.161,5820441.066],[387505.952,5820444.423],[387519.795,5820447.795],[387527.073,5820453.167],[387534.553,5820456.078],[387546.236,5820458.906],[387558.104,5820460.92],[387570.003,5820462.533],[387584.798,5820463.372],[387584.959,5820463.379],[387590.892,5820463.596],[387591.383,5820463.636],[387591.613,5820463.632],[387596.852,5820463.592],[387615.615,5820462.765],[387626.107,5820461.856],[387638.54,5820460.479],[387649.881,5820459.024],[387663.598,5820456.753],[387712.46,5820448.664],[387719.999,5820447.061],[387727.102,5820445.176],[387736.096,5820442.82],[387740.276,5820441.725],[387747,5820439.377],[387761.867,5820434.015],[387779.335,5820426.053],[387788.918,5820421.031],[387799.327,5820414.684],[387808.721,5820408.075],[387813.391,5820404.417],[387816.005,5820402.281],[387817.989,5820400.66],[387823.725,5820395.771],[387831.967,5820388.292],[387833.892,5820386.545],[387835.521,5820385.066],[387840.416,5820380.624],[387842.032,5820379.15],[387843.951,5820377.397],[387860.368,5820362.416],[387875.4,5820354.171],[387877.192,5820353.188],[387915.389,5820322.299],[387916.523,5820321.774],[387931.676,5820307.234],[387932.818,5820306.726],[387932.163,5820305.25],[387934.309,5820304.161],[387935.945,5820302.594],[387940.202,5820297.578],[387944.27,5820292.465],[387948.234,5820287.264],[387981.914,5820237.869],[388000.842,5820210.758],[388003.346,5820206.757],[388034.75,5820161.323],[388035.409,5820160.358],[388038.254,5820156.2],[388038.914,5820155.235],[388043.64,5820148.765],[388051.682,5820137.873],[388052.069,5820137.358],[388067.319,5820117.004],[388075.32,5820106.326],[388079.261,5820103.25],[388081.403,5820100.705],[388086.426,5820094.5],[388090.309,5820089.991],[388098.418,5820081.193],[388106.737,5820072.561],[388115.332,5820064.202],[388124.099,5820056.062],[388141.92,5820039.984],[388153.002,5820031.567],[388162.445,5820024.117],[388187.743,5820004.533],[388193.93,5819999.426],[388203.011,5819991.517],[388210.33,5819984.58],[388240.79,5819955.743],[388257.98,5819938.966],[388263.47,5819933.086],[388287.692,5819911.566],[388302.338,5819899.93],[388313.43,5819891.034],[388314.586,5819890.108],[388332.082,5819876.076],[388334.42,5819874.227],[388349.134,5819862.625],[388349.806,5819862.202],[388373.463,5819847.433],[388374.501,5819846.793],[388374.341,5819846.071],[388374.326,5819846.007],[388374.905,5819845.76],[388379.186,5819843.934],[388384.078,5819841.951],[388389.589,5819839.877],[388395.151,5819837.921],[388398.909,5819836.77],[388402.698,5819835.718],[388406.499,5819834.735],[388424.869,5819830.135],[388425.935,5819829.868],[388441.072,5819826.078],[388452.528,5819823.29],[388455.376,5819822.626],[388458.254,5819822.032],[388461.135,5819821.567],[388464.047,5819821.182],[388467.979,5819820.737],[388471.892,5819820.382],[388475.805,5819820.058],[388481.716,5819819.615],[388487.628,5819819.223],[388491.525,5819819.029],[388495.471,5819818.884],[388499.41,5819818.799],[388503.35,5819818.814],[388507.29,5819818.869],[388511.222,5819818.974],[388515.155,5819819.149],[388519.089,5819819.394],[388523.015,5819819.68],[388526.972,5819820.064],[388530.9,5819820.52],[388534.849,5819821.014],[388540.794,5819821.821],[388553.177,5819823.626],[388554.2,5819823.786],[388559.637,5819824.673],[388564.223,5819825.46],[388565.405,5819825.663],[388571.136,5819826.774],[388575.634,5819827.708],[388580.072,5819828.674],[388585.786,5819829.975],[388591.471,5819831.306],[388597.437,5819832.713],[388603.385,5819834.18],[388607.163,5819835.148],[388610.942,5819836.176],[388614.703,5819837.274],[388625.906,5819840.661],[388638.227,5819844.436],[388649.372,5819847.894],[388654.996,5819849.666],[388660.599,5819851.46],[388666.204,5819853.303],[388671.213,5819855.06],[388676.59,5819856.944],[388681.927,5819858.939],[388687.221,5819861.044],[388692.47,5819863.26],[388697.672,5819865.584],[388702.824,5819868.017],[388707.924,5819870.556],[388712.971,5819873.2],[388717.961,5819875.949],[388722.893,5819878.802],[388727.765,5819881.756],[388729.995,5819883.155],[388737.813,5819888.076],[388745.458,5819893.457],[388754.852,5819900.471],[388763.514,5819907.926],[388776.667,5819920.925],[388795.216,5819940.402],[388802.348,5819947.672],[388809.204,5819954.861],[388831.383,5819977.092],[388845.58,5819989.959],[388853.185,5819996.479],[388861.024,5820002.689],[388869.09,5820008.593],[388877.335,5820014.258],[388887.01,5820020.178],[388896.109,5820025.248],[388905.071,5820029.708],[388914.274,5820033.608],[388923.465,5820037.537],[388932.713,5820041.337],[388941.96,5820045.138],[388951.247,5820048.846],[388962.081,5820052.958],[388989.417,5820063.887],[388998.806,5820067.578],[388999.986,5820067.991],[389000.584,5820068.171],[389001.43,5820068.392],[389002.283,5820068.579],[389003.144,5820068.729],[389004.01,5820068.844],[389004.88,5820068.923],[389005.752,5820068.966],[389020.928,5820069.043],[389026.083,5820069.069],[389026.822,5820069.071],[389027.56,5820069.111],[389028.295,5820069.189],[389029.024,5820069.306],[389029.747,5820069.461],[389030.461,5820069.654],[389031.163,5820069.883],[389031.853,5820070.149],[389072.472,5820086.045],[389073.667,5820086.551],[389074.579,5820087.004],[389075.25,5820087.385],[389075.903,5820087.797],[389076.537,5820088.238],[389077.151,5820088.706],[389077.743,5820089.202],[389078.312,5820089.724],[389082.909,5820093.897],[389086.571,5820097.222],[389088.655,5820099.22],[389098.087,5820108.264],[389102.972,5820110.044],[389104.489,5820110.647],[389106.005,5820111.254],[389107.519,5820111.866],[389110.257,5820112.984],[389112.989,5820114.116],[389115.715,5820115.262],[389121.412,5820117.71],[389127.083,5820120.219],[389132.726,5820122.788],[389138.342,5820125.418],[389142.163,5820127.258],[389145.973,5820129.118],[389149.774,5820130.999],[389152.996,5820132.614],[389156.211,5820134.244],[389159.418,5820135.889],[389169.516,5820141.341],[389174.23,5820144.029],[389178.968,5820146.675],[389183.728,5820149.281],[389188.018,5820151.622],[389192.294,5820153.99],[389196.555,5820156.383],[389200.358,5820158.548],[389204.15,5820160.734],[389207.929,5820162.94],[389211.51,5820165.071],[389215.06,5820167.253],[389218.58,5820169.484],[389221.285,5820171.245],[389223.971,5820173.036],[389226.637,5820174.855],[389229.863,5820177.182],[389233.058,5820179.55],[389236.222,5820181.96],[389239.201,5820184.288],[389242.15,5820186.652],[389245.071,5820189.052],[389247.15,5820190.83],[389249.208,5820192.634],[389251.243,5820194.463],[389258.185,5820201.05],[389259.991,5820202.859],[389261.776,5820204.689],[389263.541,5820206.538],[389265.758,5820208.923],[389267.94,5820211.339],[389270.087,5820213.787],[389272.199,5820216.265],[389279.182,5820224.501],[389285.592,5820232.544],[389290.538,5820238.504],[389291.619,5820239.809],[389297.094,5820246.715],[389299.619,5820249.978],[389302.066,5820253.299],[389304.434,5820256.678],[389306.721,5820260.111],[389308.928,5820263.597],[389311.051,5820267.135],[389313.09,5820270.721],[389315.117,5820274.301],[389317.217,5820277.839],[389319.387,5820281.335],[389321.627,5820284.786],[389323.936,5820288.191],[389326.313,5820291.549],[389328.758,5820294.858],[389337.3,5820306.335],[389336.989,5820306.635],[389337.38,5820307.206],[389345.25,5820318.115],[389353.121,5820329.026],[389353.545,5820329.598],[389354.37,5820328.803],[389359.972,5820337.866],[389362.295,5820341.822],[389364.707,5820345.724],[389367.205,5820349.571],[389369.79,5820353.362],[389372.459,5820357.093],[389375.211,5820360.763],[389378.045,5820364.37],[389380.525,5820367.308],[389383.079,5820370.182],[389385.706,5820372.99],[389388.404,5820375.729],[389391.171,5820378.399],[389392.764,5820379.875],[389394.377,5820381.328],[389396.011,5820382.758],[389397.666,5820384.164],[389399.313,5820385.525],[389401.035,5820386.903],[389402.749,5820388.236],[389404.482,5820389.545],[389408.027,5820392.017],[389411.625,5820394.411],[389415.275,5820396.724],[389418.976,5820398.957],[389422.725,5820401.107],[389426.52,5820403.174],[389427.376,5820403.625],[389428.235,5820404.072],[389429.095,5820404.515],[389431.562,5820405.83],[389434.044,5820407.115],[389436.541,5820408.371],[389439.053,5820409.597],[389441.58,5820410.792],[389444.12,5820411.958],[389446.675,5820413.092],[389449.243,5820414.196],[389451.824,5820415.269],[389456.965,5820417.288],[389459.524,5820418.235],[389462.36,5820419.25],[389465.208,5820420.228],[389468.07,5820421.169],[389470.943,5820422.072],[389473.828,5820422.937],[389476.723,5820423.765],[389479.63,5820424.554],[389482.546,5820425.306],[389490.03,5820427.084],[389492.506,5820427.602],[389494.987,5820428.094],[389497.474,5820428.558],[389499.965,5820428.995],[389504.358,5820429.697],[389508.763,5820430.315],[389513.179,5820430.847],[389517.605,5820431.294],[389522.039,5820431.655],[389526.479,5820431.93],[389526.495,5820432.528],[389528.273,5820499.431],[389531.378,5820517.01],[389531.389,5820517.1],[389533.552,5820519.899],[389533.733,5820523.585],[389530.454,5820523.667],[389530.566,5820528.465],[389530.898,5820543.131],[389531.812,5820583.432],[389532.209,5820600.924],[389532.481,5820612.887],[389533.427,5820654.71],[389529.787,5820658.659],[389528.611,5820659.933],[389510.355,5820679.717],[389508.076,5820682.101],[389506.739,5820683.488],[389485.157,5820705.995],[389486.854,5820766.458],[389489.099,5820846.429],[389491.773,5820848.971],[389492.368,5820849.536],[389649.477,5820845.917],[389654.28,5820850.845],[389659.061,5820856.164],[389663.315,5820861.662],[389667.316,5820867.466],[389670.982,5820873.606],[389674.073,5820879.946],[389677.089,5820886.618],[389679.707,5820893.848],[389681.379,5820901.356],[389682.618,5820909.151],[389683.2,5820915.57],[389683.529,5820922.353],[389683.572,5820929.872],[389683.267,5820936.957],[389682.528,5820944.38],[389681.648,5820951.197],[389680.582,5820958.246],[389679.22,5820966.531],[389681.607,5820966.946],[389681.084,5820969.916],[389681.044,5820970.342],[389681.063,5820970.768],[389681.14,5820971.189],[389681.274,5820971.595],[389681.463,5820971.978],[389681.742,5820972.381],[389682.082,5820972.735],[389682.474,5820973.031],[389682.907,5820973.261],[389684.259,5820973.895],[389683.423,5820975.661],[389678.56,5820987.28],[389673.371,5820999.69],[389673.181,5821000.074],[389673.025,5821000.397],[389672.437,5821000.008],[389671.837,5821001.029],[389670.313,5821000.318],[389670.086,5821000.206],[389669.845,5821000.13],[389669.595,5821000.091],[389669.343,5821000.091],[389669.093,5821000.13],[389668.851,5821000.206],[389668.54,5821000.441],[389668.254,5821000.706],[389667.995,5821000.998],[389667.766,5821001.313],[389667.569,5821001.65],[389666.974,5821002.992],[389666.437,5821004.182],[389665.275,5821003.544],[389655.904,5821020.271],[389653.417,5821024.608],[389650.788,5821028.878],[389648.139,5821033.118],[389645.409,5821037.299],[389642.669,5821041.481],[389637.016,5821049.738],[389631.252,5821057.927],[389621.063,5821072.13],[389588.253,5821117.161],[389586.276,5821119.968],[389578.894,5821130.868],[389580.19,5821131.673],[389578.359,5821134.277],[389576.513,5821137.092],[389573.814,5821141.363],[389570.888,5821146.259],[389542.196,5821195.441],[389521.73,5821230.787],[389516.691,5821239.773],[389513.962,5821244.534],[389511.971,5821248.132],[389511.417,5821249.143],[389509.68,5821252.295],[389505.999,5821259.064],[389505.738,5821259.539],[389502.899,5821264.843],[389499.435,5821271.428],[389496.716,5821276.73],[389494.365,5821281.384],[389491.925,5821286.63],[389490.562,5821285.976],[389487.532,5821292.753],[389482.901,5821303.711],[389478.143,5821314.84],[389471.896,5821330.208],[389467.084,5821342.188],[389466.86,5821342.746],[389466.506,5821343.639],[389465.173,5821346.983],[389464.803,5821347.911],[389460.298,5821359.186],[389455.826,5821370.11],[389451.551,5821380.351],[389446.42,5821392.528],[389445.648,5821394.362],[389442.949,5821400.673],[389437.901,5821412.328],[389432.215,5821424.596],[389431.597,5821425.925],[389430.079,5821429.19],[389429.659,5821430.094],[389423.419,5821443.191],[389408.953,5821472.244],[389403.392,5821483.209],[389387.634,5821513.707],[389384.737,5821519.142],[389380.696,5821526.408],[389377.525,5821532.648],[389372.595,5821541.581],[389367.933,5821549.849],[389364.477,5821555.844],[389359.225,5821564.663],[389336.543,5821602.802],[389321.979,5821606.749],[389319.062,5821611.644],[389318.887,5821611.939],[389316.504,5821615.942],[389277.84,5821680.876],[389275.609,5821684.622],[389212.096,5821791.289],[389208.572,5821797.208],[389186.585,5821834.133],[389163.254,5821873.329],[389157.243,5821883.418],[389152.498,5821891.382],[389154.058,5821892.134],[389189.032,5821908.984],[389192.986,5821910.89],[389189.017,5821917.314],[389174.332,5821941.077],[389174.069,5821941.541],[389173.841,5821942.022],[389173.649,5821942.518],[389173.493,5821943.028],[389173.376,5821943.547],[389173.297,5821944.074],[389173.256,5821944.605],[389173.255,5821945.136],[389173.293,5821945.667],[389173.37,5821946.194],[389173.485,5821946.714],[389173.638,5821947.224],[389173.828,5821947.722],[389174.054,5821948.204],[389174.315,5821948.668],[389174.609,5821949.112],[389174.936,5821949.533],[389175.292,5821949.929],[389175.676,5821950.298],[389176.086,5821950.637],[389176.52,5821950.946],[389176.975,5821951.222],[389179.235,5821952.479],[389179.896,5821952.846],[389177.239,5821960.117],[389174.545,5821967.466],[389173.91,5821969.338],[389167.475,5821968.04],[389163.504,5821967.247],[389159.958,5821966.534],[389159.748,5821966.504],[389159.538,5821966.503],[389159.329,5821966.532],[389159.126,5821966.59],[389158.933,5821966.675],[389158.753,5821966.787],[389154.046,5821970.096],[389153.839,5821970.264],[389153.655,5821970.457],[389153.496,5821970.671],[389153.366,5821970.904],[389153.266,5821971.151],[389152.321,5821973.971],[389151.506,5821976.404],[389150.57,5821979.153],[389149.602,5821981.891],[389148.603,5821984.619],[389148.242,5821985.534],[389148.113,5821985.831],[389147.849,5821986.436],[389147.424,5821987.324],[389146.966,5821988.195],[389146.477,5821989.049],[389143.803,5821993.539],[389143.314,5821994.322],[389142.798,5821995.087],[389142.253,5821995.832],[389141.682,5821996.557],[389141.084,5821997.261],[389138.363,5822000.372],[389137.243,5822001.635],[389136.189,5822002.79],[389136.105,5822002.882],[389134.95,5822004.114],[389133.778,5822005.329],[389132.926,5822006.167],[389132.047,5822006.977],[389131.143,5822007.759],[389130.214,5822008.511],[389129.261,5822009.232],[389128.286,5822009.923],[389128.889,5822010.469],[389130.535,5822011.96],[389135.551,5822016.523],[389136.083,5822017.007],[389137.393,5822018.199],[389121.349,5822030.034],[389118.151,5822027.167],[389115.73,5822024.996],[389114.076,5822023.513],[389110.983,5822020.722],[389108.369,5822022.351],[389108.296,5822022.392],[389107.321,5822022.998],[389097.938,5822028.829],[389079.726,5822040.034],[389058.335,5822053.201],[389011.239,5822082.373],[389005.158,5822086.141],[389003.786,5822086.991],[388997.854,5822090.684],[388975.382,5822104.516],[388971.978,5822106.64],[388970.965,5822107.264],[388965.969,5822110.345],[388966.392,5822111.026],[388961.123,5822113.697],[388960.008,5822114.243],[388958.879,5822114.759],[388957.737,5822115.243],[388956.581,5822115.696],[388955.413,5822116.117],[388954.234,5822116.505],[388953.045,5822116.861],[388951.847,5822117.183],[388950.64,5822117.473],[388949.426,5822117.729],[388948.205,5822117.952],[388947.08,5822118.123],[388945.95,5822118.256],[388944.817,5822118.35],[388943.681,5822118.404],[388942.544,5822118.42],[388935.645,5822118.421],[388930.883,5822118.282],[388929.755,5822118.235],[388928.628,5822118.153],[388927.504,5822118.035],[388926.384,5822117.881],[388925.27,5822117.692],[388924.163,5822117.467],[388923.063,5822117.207],[388921.973,5822116.912],[388920.892,5822116.583],[388919.822,5822116.22],[388918.764,5822115.822],[388917.719,5822115.392],[388907.203,5822110.863],[388908.624,5822108.816],[388906.772,5822107.661],[388892.463,5822096.105],[388891.68,5822095.498],[388890.875,5822094.92],[388890.048,5822094.375],[388889.201,5822093.862],[388888.334,5822093.383],[388887.449,5822092.937],[388886.547,5822092.526],[388885.631,5822092.151],[388884.7,5822091.811],[388883.757,5822091.508],[388882.803,5822091.242],[388881.839,5822091.013],[388880.867,5822090.821],[388879.888,5822090.668],[388878.904,5822090.552],[388877.917,5822090.475],[388876.927,5822090.436],[388875.937,5822090.436],[388874.947,5822090.474],[388873.96,5822090.551],[388872.976,5822090.666],[388871.997,5822090.819],[388871.025,5822091.01],[388870.061,5822091.239],[388869.107,5822091.505],[388868.163,5822091.807],[388866.685,5822092.334],[388865.22,5822092.897],[388863.769,5822093.496],[388862.334,5822094.132],[388860.915,5822094.803],[388859.513,5822095.509],[388858.129,5822096.249],[388856.764,5822097.024],[388854.786,5822098.181],[388844.678,5822104.088],[388833.834,5822110.48],[388839.389,5822114.497],[388840.091,5822114.07],[388851.878,5822122.445],[388849.086,5822123.968],[388847.774,5822124.686],[388847.325,5822124.931],[388842.307,5822129.226],[388838.204,5822132.184],[388822.296,5822139.586],[388817.219,5822141.948],[388751.306,5822172.616],[388732.98,5822181.143],[388726.575,5822184.123],[388685.612,5822203.182],[388680.105,5822205.744],[388677.922,5822206.759],[388676.779,5822207.292],[388658.655,5822215.724],[388651.455,5822219.067],[388629.699,5822229.169],[388621.395,5822233.024],[388617.984,5822234.612],[388585.315,5822249.831],[388579.711,5822252.437],[388577.673,5822253.385],[388409.026,5822331.817],[388405.659,5822333.043],[388402.264,5822334.187],[388398.841,5822335.249],[388395.395,5822336.228],[388391.925,5822337.123],[388388.435,5822337.934],[388384.926,5822338.66],[388376.692,5822340.081],[388346.732,5822341.74],[388315.895,5822333.198],[388309.004,5822331.291],[388285.219,5822329.846],[388272.74,5822329.089],[388261.289,5822325.344],[388251.909,5822322.278],[388193.11,5822303.05],[388187.952,5822301.363],[388157.799,5822291.503],[388104.513,5822274.358],[388100.843,5822273.178],[388058.016,5822259.398],[388053.242,5822257.913],[388048.449,5822256.493],[388043.637,5822255.136],[388042.328,5822254.779],[388036.384,5822253.223],[388030.416,5822251.764],[388024.424,5822250.405],[388018.411,5822249.144],[388012.378,5822247.983],[388006.326,5822246.922],[388000.258,5822245.96],[387995.981,5822245.344],[387991.697,5822244.778],[387987.406,5822244.262],[387983.11,5822243.795],[387980.283,5822243.515],[387977.635,5822243.273],[387971.496,5822242.785],[387965.35,5822242.398],[387959.198,5822242.113],[387953.042,5822241.93],[387946.885,5822241.849],[387940.726,5822241.87],[387934.569,5822241.992],[387930.198,5822242.141],[387925.829,5822242.342],[387921.463,5822242.593],[387919.032,5822242.756],[387914.174,5822243.128],[387907.669,5822243.727],[387901.175,5822244.44],[387894.695,5822245.267],[387888.23,5822246.207],[387881.783,5822247.261],[387875.356,5822248.428],[387868.95,5822249.707],[387862.567,5822251.099],[387857.042,5822252.426],[387854.167,5822253.115],[387769.613,5822273.401],[387739.44,5822280.639],[387730.484,5822282.788],[387725.045,5822284.093],[387717.449,5822285.917],[387663.032,5822298.976],[387658.815,5822299.988],[387601.295,5822313.794],[387598.962,5822314.353],[387584.586,5822317.804],[387574.866,5822320.146],[387534.67,5822329.829],[387532.334,5822330.391],[387512.895,5822335.074],[387503.176,5822337.416],[387462.988,5822347.097],[387460.435,5822347.711],[387409.516,5822359.978],[387399.146,5822362.736],[387396.052,5822363.559],[387394.039,5822364.095],[387375.836,5822369.761],[387357.279,5822376.597],[387351.596,5822378.691],[387346.407,5822380.899],[387341.746,5822382.881],[387340.234,5822383.524],[387338.941,5822384.132],[387336.697,5822385.185],[387328.4,5822389.08],[387282.348,5822411.965],[387280.891,5822412.702],[387275.114,5822415.628],[387265.275,5822420.611],[387200.447,5822453.44],[387199.504,5822453.917],[387167.381,5822470.185],[387164.776,5822471.504],[387099.08,5822504.774],[387085.359,5822511.297],[387077.194,5822515.18],[387072.659,5822517.336],[387062.312,5822521.688],[387049.61,5822526.985],[387047.355,5822527.925],[387030.635,5822532.676],[387027.813,5822533.478],[387024.345,5822534.464],[387020.251,5822535.824],[387008.588,5822539.698],[387003.712,5822541.318],[386999.836,5822542.55],[386993.225,5822544.65],[386987.131,5822545.978],[386985.913,5822546.243],[386982.349,5822547.019],[386960.949,5822550.49],[386934.614,5822552.141],[386886.835,5822552.497],[386851.617,5822551.164],[386848.088,5822550.797],[386828.775,5822548.788],[386818.831,5822547.753],[386759.168,5822541.547],[386749.225,5822540.512],[386698.794,5822535.267],[386685.214,5822534.727],[386669.863,5822535.019]]]]},"geometry_name":"geom","properties":{"uuid":"DEBE01YYK0000009","sch":"110000010102","nam":"Moabit","gdf":7709344,"bezeich":"AX_KommunalesGebiet"},"bbox":[385470.469,5819811.839,389684.259,5822574.959]},{"type":"Feature","id":"ortsteile.DEBE03YY6000000L","geometry":{"type":"MultiPolygon","coordinates":[[[[391756.66,5824298.113],[391743.609,5824299.472],[391735.996,5824300.265],[391732.4,5824300.756],[391725.241,5824301.733],[391707.706,5824304.125],[391706.954,5824304.228],[391705.692,5824304.505],[391699.341,5824305.898],[391686.225,5824308.773],[391678.164,5824310.541],[391669.865,5824312.361],[391658.768,5824314.794],[391646.984,5824317.378],[391636.337,5824319.714],[391627.556,5824321.639],[391622.443,5824322.76],[391619.646,5824323.373],[391609.677,5824325.56],[391576.812,5824332.767],[391573.519,5824333.488],[391571.352,5824333.964],[391570.509,5824334.149],[391562.664,5824335.869],[391528.545,5824343.352],[391523.554,5824344.446],[391516.278,5824346.176],[391515.351,5824346.397],[391502.19,5824349.528],[391501.132,5824349.779],[391495.736,5824351.063],[391491.123,5824352.159],[391461.57,5824359.188],[391461.132,5824359.293],[391444.459,5824363.28],[391436.795,5824364.971],[391434.041,5824365.58],[391404.038,5824372.203],[391394.294,5824374.355],[391392.071,5824374.209],[391389.859,5824373.949],[391387.662,5824373.577],[391385.488,5824373.093],[391383.341,5824372.498],[391381.228,5824371.795],[391379.153,5824370.984],[391377.122,5824370.068],[391339.534,5824344.957],[391337.659,5824340.255],[391341.402,5824297.877],[391339.406,5824298.085],[391339.171,5824241.604],[391339.106,5824226.086],[391339.114,5824223.936],[391339.292,5824175.977],[391338.283,5824126.13],[391345.521,5824050.419],[391352.015,5824000.719],[391356.581,5823972.695],[391358.522,5823960.757],[391359.584,5823954.225],[391360.063,5823951.28],[391360.405,5823948.576],[391360.478,5823948.001],[391360.624,5823946.849],[391360.779,5823945.625],[391360.857,5823945.014],[391361.548,5823939.557],[391362.38,5823932.984],[391363.002,5823928.073],[391365.218,5823910.576],[391369.47,5823877.057],[391376.216,5823838.022],[391385.14,5823778.377],[391389.904,5823731.311],[391389.803,5823728.297],[391389.705,5823725.352],[391389.138,5823708.417],[391385.97,5823683.819],[391382.526,5823663.647],[391376.248,5823639.518],[391369.605,5823616.257],[391369.454,5823615.778],[391367.525,5823609.672],[391367.445,5823609.418],[391363.7,5823597.55],[391356.81,5823577.593],[391350.234,5823565.649],[391344.099,5823555.397],[391337.45,5823544.905],[391332.695,5823538.336],[391328.301,5823532.33],[391325.596,5823528.871],[391318.41,5823519.912],[391314.023,5823514.442],[391304.17,5823502.157],[391301.915,5823499.345],[391326.604,5823502.372],[391331.815,5823503.011],[391363.583,5823506.907],[391386.955,5823509.773],[391408.56,5823512.422],[391422.733,5823514.16],[391432.214,5823515.323],[391441.6,5823516.474],[391441.65,5823515.883],[391443.798,5823490.784],[391448.057,5823440.919],[391454.439,5823366.213],[391455.136,5823359.321],[391455.614,5823354.591],[391455.999,5823350.784],[391456.401,5823346.804],[391456.817,5823342.692],[391457.253,5823338.38],[391457.661,5823334.344],[391458.115,5823329.849],[391459.384,5823317.294],[391459.741,5823313.766],[391459.938,5823312.951],[391463.098,5823300.109],[391465.179,5823291.654],[391467.788,5823281.062],[391468.339,5823278.826],[391468.846,5823276.766],[391478.626,5823237.014],[391479.274,5823234.379],[391483.671,5823216.507],[391484.625,5823212.626],[391484.687,5823212.382],[391484.726,5823212.217],[391499.018,5823154.126],[391501.181,5823145.336],[391504.058,5823133.641],[391523.894,5823053.007],[391525.888,5823044.899],[391526.241,5823043.483],[391526.327,5823042.771],[391463.098,5823034.683],[391462.944,5823034.663],[391461.685,5823034.502],[391461.981,5823032.197],[391459.335,5823031.857],[391452.111,5823031.628],[391451.651,5823031.613],[391455.876,5823014.574],[391457.979,5823005.795],[391469.148,5822959.047],[391479.076,5822917.481],[391480.329,5822911.338],[391489.327,5822867.1],[391490.829,5822856.172],[391493.952,5822833.579],[391495.71,5822820.86],[391499.391,5822793.935],[391503.537,5822763.817],[391507.544,5822731.317],[391509.841,5822713.677],[391512.188,5822695.658],[391514.324,5822679.258],[391514.745,5822677.676],[391516.013,5822672.913],[391517.567,5822667.079],[391519.501,5822659.815],[391525.471,5822637.389],[391531.071,5822615.886],[391555.604,5822520.766],[391561.197,5822504.372],[391591.089,5822419.005],[391606.856,5822373.723],[391608.031,5822370.35],[391609.453,5822366.266],[391611.447,5822360.54],[391613.649,5822354.218],[391614.565,5822351.585],[391614.605,5822351.471],[391627.38,5822314.9],[391674.898,5822335.692],[391677.87,5822336.991],[391689.205,5822341.951],[391719.687,5822355.289],[391722.197,5822346.566],[391723.518,5822341.974],[391725.245,5822335.97],[391726.573,5822331.355],[391729.113,5822322.541],[391738.713,5822326.739],[391752.939,5822332.938],[391774.528,5822342.436],[391808.845,5822317.914],[391814.569,5822296.479],[391816.636,5822288.735],[391817.268,5822286.367],[391819.216,5822279.071],[391819.813,5822276.832],[391821.447,5822270.715],[391821.999,5822268.648],[391823.998,5822261.161],[391826.151,5822253.094],[391826.775,5822250.758],[391828.778,5822243.258],[391831.679,5822232.388],[391832.517,5822229.255],[391833.67,5822224.933],[391835.056,5822219.74],[391835.764,5822217.09],[391838.51,5822206.807],[391838.648,5822206.316],[391843.013,5822190.78],[391849.676,5822167.065],[391849.783,5822166.68],[391846.047,5822165.526],[391849.872,5822152.749],[391853.438,5822153.675],[391853.946,5822151.866],[391859.947,5822130.506],[391856.041,5822129.358],[391878.178,5822048.942],[391883.034,5822050.241],[391884.269,5822045.873],[391886.428,5822038.237],[391887.091,5822035.891],[391891.544,5822020.145],[391892.273,5822017.566],[391894.586,5822009.386],[391895.8,5822005.098],[391897.573,5821998.828],[391899.281,5821992.788],[391900.089,5821989.982],[391901.339,5821985.64],[391905.173,5821972.318],[391906.362,5821968.184],[391910.695,5821953.134],[391911.546,5821950.176],[391915.552,5821936.258],[391915.735,5821935.624],[391916.693,5821932.297],[391919.642,5821922.047],[391920.706,5821918.351],[391921.732,5821914.789],[391923.762,5821907.737],[391924.668,5821904.588],[391925.664,5821901.127],[391926.633,5821897.759],[391927.53,5821894.642],[391933.853,5821872.676],[391935.132,5821868.232],[391937.397,5821860.364],[391939.52,5821851.52],[391947.924,5821816.592],[391951.657,5821804.758],[391956.438,5821789.599],[391960.433,5821776.93],[391960.742,5821775.952],[391961.366,5821773.972],[391964.389,5821764.387],[391964.621,5821763.65],[391965.225,5821761.739],[391969.777,5821747.304],[391971.351,5821742.315],[391972.051,5821740.092],[391973.647,5821735.034],[391975.076,5821730.504],[391976.069,5821727.356],[391981.452,5821710.284],[391983.984,5821702.259],[391987.257,5821700.027],[391989.304,5821698.631],[391992.167,5821696.679],[391996.62,5821693.642],[392005.202,5821687.79],[392026.085,5821673.551],[392041.724,5821662.942],[392029.844,5821644.023],[392003.435,5821601.384],[392001.724,5821598.622],[391994.828,5821587.49],[391994.407,5821586.808],[391993.231,5821584.91],[391987.558,5821575.752],[391981.907,5821566.628],[391980.715,5821564.704],[391980.301,5821564.037],[391971.416,5821549.69],[391970.391,5821548.035],[391960.805,5821532.352],[391959.06,5821529.497],[391957.778,5821527.401],[391948.318,5821511.929],[391946.683,5821509.255],[391942.025,5821501.638],[391940.409,5821498.995],[391932.499,5821486.066],[391924.774,5821473.438],[391916.773,5821460.362],[391914.292,5821456.307],[391913.127,5821454.402],[391907.396,5821445.035],[391906.321,5821443.278],[391901.72,5821414.254],[391901.318,5821412.218],[391900.218,5821406.646],[391896.361,5821387.101],[391894.847,5821379.428],[391894.367,5821376.994],[391892.82,5821369.152],[391889.849,5821354.096],[391889.433,5821351.986],[391889.305,5821351.338],[391889.159,5821350.601],[391888.634,5821347.936],[391885.863,5821333.892],[391884.371,5821326.334],[391883.987,5821324.389],[391883.881,5821323.851],[391881.478,5821311.671],[391881.109,5821309.8],[391880.48,5821306.436],[391877.568,5821290.873],[391877.126,5821288.834],[391872.978,5821269.718],[391874.746,5821263.961],[391876.373,5821258.658],[391879.016,5821250.048],[391877.371,5821246.44],[391867.744,5821225.317],[391866.858,5821222.515],[391865.361,5821217.778],[391858.584,5821196.341],[391843.408,5821148.334],[391842.745,5821146.236],[391844.949,5821145.579],[391863.96,5821139.907],[391873.527,5821137.007],[391879.7,5821135.134],[391880.459,5821134.905],[391883.124,5821134.096],[391895.395,5821130.375],[391902.915,5821128.155],[391905.222,5821127.474],[391912.846,5821125.223],[391912.82,5821125.137],[391920.028,5821122.987],[391922.279,5821122.315],[391929.324,5821120.212],[391929.369,5821120.345],[391945.667,5821115.534],[391952.063,5821113.645],[391953.751,5821113.139],[391966.052,5821109.45],[391967.679,5821108.949],[391972.146,5821107.574],[391984.678,5821103.718],[392005.883,5821097.411],[392016.137,5821094.323],[392018.265,5821093.683],[392032.072,5821088.07],[392044.139,5821083.243],[392055.569,5821078.671],[392072.974,5821071.71],[392073.711,5821071.415],[392076.585,5821070.265],[392078.064,5821069.674],[392088.08,5821065.668],[392090.986,5821064.506],[392093.341,5821063.564],[392099.515,5821061.095],[392120.883,5821053.504],[392146.247,5821044.211],[392194.472,5821030.946],[392195.581,5821030.641],[392198.226,5821029.914],[392212.133,5821026.09],[392222.209,5821023.321],[392225.238,5821022.488],[392227.65,5821021.825],[392235.843,5821017.789],[392239.222,5821016.126],[392243.228,5821014.155],[392246.009,5821012.786],[392249.56,5821011.04],[392253.035,5821009.331],[392253.982,5821008.865],[392259.301,5821006.249],[392265.296,5821003.3],[392270.44,5821000.77],[392286.871,5820993.061],[392290.636,5820991.227],[392333.894,5820970.152],[392348.422,5820963.072],[392357.826,5820958.449],[392362.658,5820956.071],[392380.452,5820947.352],[392420.971,5820927.548],[392424.488,5820925.83],[392430.081,5820923.099],[392435.24,5820920.581],[392439.093,5820918.702],[392466.612,5820905.281],[392485.696,5820895.975],[392490.43,5820893.666],[392505.081,5820886.523],[392540.011,5820854.946],[392552.804,5820843.32],[392557.639,5820840.883],[392567.083,5820835.963],[392566.798,5820835.717],[392588.611,5820819.12],[392589.589,5820820.391],[392602.99,5820810.257],[392601.998,5820808.967],[392628.894,5820788.462],[392674.071,5820753.851],[392693.405,5820739.493],[392705.228,5820731.097],[392717.036,5820722.682],[392728.831,5820714.246],[392740.612,5820705.792],[392752.378,5820697.317],[392764.131,5820688.823],[392775.869,5820680.309],[392793.702,5820666.935],[392821.98,5820693.974],[392913.679,5820781.657],[392948.66,5820815.103],[392988.131,5820852.845],[393001.583,5820865.708],[393057.066,5820918.76],[393063.269,5820924.692],[393074.574,5820922.738],[393075.81,5820922.524],[393087.802,5820920.449],[393118.365,5820921.717],[393119.366,5820923.219],[393122.436,5820921.9],[393132.565,5820922.375],[393145.418,5820918.767],[393152.268,5820931.669],[393157.642,5820942.685],[393175.354,5820945.679],[393177.826,5820946.096],[393577.138,5821013.599],[393902.426,5821068.445],[393960.497,5821078.237],[393980.389,5821081.593],[394005.982,5821085.911],[394026.942,5821053.426],[394059.091,5821003.603],[394060.416,5821001.549],[394090.046,5820998.389],[394114.232,5821022.595],[394116.668,5821025.032],[394143.765,5821052.15],[394195.21,5821103.628],[394198.223,5821106.638],[394201.46,5821109.874],[394249.127,5821157.528],[394252.975,5821161.374],[394260.206,5821168.605],[394334.834,5821243.217],[394337.593,5821238.83],[394383.231,5821166.265],[394396.581,5821145.038],[394582.81,5820848.933],[394610.586,5820804.771],[394614.377,5820790.09],[394615.298,5820786.503],[394639.96,5820747.287],[394655.527,5820722.533],[394707.208,5820746.468],[394754.189,5820768.235],[394757.396,5820769.721],[394804.174,5820791.389],[394815.856,5820796.796],[394824.975,5820801.011],[394827.462,5820802.16],[394836.637,5820806.4],[394843.947,5820809.782],[394846.29,5820810.867],[394853.889,5820814.391],[394867.153,5820820.546],[394883.026,5820827.917],[394885.424,5820829.031],[394902.46,5820836.948],[394903.548,5820837.318],[394926.708,5820845.197],[394946.508,5820851.933],[394980.535,5820863.509],[394998.929,5820869.786],[395014.216,5820839.218],[395017.152,5820831.692],[395017.333,5820831.229],[395040.463,5820771.934],[395043.752,5820763.493],[395064.832,5820709.436],[395072.821,5820688.946],[395094.717,5820632.79],[395104.537,5820607.609],[395126.154,5820552.184],[395154.38,5820479.82],[395157.365,5820472.163],[395157.893,5820470.808],[395161.525,5820461.479],[395169.806,5820440.238],[395175.12,5820426.614],[395204.533,5820351.201],[395219.854,5820311.913],[395223.251,5820303.202],[395228.606,5820289.469],[395231.876,5820281.087],[395255.8,5820269.833],[395238.036,5820232.205],[395235.921,5820227.715],[395230.544,5820216.319],[395203.601,5820159.247],[395194.255,5820139.456],[395314.417,5820100.733],[395320.182,5820098.884],[395364.428,5820084.693],[395393.36,5820075.413],[395399.788,5820073.352],[395425.271,5820065.178],[395441.013,5820060.129],[395453.228,5820056.217],[395460.89,5820053.761],[395468.553,5820051.295],[395476.215,5820048.84],[395485.538,5820045.853],[395489.821,5820044.481],[395509.11,5820038.279],[395515.23,5820036.314],[395521.224,5820034.391],[395535.503,5820029.818],[395540.378,5820028.261],[395542.415,5820027.612],[395545.618,5820026.59],[395553.634,5820024.026],[395556.849,5820022.996],[395596.361,5820010.308],[395599.233,5820009.383],[395626.538,5820000.633],[395638.073,5819996.935],[395652.792,5819992.216],[395668.018,5819987.326],[395682.021,5819982.84],[395688.511,5819980.757],[395693.45,5819979.173],[395697.839,5819979.66],[395734.062,5819983.7],[395765.236,5819987.177],[395777.901,5819988.586],[395791.489,5819990.097],[395878.646,5819999.818],[395889.538,5820001.03],[395979.4,5820011.04],[395999.551,5820013.286],[396086.598,5820022.989],[396144.946,5820029.488],[396169.937,5820032.282],[396232.223,5820039.217],[396267.177,5820043.193],[396275.167,5820044.103],[396286.084,5820045.346],[396287.318,5820045.486],[396301.657,5820047.119],[396303.187,5820047.293],[396328.066,5820050.126],[396333.836,5820050.894],[396313.787,5820084.325],[396291.703,5820120.554],[396280.797,5820144.324],[396260.849,5820177.575],[396238.281,5820209.675],[396215.101,5820240.892],[396189.422,5820269.942],[396169.234,5820289.684],[396161.727,5820297.026],[396152.835,5820304.533],[396131.463,5820322.578],[396101.03,5820345.697],[396068.788,5820367.052],[396034.76,5820386.946],[396001.131,5820405.544],[395965.475,5820420.326],[395928.976,5820434.174],[395892.102,5820444.729],[395855.042,5820454.067],[395781.139,5820470.765],[395768.49,5820473.779],[395723.126,5820484.59],[395708.432,5820488.091],[395664.942,5820511.055],[395623.724,5820533.74],[395606.776,5820543.04],[395582.108,5820556.577],[395550.75,5820573.454],[395541.062,5820578.668],[395501.319,5820604.482],[395464.61,5820633.944],[395454.113,5820644.849],[395451.337,5820647.734],[395447.083,5820652.152],[395445.379,5820653.923],[395444.989,5820654.328],[395441.357,5820658.596],[395438.697,5820661.722],[395438.263,5820662.232],[395423.159,5820679.981],[395418.914,5820684.971],[395413.659,5820691.511],[395402.456,5820705.473],[395384.195,5820734.247],[395377.137,5820745.381],[395351.16,5820787.971],[395331.259,5820819.847],[395324.651,5820830.432],[395316.178,5820843.931],[395301.971,5820866.62],[395298.071,5820872.893],[395274.823,5820911.772],[395274.336,5820912.588],[395272.381,5820915.868],[395276.004,5820921.309],[395281.882,5820930.136],[395322.207,5820943.748],[395327.624,5820945.578],[395367.675,5820959.111],[395399.89,5820969.949],[395578.731,5821030.958],[395601.979,5821066.114],[395607.546,5821076.625],[395619.479,5821099.156],[395622.666,5821105.174],[395625.33,5821110.205],[395642.331,5821142.308],[395644.98,5821147.31],[395668.997,5821192.66],[395686.93,5821226.521],[395698.461,5821248.295],[395747.119,5821340.172],[395760.55,5821365.533],[395768.558,5821387.034],[395770.647,5821391.381],[395843.06,5821429.418],[395842.67,5821430.428],[395842.38,5821431.47],[395842.193,5821432.536],[395842.111,5821433.615],[395842.134,5821434.697],[395842.262,5821435.771],[395842.494,5821436.829],[395842.827,5821437.858],[395843.405,5821439.236],[395844.082,5821440.568],[395844.855,5821441.847],[395845.72,5821443.065],[395846.672,5821444.217],[395847.706,5821445.296],[395848.816,5821446.296],[395849.997,5821447.212],[395848.986,5821452.902],[395876.855,5821467.311],[395878.643,5821468.236],[395947.927,5821504.056],[395956.197,5821508.303],[395962.146,5821511.373],[395968.051,5821514.527],[395973.91,5821517.764],[395979.723,5821521.084],[395985.488,5821524.486],[395991.204,5821527.97],[395996.871,5821531.534],[396002.486,5821535.179],[396016.103,5821544.273],[396016.781,5821543.258],[396017.593,5821543.093],[396018.382,5821542.839],[396019.138,5821542.5],[396019.851,5821542.079],[396020.514,5821541.581],[396026.522,5821545.928],[396027.348,5821546.378],[396028.223,5821546.723],[396029.134,5821546.956],[396030.068,5821547.074],[396031.008,5821547.075],[396031.942,5821546.96],[396032.854,5821546.729],[396033.73,5821546.387],[396034.557,5821545.939],[396035.322,5821545.392],[396036.013,5821544.754],[396039.737,5821540.98],[396042.369,5821542.876],[396044.804,5821544.629],[396042.967,5821547.188],[396045.349,5821548.93],[396045.877,5821548.187],[396080.015,5821572.456],[396100.5,5821587.02],[396122.31,5821602.524],[396122.381,5821603.617],[396135.199,5821612.465],[396138.643,5821614.843],[396137.954,5821618.109],[396137.165,5821621.352],[396136.278,5821624.57],[396135.294,5821627.76],[396134.213,5821630.918],[396132.212,5821636.356],[396117.538,5821676.245],[396095.443,5821733.63],[396084.253,5821760.955],[396079.076,5821772.489],[396078.187,5821774.326],[396076.454,5821776.942],[396074.085,5821779.229],[396071.333,5821781.485],[396063.829,5821787.496],[396062.424,5821788.481],[396060.999,5821789.437],[396059.554,5821790.361],[396058.09,5821791.255],[396056.607,5821792.117],[396055.105,5821792.948],[396053.587,5821793.746],[396052.052,5821794.512],[396021.474,5821807.25],[396019.041,5821808.378],[396012.449,5821812.57],[396010.588,5821813.821],[396008.75,5821815.105],[396006.935,5821816.421],[396005.143,5821817.769],[396003.375,5821819.149],[395983.405,5821835.346],[395985.418,5821839.571],[395997.666,5821865.226],[396004.609,5821880.477],[396015.144,5821903.171],[396017.609,5821908.617],[396046.772,5821973.401],[396047.633,5821975.313],[396073.202,5822032.112],[396071.34,5822032.447],[396067.107,5822033.206],[396065.22,5822033.544],[396064.465,5822027.299],[396064.44,5822027.318],[396060.132,5822030.837],[396050.421,5822037.65],[396049.751,5822038.124],[396038.168,5822046.326],[396032.157,5822050.582],[396023.305,5822056.85],[396014.924,5822062.783],[396014.765,5822062.897],[396005.227,5822069.803],[395995.979,5822076.501],[395989.488,5822081.202],[395983.308,5822085.677],[395973.574,5822092.726],[395969.8,5822095.458],[395964.449,5822099.335],[395957.037,5822104.701],[395947.657,5822111.495],[395947.223,5822111.809],[395944.72,5822113.606],[395935.196,5822120.442],[395934.383,5822121.026],[395854.456,5822178.398],[395852.693,5822179.655],[395834.869,5822192.366],[395809.962,5822210.127],[395807.584,5822211.823],[395782.654,5822229.596],[395779.458,5822231.872],[395770.175,5822238.483],[395767.671,5822240.367],[395755.111,5822249.82],[395744.11,5822258.098],[395734.572,5822265.277],[395732.21,5822267.055],[395719.594,5822276.549],[395717.168,5822278.28],[395706.047,5822286.217],[395685.956,5822301.227],[395657.476,5822322.504],[395630.825,5822342.415],[395611.441,5822356.897],[395601.748,5822364.139],[395592.056,5822371.379],[395590.307,5822372.669],[395588.558,5822373.959],[395586.808,5822375.248],[395585.059,5822376.537],[395575.893,5822383.321],[395566.726,5822390.105],[395547.257,5822404.268],[395527.788,5822418.431],[395465.029,5822463.941],[395446.579,5822477.321],[395430.916,5822488.679],[395423.2,5822494.434],[395413.096,5822501.668],[395411.834,5822502.572],[395403.066,5822508.85],[395383.303,5822523.118],[395360.93,5822539.129],[395281.721,5822595.814],[395256.989,5822613.513],[395231.872,5822631.421],[395270.994,5822672.163],[395270.172,5822673.694],[395268.567,5822676.682],[395256.484,5822699.179],[395234.925,5822739.323],[395213.559,5822727.841],[395207.893,5822738.353],[395205.871,5822742.106],[395202.318,5822748.702],[395196.994,5822758.588],[395195.489,5822761.382],[395191.306,5822759.142],[395167.599,5822746.445],[395149.522,5822736.761],[395144.656,5822734.155],[395134.826,5822728.889],[395122.026,5822739.404],[395119.453,5822741.98],[395102.876,5822756.095],[395087.285,5822766.441],[395000.805,5822823.862],[394977.739,5822839.179],[394916.782,5822882.155],[394884.073,5822905.216],[394843.183,5822934.094],[394839.967,5822936.343],[394788.216,5822972.535],[394766.575,5822987.67],[394762.897,5822990.113],[394762.333,5822991.182],[394748.133,5823018.097],[394738.36,5823026.441],[394725.034,5823037.832],[394710.351,5823050.382],[394702.689,5823041.439],[394694.543,5823031.932],[394681.482,5823039.805],[394677.461,5823042.23],[394673.263,5823044.761],[394665.451,5823049.471],[394653.246,5823056.829],[394641.478,5823063.925],[394639.021,5823065.406],[394629.173,5823071.344],[394624.378,5823074.234],[394610.699,5823082.481],[394599.729,5823089.095],[394588.226,5823096.03],[394583.992,5823098.583],[394578.092,5823102.14],[394571.931,5823105.855],[394555.582,5823115.711],[394545.367,5823121.87],[394534.854,5823128.207],[394534.549,5823128.391],[394518.919,5823137.815],[394493.49,5823153.146],[394463.707,5823171.103],[394408.995,5823204.111],[394408.647,5823204.265],[394374.023,5823219.258],[394370.929,5823220.597],[394294.173,5823253.841],[394294.024,5823253.905],[394293.947,5823253.939],[394292.314,5823254.646],[394289.378,5823255.917],[394281.938,5823259.168],[394271.49,5823263.76],[394257.688,5823270.384],[394245.235,5823276.112],[394227.097,5823284.457],[394209.157,5823292.733],[394195.944,5823298.901],[394185.209,5823303.91],[394183.244,5823298.849],[394182.758,5823298.004],[394182.196,5823297.208],[394181.563,5823296.467],[394180.863,5823295.789],[394180.104,5823295.178],[394179.292,5823294.64],[394178.433,5823294.179],[394177.516,5823293.955],[394176.58,5823293.843],[394175.636,5823293.842],[394174.699,5823293.954],[394173.782,5823294.177],[394172.898,5823294.507],[394172.06,5823294.94],[394164.336,5823298.768],[394162.238,5823299.808],[394154.89,5823303.451],[394146.765,5823307.479],[394145.677,5823308.034],[394144.637,5823308.676],[394143.652,5823309.399],[394142.729,5823310.2],[394141.874,5823311.073],[394141.093,5823312.012],[394140.39,5823313.012],[394139.77,5823314.064],[394139.237,5823315.164],[394138.749,5823316.42],[394138.375,5823317.714],[394138.118,5823319.037],[394137.98,5823320.377],[394137.962,5823321.725],[394138.065,5823323.068],[394138.286,5823324.397],[394138.626,5823325.701],[394135.035,5823327.381],[394127.779,5823330.776],[394126.33,5823331.454],[394115.962,5823336.304],[394098.721,5823344.369],[394079.332,5823353.438],[394078.485,5823353.825],[394061.26,5823361.668],[394051.836,5823365.96],[394001.559,5823388.856],[393993.283,5823392.626],[393980.2,5823398.587],[393965.038,5823405.497],[393938.35,5823417.658],[393931.137,5823420.945],[393921.262,5823425.446],[393904.135,5823433.47],[393880.849,5823443.552],[393873.174,5823446.958],[393855.753,5823454.709],[393838.332,5823462.45],[393820.911,5823470.201],[393818.909,5823471.109],[393814.689,5823472.179],[393802.28,5823475.325],[393783.064,5823480.193],[393747.806,5823489.124],[393726.758,5823494.456],[393706.082,5823499.694],[393695.614,5823502.343],[393685.993,5823506.475],[393684.297,5823507.208],[393666.767,5823514.971],[393665.339,5823515.608],[393647.56,5823523.465],[393632.845,5823529.965],[393621.866,5823534.704],[393601.362,5823543.863],[393592.435,5823548.364],[393579.348,5823554.963],[393567.162,5823561.121],[393561.94,5823564.058],[393557.073,5823566.794],[393550.127,5823543.488],[393547.715,5823545.124],[393547.484,5823545.281],[393532.22,5823555.633],[393527.055,5823559.136],[393512.998,5823568.671],[393505.774,5823573.571],[393505.565,5823573.713],[393502.063,5823576.087],[393469.772,5823597.988],[393467.734,5823599.371],[393448.325,5823612.534],[393436.983,5823620.227],[393434.368,5823622.001],[393421.187,5823630.94],[393408.045,5823639.853],[393386.481,5823654.478],[393380.526,5823657.647],[393375.489,5823660.328],[393369.618,5823663.454],[393354.109,5823666.795],[393323.002,5823673.137],[393315.682,5823674.629],[393266.03,5823684.751],[393254.949,5823687.011],[393228.852,5823692.331],[393210.383,5823696.097],[393161.726,5823706.017],[393156.492,5823707.074],[393146.147,5823709.162],[393141.107,5823710.179],[393097.591,5823719.021],[393079.874,5823722.622],[393062.394,5823726.173],[393050.236,5823728.644],[393030.783,5823732.597],[393024.152,5823733.945],[393018.427,5823735.11],[393011.958,5823736.425],[392972.996,5823744.342],[392941.327,5823750.778],[392936.24,5823752.05],[392934.81,5823752.357],[392929.146,5823753.577],[392927.213,5823753.993],[392922.34,5823754.982],[392896.664,5823760.199],[392817.597,5823776.261],[392783.566,5823783.175],[392776.636,5823784.583],[392770.867,5823785.755],[392769.567,5823786.019],[392764.746,5823786.998],[392714.401,5823797.227],[392690.648,5823802.052],[392665.672,5823807.126],[392641.849,5823811.966],[392618.137,5823816.771],[392594.341,5823821.618],[392570.15,5823826.532],[392536.167,5823833.436],[392537.286,5823840.836],[392537.558,5823842.58],[392541.087,5823865.218],[392544.022,5823888.012],[392544.131,5823888.855],[392544.152,5823893.989],[392544.213,5823909.054],[392544.065,5823911.255],[392543.056,5823926.29],[392541.962,5823942.589],[392541.652,5823947.224],[392540.31,5823967.213],[392539.931,5823972.685],[392538.669,5823990.91],[392537.38,5824009.534],[392537.094,5824013.674],[392536.375,5824024.063],[392535.347,5824038.912],[392534.558,5824050.302],[392533.416,5824066.791],[392533.001,5824072.792],[392532.993,5824072.903],[392532.271,5824082.337],[392532.028,5824085.718],[392531.76,5824089.274],[392530.382,5824107.56],[392530.104,5824111.26],[392529.754,5824115.908],[392529.561,5824118.473],[392528.73,5824129.518],[392528.4,5824133.898],[392528.223,5824136.243],[392527.36,5824147.706],[392525.361,5824172.363],[392524.749,5824179.244],[392523.516,5824195.119],[392523.168,5824199.417],[392521.544,5824203.824],[392514.82,5824222.067],[392511.108,5824220.466],[392506.618,5824218.528],[392467.377,5824223.892],[392458.572,5824224.831],[392420.75,5824228.86],[392168.643,5824254.696],[392086.292,5824263.736],[392083.395,5824264.039],[392082.111,5824264.173],[392011.015,5824271.574],[391999.393,5824272.838],[391985.504,5824274.284],[391977.747,5824275.091],[391970.686,5824275.827],[391963.304,5824276.595],[391956.725,5824277.28],[391950.616,5824277.917],[391942.129,5824278.8],[391936.171,5824279.42],[391930.2,5824280.042],[391924.226,5824280.665],[391921.686,5824280.929],[391918.445,5824281.267],[391912.192,5824281.918],[391906.078,5824282.554],[391895.207,5824283.686],[391885.085,5824284.74],[391882.239,5824285.037],[391871.204,5824286.186],[391861.211,5824287.227],[391847.259,5824288.679],[391836.569,5824289.793],[391825.814,5824290.912],[391808.032,5824292.764],[391798.067,5824293.801],[391790.179,5824294.623],[391780.136,5824295.668],[391777.901,5824295.902],[391768.867,5824296.842],[391756.66,5824298.113]]]]},"geometry_name":"geom","properties":{"uuid":"DEBE03YY6000000L","sch":"110000030301","nam":"Prenzlauer Berg","gdf":11009372.0,"bezeich":"AX_KommunalesGebiet"},"bbox":[391301.915,5819979.173,396333.836,5824374.355]}],"crs":{"type":"name","properties":{"name":"urn:ogc:def:crs:EPSG::25833"}},"source":{"publisher":"Geoportal Berlin / Senatsverwaltung für Stadtentwicklung, Bauen und Wohnen","dataset_url":"https://daten.berlin.de/datensaetze/alkis-berlin-ortsteile-wfs-61bd3084","service_url":"https://gdi.berlin.de/services/wfs/alkis_ortsteile","request":{"service":"WFS","request":"GetFeature","version":"2.0.0","typeNames":"alkis_ortsteile:ortsteile","outputFormat":"application/json","srsName":"EPSG:25833"},"retrieved_date":"2026-10-01","licence":"dl-de/zero-2-0","licence_url":"https://www.govdata.de/dl-de/zero-2-0","selection":"Exact complete Moabit and Prenzlauer Berg official polygons only; no geometry simplification."}}
