{"type":"FeatureCollection","name":"Großer Tiergarten source-mapped vegetation","crs":{"type":"name","properties":{"name":"urn:ogc:def:crs:EPSG::25833"}},"source":{"name":"OpenStreetMap via local Geofabrik Berlin extract","attribution":"© OpenStreetMap contributors","license":"ODbL-1.0","copyright_url":"https://www.openstreetmap.org/copyright","park_relation_url":"https://www.openstreetmap.org/relation/7643526","geometry_status":"Mapped OSM scrub polygons and barrier=hedge lines/areas clipped exactly to relation 7643526; no hedge courses or individual bush positions invented"},"metrics":{"hedge_area_count":2,"hedge_area_m2":526.8,"hedge_line_count":21,"hedge_line_length_m":1099.2,"scrub_area_count":83,"scrub_area_m2":106628.5},"features":[{"type":"Feature","properties":{"id":"way/120583843:0","kind":"hedge_area","osm_element":"way","osm_id":"120583843","source_url":"https://www.openstreetmap.org/way/120583843"},"geometry":{"type":"Polygon","coordinates":[[[389778.17,5819550.74],[389777.66,5819550.16],[389777.06,5819549.7],[389776.38,5819549.36],[389775.64,5819549.16],[389774.88,5819549.11],[389774.12,5819549.21],[389773.39,5819549.45],[389772.73,5819549.83],[389772.15,5819550.33],[389771.68,5819550.93],[389771.34,5819551.61],[389771.13,5819552.35],[389771.08,5819553.1],[389771.18,5819553.91],[389771.45,5819554.67],[389771.88,5819555.38],[389772.44,5819555.98],[389773.11,5819556.43],[389773.87,5819556.75],[389774.66,5819556.91],[389775.49,5819556.89],[389776.28,5819556.69],[389777.02,5819556.34],[389777.67,5819555.86],[389778.2,5819555.24],[389778.6,5819554.51],[389778.83,5819553.74],[389778.9,5819552.93],[389778.8,5819552.12],[389778.55,5819551.4],[389778.17,5819550.74]]]}},{"type":"Feature","properties":{"id":"way/121797064:0","kind":"hedge_area","osm_element":"way","osm_id":"121797064","source_url":"https://www.openstreetmap.org/way/121797064"},"geometry":{"type":"Polygon","coordinates":[[[387909.57,5819863.53],[387908.29,5819866.0],[387904.79,5819866.48],[387898.99,5819867.29],[387895.15,5819870.88],[387893.21,5819874.83],[387894.14,5819879.67],[387897.45,5819882.7],[387901.53,5819883.69],[387906.78,5819882.62],[387907.75,5819881.94],[387923.65,5819875.08],[387924.62,5819870.38],[387926.2,5819862.75],[387917.38,5819861.07],[387917.01,5819862.82],[387910.9,5819861.5],[387910.24,5819862.51],[387909.57,5819863.53]]]}},{"type":"Feature","properties":{"id":"way/1073941501:0","kind":"hedge_line","osm_element":"way","osm_id":"1073941501","source_url":"https://www.openstreetmap.org/way/1073941501"},"geometry":{"type":"LineString","coordinates":[[388818.87,5819027.67],[388819.51,5819041.79],[388836.3,5819040.63],[388836.05,5819026.98]]}},{"type":"Feature","properties":{"id":"way/1078036184:0","kind":"hedge_line","osm_element":"way","osm_id":"1078036184","source_url":"https://www.openstreetmap.org/way/1078036184"},"geometry":{"type":"LineString","coordinates":[[388673.59,5819740.57],[388661.92,5819748.12]]}},{"type":"Feature","properties":{"id":"way/1078036779:0","kind":"hedge_line","osm_element":"way","osm_id":"1078036779","source_url":"https://www.openstreetmap.org/way/1078036779"},"geometry":{"type":"LineString","coordinates":[[388672.26,5819736.85],[388648.12,5819752.79],[388636.37,5819735.81]]}},{"type":"Feature","properties":{"id":"way/118977639:0","kind":"hedge_line","osm_element":"way","osm_id":"118977639","source_url":"https://www.openstreetmap.org/way/118977639"},"geometry":{"type":"LineString","coordinates":[[387930.49,5819819.95],[387915.61,5819778.5],[387901.44,5819783.47]]}},{"type":"Feature","properties":{"id":"way/119017296:0","kind":"hedge_line","osm_element":"way","osm_id":"119017296","source_url":"https://www.openstreetmap.org/way/119017296"},"geometry":{"type":"LineString","coordinates":[[387883.52,5819061.01],[387919.91,5819055.92]]}},{"type":"Feature","properties":{"id":"way/121761594:0","kind":"hedge_line","osm_element":"way","osm_id":"121761594","source_url":"https://www.openstreetmap.org/way/121761594"},"geometry":{"type":"LineString","coordinates":[[387900.65,5819831.18],[387893.89,5819812.83]]}},{"type":"Feature","properties":{"id":"way/1372682809:0","kind":"hedge_line","osm_element":"way","osm_id":"1372682809","source_url":"https://www.openstreetmap.org/way/1372682809"},"geometry":{"type":"LineString","coordinates":[[388068.71,5819824.7],[388067.23,5819817.7],[388067.64,5819817.59]]}},{"type":"Feature","properties":{"id":"way/1372682810:0","kind":"hedge_line","osm_element":"way","osm_id":"1372682810","source_url":"https://www.openstreetmap.org/way/1372682810"},"geometry":{"type":"LineString","coordinates":[[388069.27,5819827.37],[388070.48,5819832.57],[388071.38,5819832.22]]}},{"type":"Feature","properties":{"id":"way/163215450:0","kind":"hedge_line","osm_element":"way","osm_id":"163215450","source_url":"https://www.openstreetmap.org/way/163215450"},"geometry":{"type":"LineString","coordinates":[[387894.66,5819785.54],[387881.93,5819789.81],[387886.19,5819799.79],[387890.01,5819809.98]]}},{"type":"Feature","properties":{"id":"way/488249765:0","kind":"hedge_line","osm_element":"way","osm_id":"488249765","source_url":"https://www.openstreetmap.org/way/488249765"},"geometry":{"type":"LineString","coordinates":[[387722.04,5819721.25],[387722.21,5819717.05],[387715.83,5819711.12],[387676.75,5819708.26],[387676.48,5819711.39],[387676.46,5819711.56]]}},{"type":"Feature","properties":{"id":"way/508974401:0","kind":"hedge_line","osm_element":"way","osm_id":"508974401","source_url":"https://www.openstreetmap.org/way/508974401"},"geometry":{"type":"LineString","coordinates":[[388644.38,5819812.27],[388646.01,5819809.09],[388648.62,5819810.77],[388650.02,5819808.76],[388651.64,5819806.91],[388649.76,5819804.47],[388651.69,5819802.82],[388654.23,5819801.15],[388655.54,5819803.97],[388659.07,5819802.48],[388662.0,5819801.76],[388661.5,5819798.53],[388665.47,5819798.16],[388668.92,5819798.4],[388668.35,5819801.95],[388673.28,5819802.62],[388676.8,5819804.76],[388678.77,5819802.34],[388681.51,5819804.6],[388683.6,5819806.91],[388680.99,5819808.75],[388682.4,5819810.51],[388683.67,5819813.16],[388686.21,5819811.08],[388687.88,5819815.75],[388685.23,5819816.68],[388685.68,5819820.65],[388688.5,5819820.98],[388688.02,5819825.67]]}},{"type":"Feature","properties":{"id":"way/533592722:0","kind":"hedge_line","osm_element":"way","osm_id":"533592722","source_url":"https://www.openstreetmap.org/way/533592722"},"geometry":{"type":"LineString","coordinates":[[388481.18,5819454.85],[388479.86,5819453.19],[388478.9,5819449.33],[388479.33,5819446.98],[388480.6,5819444.67],[388481.55,5819443.71],[388484.17,5819442.2],[388486.79,5819441.82],[388489.36,5819442.33],[388491.32,5819443.51],[388492.61,5819442.2],[388493.88,5819443.37],[388507.8,5819427.71],[388513.31,5819421.47],[388516.26,5819417.9],[388514.25,5819413.76],[388515.64,5819412.84],[388517.07,5819412.02],[388518.8,5819411.19],[388520.86,5819410.44],[388523.23,5819409.85],[388526.25,5819409.5],[388528.56,5819409.53],[388530.97,5819409.81],[388535.45,5819411.1],[388538.26,5819412.49],[388540.23,5819413.79],[388541.69,5819415.0],[388543.54,5819416.87],[388545.21,5819419.02],[388546.37,5819420.95],[388547.3,5819422.91],[388548.44,5819426.6],[388548.89,5819429.88],[388548.7,5819434.2],[388547.62,5819438.5],[388545.78,5819442.41],[388542.11,5819440.48],[388536.56,5819446.7],[388533.17,5819450.49],[388519.24,5819466.04],[388520.35,5819466.95],[388519.05,5819468.41],[388520.45,5819470.22],[388521.26,5819472.71],[388521.17,5819475.36],[388519.97,5819478.12],[388519.11,5819479.17],[388516.94,5819480.7],[388514.66,5819481.39],[388510.71,5819480.87],[388508.91,5819479.75],[388507.31,5819481.55],[388506.43,5819480.77],[388492.61,5819496.23],[388487.78,5819501.64],[388484.75,5819505.02],[388477.72,5819498.74],[388477.11,5819499.36],[388475.07,5819500.74],[388472.31,5819501.57],[388470.71,5819501.63],[388469.13,5819501.39],[388467.67,5819500.9],[388466.32,5819500.15],[388465.12,5819499.17],[388463.87,5819497.64],[388463.0,5819495.88],[388462.56,5819494.1],[388462.5,5819492.26],[388463.11,5819489.68],[388464.48,5819487.37],[388458.61,5819481.76],[388462.44,5819477.48],[388466.2,5819473.28],[388469.06,5819470.07],[388480.48,5819457.31],[388479.65,5819456.57],[388481.18,5819454.85]]}},{"type":"Feature","properties":{"id":"way/542599425:0","kind":"hedge_line","osm_element":"way","osm_id":"542599425","source_url":"https://www.openstreetmap.org/way/542599425"},"geometry":{"type":"LineString","coordinates":[[387662.21,5819991.32],[387669.89,5819974.47]]}},{"type":"Feature","properties":{"id":"way/542599425:1","kind":"hedge_line","osm_element":"way","osm_id":"542599425","source_url":"https://www.openstreetmap.org/way/542599425"},"geometry":{"type":"LineString","coordinates":[[387676.39,5819960.21],[387684.74,5819941.9]]}},{"type":"Feature","properties":{"id":"way/583271357:0","kind":"hedge_line","osm_element":"way","osm_id":"583271357","source_url":"https://www.openstreetmap.org/way/583271357"},"geometry":{"type":"LineString","coordinates":[[389438.4,5819608.83],[389436.53,5819599.73],[389430.81,5819601.02],[389428.13,5819589.19],[389426.72,5819588.09],[389425.02,5819586.4],[389423.73,5819584.28],[389422.97,5819581.91],[389422.81,5819579.44],[389423.16,5819577.26],[389423.96,5819575.2],[389424.74,5819573.32],[389422.04,5819560.83],[389424.08,5819560.35],[389419.48,5819540.73]]}},{"type":"Feature","properties":{"id":"way/583271358:0","kind":"hedge_line","osm_element":"way","osm_id":"583271358","source_url":"https://www.openstreetmap.org/way/583271358"},"geometry":{"type":"LineString","coordinates":[[389418.46,5819536.6],[389417.73,5819532.54],[389415.43,5819531.41],[389413.21,5819530.0],[389410.04,5819526.99],[389407.7,5819523.68],[389406.39,5819522.44],[389404.47,5819522.3],[389400.76,5819523.03]]}},{"type":"Feature","properties":{"id":"way/583271359:0","kind":"hedge_line","osm_element":"way","osm_id":"583271359","source_url":"https://www.openstreetmap.org/way/583271359"},"geometry":{"type":"LineString","coordinates":[[389399.36,5819517.43],[389404.34,5819516.31],[389405.41,5819515.2],[389405.41,5819511.2],[389406.66,5819506.0],[389408.31,5819502.33],[389409.5,5819498.85],[389405.7,5819483.49]]}},{"type":"Feature","properties":{"id":"way/583271360:0","kind":"hedge_line","osm_element":"way","osm_id":"583271360","source_url":"https://www.openstreetmap.org/way/583271360"},"geometry":{"type":"LineString","coordinates":[[389404.53,5819480.43],[389401.82,5819481.13],[389400.21,5819474.27]]}},{"type":"Feature","properties":{"id":"way/583271361:0","kind":"hedge_line","osm_element":"way","osm_id":"583271361","source_url":"https://www.openstreetmap.org/way/583271361"},"geometry":{"type":"LineString","coordinates":[[389397.88,5819472.05],[389396.28,5819469.63],[389394.94,5819467.03],[389394.51,5819464.13],[389394.52,5819460.32],[389394.99,5819457.12],[389392.54,5819445.37],[389402.83,5819443.35],[389404.6,5819443.0],[389405.31,5819442.77],[389405.9,5819442.32],[389406.31,5819441.7],[389406.49,5819440.97],[389406.45,5819440.35],[389406.24,5819439.78],[389405.87,5819439.27],[389405.47,5819438.95],[389405.0,5819438.73],[389404.51,5819438.63],[389403.8,5819438.66],[389403.15,5819438.94],[389403.46,5819440.59],[389403.52,5819440.86],[389403.67,5819441.1],[389403.89,5819441.29],[389404.17,5819441.37],[389404.41,5819441.38],[389404.65,5819441.31],[389404.85,5819441.16],[389405.01,5819440.96],[389405.1,5819440.73],[389405.11,5819440.53],[389405.08,5819440.33],[389404.99,5819440.14],[389404.86,5819439.97],[389404.68,5819439.84],[389404.47,5819439.76],[389404.25,5819439.75]]}},{"type":"Feature","properties":{"id":"way/671092226:0","kind":"hedge_line","osm_element":"way","osm_id":"671092226","source_url":"https://www.openstreetmap.org/way/671092226"},"geometry":{"type":"LineString","coordinates":[[389469.05,5819610.63],[389465.04,5819594.3],[389470.85,5819592.61],[389468.06,5819580.91],[389469.79,5819579.14],[389470.44,5819576.87],[389470.71,5819574.26],[389470.47,5819571.24],[389469.37,5819567.4],[389467.98,5819564.76],[389466.24,5819562.29],[389464.69,5819555.21],[389460.65,5819556.08],[389453.26,5819522.05]]}},{"type":"Feature","properties":{"id":"way/671092227:0","kind":"hedge_line","osm_element":"way","osm_id":"671092227","source_url":"https://www.openstreetmap.org/way/671092227"},"geometry":{"type":"LineString","coordinates":[[389431.62,5819437.06],[389425.31,5819438.47],[389423.54,5819438.82],[389422.79,5819438.87],[389422.08,5819438.69],[389421.46,5819438.27],[389421.02,5819437.66],[389420.81,5819437.08],[389420.79,5819436.46],[389420.94,5819435.85],[389421.19,5819435.4],[389421.53,5819435.02],[389421.95,5819434.74],[389422.62,5819434.5],[389423.33,5819434.51],[389423.66,5819436.16],[389423.72,5819436.43],[389423.67,5819436.71],[389423.54,5819436.97],[389423.32,5819437.14],[389423.09,5819437.25],[389422.84,5819437.27],[389422.6,5819437.21],[389422.38,5819437.09],[389422.17,5819436.81],[389422.07,5819436.53],[389422.08,5819436.33],[389422.13,5819436.11],[389422.26,5819435.92],[389422.42,5819435.77],[389422.62,5819435.67]]}},{"type":"Feature","properties":{"id":"way/121702444:0","kind":"scrub_area","osm_element":"way","osm_id":"121702444","source_url":"https://www.openstreetmap.org/way/121702444","leaf_type":"broadleaved"},"geometry":{"type":"Polygon","coordinates":[[[387820.85,5819802.65],[387818.61,5819803.01],[387816.22,5819804.44],[387814.79,5819806.34],[387814.23,5819810.72],[387815.49,5819813.39],[387817.66,5819815.2],[387820.01,5819815.92],[387823.03,5819815.56],[387824.77,5819814.62],[387826.54,5819812.61],[387827.36,5819810.18],[387826.73,5819806.37],[387825.28,5819804.43],[387823.21,5819803.12],[387820.85,5819802.65]]]}},{"type":"Feature","properties":{"id":"way/121702447:0","kind":"scrub_area","osm_element":"way","osm_id":"121702447","source_url":"https://www.openstreetmap.org/way/121702447","leaf_type":"broadleaved"},"geometry":{"type":"Polygon","coordinates":[[[387825.11,5819844.95],[387823.99,5819840.98],[387819.56,5819839.66],[387813.53,5819841.74],[387809.97,5819849.69],[387812.42,5819855.05],[387818.11,5819855.05],[387823.37,5819850.64],[387825.11,5819844.95]]]}},{"type":"Feature","properties":{"id":"way/1411006515:0","kind":"scrub_area","osm_element":"way","osm_id":"1411006515","source_url":"https://www.openstreetmap.org/way/1411006515","leaf_type":"broadleaved"},"geometry":{"type":"Polygon","coordinates":[[[388362.97,5819747.34],[388359.79,5819751.68],[388357.78,5819770.43],[388361.79,5819771.62],[388403.97,5819747.69],[388371.14,5819738.64],[388362.97,5819747.34]]]}},{"type":"Feature","properties":{"id":"way/1411120191:0","kind":"scrub_area","osm_element":"way","osm_id":"1411120191","source_url":"https://www.openstreetmap.org/way/1411120191"},"geometry":{"type":"Polygon","coordinates":[[[388576.48,5819638.19],[388558.93,5819634.19],[388541.98,5819631.11],[388538.63,5819631.3],[388538.98,5819632.9],[388569.15,5819653.4],[388588.34,5819642.27],[388576.48,5819638.19]]]}},{"type":"Feature","properties":{"id":"way/1411144856:0","kind":"scrub_area","osm_element":"way","osm_id":"1411144856","source_url":"https://www.openstreetmap.org/way/1411144856"},"geometry":{"type":"Polygon","coordinates":[[[388348.45,5819705.42],[388349.34,5819683.78],[388348.38,5819680.1],[388345.77,5819676.08],[388338.8,5819673.45],[388331.65,5819675.02],[388325.92,5819671.79],[388313.68,5819672.36],[388303.45,5819671.27],[388286.77,5819691.59],[388276.01,5819702.64],[388337.4,5819723.68],[388342.09,5819719.51],[388344.96,5819718.19],[388348.45,5819705.42]]]}},{"type":"Feature","properties":{"id":"way/1411144857:0","kind":"scrub_area","osm_element":"way","osm_id":"1411144857","source_url":"https://www.openstreetmap.org/way/1411144857"},"geometry":{"type":"Polygon","coordinates":[[[388266.77,5819722.22],[388309.34,5819749.45],[388312.6,5819751.7],[388318.14,5819755.27],[388319.62,5819756.56],[388319.9,5819756.75],[388322.58,5819748.58],[388327.35,5819746.02],[388333.58,5819737.21],[388333.11,5819726.57],[388273.54,5819705.55],[388259.88,5819717.79],[388266.77,5819722.22]]]}},{"type":"Feature","properties":{"id":"way/1411144858:0","kind":"scrub_area","osm_element":"way","osm_id":"1411144858","source_url":"https://www.openstreetmap.org/way/1411144858"},"geometry":{"type":"Polygon","coordinates":[[[388202.92,5819681.15],[388256.49,5819715.61],[388269.13,5819703.56],[388206.67,5819680.41],[388202.92,5819681.15]]]}},{"type":"Feature","properties":{"id":"way/1411145244:0","kind":"scrub_area","osm_element":"way","osm_id":"1411145244","source_url":"https://www.openstreetmap.org/way/1411145244"},"geometry":{"type":"Polygon","coordinates":[[[388337.24,5819650.1],[388339.91,5819652.17],[388349.87,5819652.26],[388352.41,5819648.04],[388361.5,5819653.7],[388373.46,5819657.65],[388379.42,5819647.33],[388371.35,5819632.86],[388374.82,5819616.15],[388356.46,5819614.28],[388334.16,5819610.99],[388321.3,5819643.12],[388328.24,5819647.74],[388337.24,5819650.1]]]}},{"type":"Feature","properties":{"id":"way/1411146459:0","kind":"scrub_area","osm_element":"way","osm_id":"1411146459","source_url":"https://www.openstreetmap.org/way/1411146459"},"geometry":{"type":"Polygon","coordinates":[[[388418.54,5819632.6],[388415.0,5819638.77],[388417.91,5819650.92],[388419.05,5819650.09],[388420.77,5819652.48],[388419.63,5819653.3],[388423.22,5819659.3],[388428.71,5819663.94],[388436.88,5819666.71],[388452.64,5819667.24],[388463.92,5819665.13],[388468.11,5819661.15],[388475.16,5819650.21],[388482.1,5819649.15],[388496.58,5819640.75],[388498.11,5819636.77],[388494.49,5819626.68],[388428.37,5819621.01],[388425.31,5819625.2],[388418.54,5819632.6]]]}},{"type":"Feature","properties":{"id":"way/1411146460:0","kind":"scrub_area","osm_element":"way","osm_id":"1411146460","source_url":"https://www.openstreetmap.org/way/1411146460"},"geometry":{"type":"Polygon","coordinates":[[[388255.92,5819599.31],[388249.81,5819606.99],[388234.24,5819609.53],[388229.78,5819613.0],[388222.22,5819627.77],[388225.2,5819629.17],[388238.79,5819622.35],[388240.82,5819627.66],[388248.45,5819627.92],[388252.59,5819632.38],[388260.2,5819636.57],[388267.72,5819631.55],[388281.62,5819630.89],[388293.45,5819639.11],[388307.95,5819641.47],[388317.97,5819640.48],[388329.31,5819610.68],[388260.26,5819595.31],[388254.06,5819594.86],[388255.49,5819596.39],[388255.92,5819599.31]]]}},{"type":"Feature","properties":{"id":"way/1411146461:0","kind":"scrub_area","osm_element":"way","osm_id":"1411146461","source_url":"https://www.openstreetmap.org/way/1411146461"},"geometry":{"type":"Polygon","coordinates":[[[388284.21,5819689.15],[388299.98,5819669.81],[388285.83,5819664.48],[388276.12,5819660.09],[388265.95,5819661.31],[388258.03,5819660.95],[388253.54,5819657.19],[388237.54,5819646.5],[388224.25,5819648.81],[388216.83,5819648.33],[388219.7,5819637.2],[388225.2,5819629.17],[388222.22,5819627.77],[388201.9,5819644.02],[388192.54,5819656.65],[388196.77,5819658.89],[388195.2,5819662.92],[388189.02,5819661.12],[388184.03,5819656.93],[388178.09,5819665.18],[388199.74,5819679.11],[388206.39,5819677.92],[388260.74,5819697.1],[388271.59,5819701.38],[388284.21,5819689.15]]]}},{"type":"Feature","properties":{"id":"way/1411147088:0","kind":"scrub_area","osm_element":"way","osm_id":"1411147088","source_url":"https://www.openstreetmap.org/way/1411147088"},"geometry":{"type":"Polygon","coordinates":[[[388485.99,5819602.17],[388421.55,5819596.93],[388427.6,5819615.69],[388494.03,5819621.2],[388494.89,5819611.59],[388485.99,5819602.17]]]}},{"type":"Feature","properties":{"id":"way/1411151710:0","kind":"scrub_area","osm_element":"way","osm_id":"1411151710","source_url":"https://www.openstreetmap.org/way/1411151710"},"geometry":{"type":"Polygon","coordinates":[[[388585.13,5819740.26],[388580.0,5819730.39],[388575.79,5819725.53],[388570.19,5819721.41],[388568.07,5819717.96],[388571.03,5819703.41],[388565.69,5819696.23],[388556.18,5819697.18],[388551.19,5819710.48],[388554.95,5819715.17],[388553.59,5819721.19],[388546.47,5819721.31],[388539.48,5819727.11],[388538.25,5819734.93],[388534.23,5819744.07],[388525.79,5819746.47],[388521.41,5819748.55],[388511.83,5819741.25],[388502.78,5819738.04],[388492.46,5819743.69],[388482.45,5819740.03],[388462.38,5819752.51],[388461.56,5819759.01],[388479.52,5819764.39],[388513.58,5819782.18],[388525.02,5819784.24],[388572.68,5819789.71],[388575.29,5819781.87],[388560.89,5819778.76],[388567.38,5819756.66],[388560.61,5819754.78],[388563.79,5819743.24],[388579.74,5819747.62],[388595.55,5819741.38],[388595.91,5819739.02],[388588.29,5819741.18],[388585.13,5819740.26]]]}},{"type":"Feature","properties":{"id":"way/1411151711:0","kind":"scrub_area","osm_element":"way","osm_id":"1411151711","source_url":"https://www.openstreetmap.org/way/1411151711"},"geometry":{"type":"Polygon","coordinates":[[[388416.11,5819792.56],[388428.86,5819791.65],[388434.62,5819794.15],[388447.06,5819793.03],[388454.33,5819787.27],[388461.28,5819786.28],[388463.96,5819783.58],[388468.63,5819784.11],[388478.81,5819781.13],[388482.16,5819780.92],[388484.88,5819782.92],[388493.93,5819783.21],[388516.23,5819789.83],[388526.1,5819789.58],[388514.54,5819787.82],[388459.3,5819761.41],[388451.79,5819759.47],[388449.9,5819761.55],[388413.39,5819782.54],[388413.93,5819789.8],[388416.11,5819792.56]]]}},{"type":"Feature","properties":{"id":"way/1412255752:0","kind":"scrub_area","osm_element":"way","osm_id":"1412255752","source_url":"https://www.openstreetmap.org/way/1412255752"},"geometry":{"type":"Polygon","coordinates":[[[388526.91,5819628.8],[388499.55,5819627.59],[388500.44,5819634.02],[388513.57,5819640.01],[388525.23,5819656.41],[388548.88,5819664.72],[388565.25,5819655.99],[388526.91,5819628.8]]]}},{"type":"Feature","properties":{"id":"way/1412669253:0","kind":"scrub_area","osm_element":"way","osm_id":"1412669253","source_url":"https://www.openstreetmap.org/way/1412669253"},"geometry":{"type":"Polygon","coordinates":[[[388376.01,5819606.49],[388376.37,5819600.39],[388375.12,5819593.16],[388337.83,5819590.12],[388336.79,5819591.04],[388334.89,5819606.07],[388347.34,5819608.92],[388373.92,5819611.41],[388376.01,5819606.49]]]}},{"type":"Feature","properties":{"id":"way/1412669254:0","kind":"scrub_area","osm_element":"way","osm_id":"1412669254","source_url":"https://www.openstreetmap.org/way/1412669254"},"geometry":{"type":"Polygon","coordinates":[[[388169.77,5819579.81],[388198.74,5819587.39],[388219.12,5819589.86],[388248.26,5819590.15],[388264.94,5819591.62],[388300.11,5819600.12],[388330.62,5819606.14],[388331.32,5819605.25],[388332.82,5819591.02],[388333.71,5819589.79],[388169.06,5819575.6],[388169.13,5819578.66],[388169.77,5819579.81]]]}},{"type":"Feature","properties":{"id":"way/1412669256:0","kind":"scrub_area","osm_element":"way","osm_id":"1412669256","source_url":"https://www.openstreetmap.org/way/1412669256"},"geometry":{"type":"Polygon","coordinates":[[[388150.83,5819593.93],[388129.91,5819592.21],[388126.55,5819598.62],[388121.53,5819605.77],[388118.52,5819608.95],[388143.08,5819635.76],[388157.72,5819648.82],[388162.01,5819645.54],[388169.19,5819634.97],[388168.75,5819630.97],[388176.46,5819610.35],[388178.5,5819608.17],[388182.65,5819591.64],[388181.38,5819589.33],[388171.91,5819586.71],[388161.4,5819581.81],[388160.01,5819597.72],[388150.59,5819597.05],[388150.83,5819593.93]]]}},{"type":"Feature","properties":{"id":"way/1414224210:0","kind":"scrub_area","osm_element":"way","osm_id":"1414224210","source_url":"https://www.openstreetmap.org/way/1414224210"},"geometry":{"type":"Polygon","coordinates":[[[388184.09,5819650.29],[388170.81,5819660.49],[388176.21,5819663.97],[388185.2,5819651.42],[388184.09,5819650.29]]]}},{"type":"Feature","properties":{"id":"way/1414226892:0","kind":"scrub_area","osm_element":"way","osm_id":"1414226892","source_url":"https://www.openstreetmap.org/way/1414226892"},"geometry":{"type":"Polygon","coordinates":[[[388872.09,5819844.9],[388878.49,5819841.53],[388885.8,5819838.85],[388893.0,5819837.83],[388900.78,5819838.1],[388908.26,5819840.55],[388914.75,5819843.68],[388926.36,5819852.13],[388930.42,5819857.89],[388932.26,5819863.33],[388944.21,5819862.46],[388944.37,5819858.44],[388941.01,5819850.83],[388936.08,5819844.3],[388927.88,5819835.95],[388919.06,5819830.64],[388909.41,5819826.19],[388898.59,5819825.09],[388888.09,5819824.74],[388876.27,5819827.98],[388866.13,5819832.58],[388859.24,5819838.19],[388851.39,5819847.15],[388844.74,5819861.1],[388844.88,5819865.36],[388847.25,5819868.88],[388855.36,5819868.7],[388857.51,5819861.1],[388861.66,5819854.81],[388872.09,5819844.9]]]}},{"type":"Feature","properties":{"id":"way/1414227772:0","kind":"scrub_area","osm_element":"way","osm_id":"1414227772","source_url":"https://www.openstreetmap.org/way/1414227772"},"geometry":{"type":"Polygon","coordinates":[[[387820.75,5819901.65],[387845.86,5819905.33],[387854.23,5819903.61],[387847.28,5819898.24],[387839.56,5819897.06],[387837.13,5819894.04],[387820.43,5819899.97],[387820.75,5819901.65]]]}},{"type":"Feature","properties":{"id":"way/1416070992:0","kind":"scrub_area","osm_element":"way","osm_id":"1416070992","source_url":"https://www.openstreetmap.org/way/1416070992"},"geometry":{"type":"Polygon","coordinates":[[[388618.31,5819675.57],[388636.91,5819690.41],[388670.57,5819712.28],[388689.23,5819723.1],[388727.58,5819694.9],[388730.41,5819691.02],[388728.29,5819689.79],[388636.43,5819665.82],[388623.94,5819660.06],[388616.65,5819668.84],[388618.31,5819675.57]]]}},{"type":"Feature","properties":{"id":"way/1416070993:0","kind":"scrub_area","osm_element":"way","osm_id":"1416070993","source_url":"https://www.openstreetmap.org/way/1416070993"},"geometry":{"type":"Polygon","coordinates":[[[388729.01,5819724.65],[388731.14,5819712.31],[388727.19,5819704.33],[388731.18,5819697.4],[388696.65,5819727.71],[388713.29,5819734.3],[388722.15,5819731.98],[388729.01,5819724.65]]]}},{"type":"Feature","properties":{"id":"way/1416109826:0","kind":"scrub_area","osm_element":"way","osm_id":"1416109826","source_url":"https://www.openstreetmap.org/way/1416109826"},"geometry":{"type":"Polygon","coordinates":[[[388608.6,5819755.45],[388635.25,5819737.77],[388644.97,5819751.7],[388648.12,5819752.79],[388677.08,5819733.47],[388663.1,5819723.29],[388650.58,5819719.5],[388630.6,5819707.54],[388624.19,5819709.02],[388617.41,5819708.08],[388616.03,5819702.76],[388610.07,5819696.88],[388599.25,5819695.61],[388592.46,5819690.82],[388584.18,5819691.3],[388579.85,5819693.05],[388577.91,5819696.81],[388579.33,5819705.66],[388582.97,5819713.32],[388588.99,5819722.09],[388596.97,5819729.39],[388598.73,5819735.77],[388595.91,5819739.02],[388595.55,5819741.38],[388604.06,5819742.54],[388607.16,5819752.92],[388608.6,5819755.45]]]}},{"type":"Feature","properties":{"id":"way/1416113390:0","kind":"scrub_area","osm_element":"way","osm_id":"1416113390","source_url":"https://www.openstreetmap.org/way/1416113390"},"geometry":{"type":"Polygon","coordinates":[[[388571.5,5819801.1],[388571.46,5819793.66],[388556.71,5819792.1],[388556.26,5819795.96],[388563.33,5819800.23],[388571.5,5819801.1]]]}},{"type":"Feature","properties":{"id":"way/1416113391:0","kind":"scrub_area","osm_element":"way","osm_id":"1416113391","source_url":"https://www.openstreetmap.org/way/1416113391"},"geometry":{"type":"Polygon","coordinates":[[[388615.98,5819812.24],[388607.05,5819802.22],[388592.77,5819797.14],[388576.0,5819794.73],[388576.11,5819802.25],[388588.29,5819805.3],[388615.98,5819812.24]]]}},{"type":"Feature","properties":{"id":"way/1416278285:0","kind":"scrub_area","osm_element":"way","osm_id":"1416278285","source_url":"https://www.openstreetmap.org/way/1416278285"},"geometry":{"type":"Polygon","coordinates":[[[388997.63,5819692.47],[388989.85,5819695.83],[388986.99,5819698.08],[388984.71,5819700.85],[388980.88,5819707.35],[388978.97,5819708.47],[388982.92,5819709.24],[388986.96,5819706.92],[388994.77,5819698.37],[389004.63,5819693.04],[389014.76,5819692.66],[389010.84,5819690.96],[389004.44,5819691.11],[388997.63,5819692.47]]]}},{"type":"Feature","properties":{"id":"way/1416357957:0","kind":"scrub_area","osm_element":"way","osm_id":"1416357957","source_url":"https://www.openstreetmap.org/way/1416357957"},"geometry":{"type":"Polygon","coordinates":[[[389325.1,5819763.15],[389352.2,5819763.77],[389369.67,5819768.33],[389382.38,5819781.57],[389380.16,5819796.58],[389380.5,5819808.3],[389377.32,5819813.73],[389365.81,5819816.88],[389358.62,5819823.24],[389362.79,5819823.89],[389378.66,5819819.29],[389386.64,5819820.69],[389393.4,5819818.94],[389398.32,5819819.63],[389403.78,5819819.36],[389407.24,5819818.85],[389409.4,5819817.65],[389409.34,5819814.75],[389408.16,5819809.35],[389397.97,5819804.3],[389395.3,5819797.62],[389390.7,5819793.22],[389386.49,5819782.88],[389391.32,5819779.6],[389393.93,5819783.64],[389403.81,5819786.85],[389403.44,5819793.99],[389411.36,5819799.82],[389411.87,5819803.72],[389411.72,5819814.56],[389412.29,5819816.91],[389417.36,5819818.14],[389421.57,5819816.99],[389423.48,5819815.41],[389422.33,5819811.96],[389405.85,5819764.82],[389398.26,5819762.39],[389389.26,5819765.8],[389378.64,5819764.91],[389371.68,5819758.59],[389361.84,5819753.77],[389348.92,5819750.77],[389330.07,5819748.79],[389324.4,5819750.87],[389319.08,5819754.54],[389301.5,5819760.34],[389290.79,5819769.15],[389287.33,5819770.46],[389291.16,5819779.79],[389302.21,5819768.28],[389316.69,5819764.35],[389325.1,5819763.15]]]}},{"type":"Feature","properties":{"id":"way/1429501845:0","kind":"scrub_area","osm_element":"way","osm_id":"1429501845","source_url":"https://www.openstreetmap.org/way/1429501845"},"geometry":{"type":"Polygon","coordinates":[[[388098.18,5820050.72],[388088.39,5820052.42],[388076.27,5820055.12],[388076.27,5820055.24],[388098.18,5820050.72]]]}},{"type":"Feature","properties":{"id":"way/1429505720:0","kind":"scrub_area","osm_element":"way","osm_id":"1429505720","source_url":"https://www.openstreetmap.org/way/1429505720"},"geometry":{"type":"Polygon","coordinates":[[[387889.74,5819898.72],[387888.26,5819901.76],[387894.32,5819954.19],[387896.35,5819995.14],[387914.26,5819994.32],[387915.12,5819993.81],[387902.01,5819968.16],[387897.5,5819902.84],[387976.89,5819871.74],[387974.14,5819865.53],[387894.66,5819895.94],[387889.74,5819898.72]]]}},{"type":"Feature","properties":{"id":"way/1429505721:0","kind":"scrub_area","osm_element":"way","osm_id":"1429505721","source_url":"https://www.openstreetmap.org/way/1429505721"},"geometry":{"type":"Polygon","coordinates":[[[387962.81,5819835.55],[387952.02,5819829.59],[387938.61,5819834.39],[387945.34,5819854.38],[387957.58,5819850.09],[387955.98,5819845.94],[387965.6,5819842.47],[387972.11,5819843.29],[387976.01,5819850.56],[387967.71,5819854.82],[387960.35,5819857.28],[387958.85,5819853.53],[387949.56,5819856.78],[387946.31,5819857.26],[387949.55,5819866.66],[387951.63,5819868.85],[387957.05,5819867.11],[387988.21,5819854.35],[387988.45,5819831.11],[387984.9,5819833.79],[387975.22,5819836.22],[387962.81,5819835.55]]]}},{"type":"Feature","properties":{"id":"way/1429505722:0","kind":"scrub_area","osm_element":"way","osm_id":"1429505722","source_url":"https://www.openstreetmap.org/way/1429505722"},"geometry":{"type":"Polygon","coordinates":[[[388008.68,5819846.7],[388010.57,5819842.2],[388008.56,5819829.27],[388006.01,5819825.79],[387992.58,5819828.12],[387992.69,5819841.63],[387991.91,5819853.1],[388008.68,5819846.7]]]}},{"type":"Feature","properties":{"id":"way/1429505723:0","kind":"scrub_area","osm_element":"way","osm_id":"1429505723","source_url":"https://www.openstreetmap.org/way/1429505723"},"geometry":{"type":"Polygon","coordinates":[[[388032.2,5819796.84],[388031.57,5819799.39],[388035.11,5819812.26],[388033.61,5819817.69],[388035.48,5819828.45],[388039.9,5819833.45],[388044.87,5819831.84],[388045.98,5819833.02],[388054.49,5819829.57],[388054.84,5819826.42],[388044.77,5819790.14],[388044.55,5819790.63],[388038.0,5819792.9],[388032.2,5819796.84]]]}},{"type":"Feature","properties":{"id":"way/1429505724:0","kind":"scrub_area","osm_element":"way","osm_id":"1429505724","source_url":"https://www.openstreetmap.org/way/1429505724"},"geometry":{"type":"Polygon","coordinates":[[[388067.37,5819825.05],[388063.48,5819807.45],[388053.77,5819809.74],[388058.01,5819825.8],[388061.23,5819827.4],[388067.37,5819825.05]]]}},{"type":"Feature","properties":{"id":"way/1429507187:0","kind":"scrub_area","osm_element":"way","osm_id":"1429507187","source_url":"https://www.openstreetmap.org/way/1429507187"},"geometry":{"type":"Polygon","coordinates":[[[388069.9,5819834.51],[388067.94,5819827.84],[388061.13,5819830.37],[388061.64,5819831.99],[388056.73,5819833.78],[388056.43,5819832.53],[388028.59,5819844.01],[388031.36,5819850.65],[388028.81,5819851.64],[388026.19,5819844.95],[387980.81,5819862.75],[387983.37,5819869.37],[388059.14,5819842.25],[388058.66,5819839.13],[388069.9,5819834.51]]]}},{"type":"Feature","properties":{"id":"way/1429682200:0","kind":"scrub_area","osm_element":"way","osm_id":"1429682200","source_url":"https://www.openstreetmap.org/way/1429682200"},"geometry":{"type":"Polygon","coordinates":[[[388067.5,5820073.38],[388065.2,5820078.2],[388065.49,5820095.64],[388065.93,5820096.15],[388101.78,5820063.03],[388102.06,5820057.76],[388111.16,5820052.29],[388113.97,5820047.98],[388088.39,5820052.42],[388076.27,5820055.24],[388075.94,5820062.32],[388072.88,5820068.73],[388067.5,5820073.38]]]}},{"type":"Feature","properties":{"id":"way/1429682201:0","kind":"scrub_area","osm_element":"way","osm_id":"1429682201","source_url":"https://www.openstreetmap.org/way/1429682201"},"geometry":{"type":"Polygon","coordinates":[[[388060.77,5820079.35],[388057.05,5820079.6],[388054.63,5820081.37],[388015.74,5820099.75],[387996.17,5820106.08],[387979.26,5820107.84],[387963.99,5820107.1],[387947.03,5820101.78],[387936.96,5820097.2],[387922.14,5820086.0],[387910.33,5820075.46],[387901.28,5820063.1],[387893.83,5820050.29],[387890.73,5820050.25],[387879.35,5820061.11],[387930.93,5820126.39],[388006.84,5820115.57],[388020.88,5820113.11],[388020.91,5820113.34],[388057.62,5820107.53],[388061.06,5820102.25],[388061.34,5820082.24],[388060.77,5820079.35]]]}},{"type":"Feature","properties":{"id":"way/1429682202:0","kind":"scrub_area","osm_element":"way","osm_id":"1429682202","source_url":"https://www.openstreetmap.org/way/1429682202"},"geometry":{"type":"Polygon","coordinates":[[[387956.85,5820101.21],[387965.97,5820103.17],[387982.6,5820103.99],[388012.99,5820097.3],[388052.94,5820077.63],[388070.05,5820066.96],[388071.85,5820060.45],[388071.29,5820056.23],[388015.95,5820083.14],[387961.22,5820091.55],[387961.12,5820091.42],[387958.72,5820091.78],[387956.85,5820101.21]]]}},{"type":"Feature","properties":{"id":"way/1429682272:0","kind":"scrub_area","osm_element":"way","osm_id":"1429682272","source_url":"https://www.openstreetmap.org/way/1429682272"},"geometry":{"type":"Polygon","coordinates":[[[387892.2,5820034.02],[387883.98,5819903.42],[387882.34,5819901.85],[387880.52,5819901.74],[387871.31,5819904.12],[387853.39,5819907.23],[387855.32,5819936.42],[387868.01,5819935.28],[387870.46,5819962.87],[387866.03,5819963.12],[387868.09,5819990.94],[387860.27,5819991.59],[387863.51,5820057.23],[387826.33,5820091.12],[387828.98,5820094.89],[387890.68,5820042.21],[387892.16,5820039.28],[387892.2,5820034.02]]]}},{"type":"Feature","properties":{"id":"way/1429686394:0","kind":"scrub_area","osm_element":"way","osm_id":"1429686394","source_url":"https://www.openstreetmap.org/way/1429686394"},"geometry":{"type":"Polygon","coordinates":[[[387862.55,5819890.0],[387865.51,5819890.63],[387871.09,5819893.0],[387876.9,5819898.47],[387883.07,5819896.34],[387881.79,5819871.24],[387880.0,5819869.86],[387877.22,5819870.38],[387866.2,5819877.21],[387860.18,5819879.15],[387858.91,5819882.08],[387861.64,5819887.07],[387862.55,5819890.0]]]}},{"type":"Feature","properties":{"id":"way/1429686600:0","kind":"scrub_area","osm_element":"way","osm_id":"1429686600","source_url":"https://www.openstreetmap.org/way/1429686600"},"geometry":{"type":"Polygon","coordinates":[[[387915.61,5819778.5],[387930.49,5819819.95],[387933.56,5819819.05],[387936.88,5819829.4],[387950.37,5819817.58],[387948.25,5819813.98],[387945.13,5819811.48],[387936.07,5819794.15],[387930.76,5819779.26],[387931.53,5819770.01],[387937.43,5819764.7],[387940.63,5819754.97],[387943.97,5819751.12],[387943.23,5819742.08],[387890.79,5819751.65],[387901.44,5819783.47],[387915.61,5819778.5]]]}},{"type":"Feature","properties":{"id":"way/1429699239:0","kind":"scrub_area","osm_element":"way","osm_id":"1429699239","source_url":"https://www.openstreetmap.org/way/1429699239"},"geometry":{"type":"Polygon","coordinates":[[[387830.83,5819890.83],[387829.75,5819885.89],[387824.33,5819880.41],[387806.58,5819875.49],[387797.1,5819868.27],[387780.39,5819892.74],[387780.42,5819893.93],[387814.95,5819900.37],[387828.71,5819895.57],[387830.83,5819890.83]]]}},{"type":"Feature","properties":{"id":"way/1429699240:0","kind":"scrub_area","osm_element":"way","osm_id":"1429699240","source_url":"https://www.openstreetmap.org/way/1429699240"},"geometry":{"type":"Polygon","coordinates":[[[387838.37,5819877.71],[387838.48,5819875.05],[387834.69,5819864.22],[387832.17,5819863.41],[387828.56,5819864.33],[387817.34,5819869.96],[387813.6,5819873.92],[387815.78,5819874.96],[387829.67,5819877.42],[387838.37,5819877.71]]]}},{"type":"Feature","properties":{"id":"way/1429699331:0","kind":"scrub_area","osm_element":"way","osm_id":"1429699331","source_url":"https://www.openstreetmap.org/way/1429699331"},"geometry":{"type":"Polygon","coordinates":[[[387960.39,5819758.87],[387967.36,5819767.3],[387989.42,5819756.25],[387997.14,5819730.42],[387995.66,5819728.24],[387986.41,5819728.59],[387959.68,5819739.41],[387958.65,5819741.97],[387958.64,5819751.39],[387960.39,5819758.87]]]}},{"type":"Feature","properties":{"id":"way/1429699332:0","kind":"scrub_area","osm_element":"way","osm_id":"1429699332","source_url":"https://www.openstreetmap.org/way/1429699332"},"geometry":{"type":"Polygon","coordinates":[[[388011.7,5819728.88],[388001.42,5819729.17],[387995.78,5819752.08],[388004.03,5819741.62],[388010.02,5819735.38],[388011.7,5819728.88]]]}},{"type":"Feature","properties":{"id":"way/1429699333:0","kind":"scrub_area","osm_element":"way","osm_id":"1429699333","source_url":"https://www.openstreetmap.org/way/1429699333"},"geometry":{"type":"Polygon","coordinates":[[[388038.35,5819749.53],[388051.64,5819731.07],[388036.02,5819730.53],[388033.97,5819731.72],[388038.35,5819749.53]]]}},{"type":"Feature","properties":{"id":"way/1429699578:0","kind":"scrub_area","osm_element":"way","osm_id":"1429699578","source_url":"https://www.openstreetmap.org/way/1429699578"},"geometry":{"type":"Polygon","coordinates":[[[387856.02,5819773.91],[387838.96,5819772.75],[387829.26,5819773.95],[387820.53,5819777.02],[387822.92,5819778.06],[387848.76,5819783.32],[387855.39,5819786.55],[387863.18,5819792.69],[387877.1,5819799.89],[387884.1,5819809.03],[387887.01,5819810.69],[387890.01,5819809.98],[387881.93,5819789.81],[387894.66,5819785.54],[387891.96,5819772.86],[387885.0,5819775.55],[387873.11,5819776.73],[387856.02,5819773.91]]]}},{"type":"Feature","properties":{"id":"way/1429699579:0","kind":"scrub_area","osm_element":"way","osm_id":"1429699579","source_url":"https://www.openstreetmap.org/way/1429699579"},"geometry":{"type":"Polygon","coordinates":[[[387825.5,5819770.31],[387843.17,5819767.95],[387872.08,5819771.48],[387886.62,5819770.97],[387890.8,5819769.84],[387884.54,5819753.06],[387870.23,5819753.44],[387852.45,5819751.32],[387846.91,5819750.19],[387834.56,5819751.39],[387816.77,5819756.21],[387817.25,5819767.05],[387819.01,5819773.04],[387825.5,5819770.31]]]}},{"type":"Feature","properties":{"id":"way/1429699847:0","kind":"scrub_area","osm_element":"way","osm_id":"1429699847","source_url":"https://www.openstreetmap.org/way/1429699847"},"geometry":{"type":"Polygon","coordinates":[[[387729.46,5819822.73],[387728.6,5819827.31],[387746.25,5819829.62],[387748.86,5819824.99],[387758.38,5819815.5],[387763.4,5819812.12],[387769.59,5819813.05],[387774.28,5819818.94],[387777.34,5819824.84],[387779.37,5819832.92],[387791.43,5819833.2],[387793.04,5819817.27],[387799.95,5819800.54],[387788.82,5819794.31],[387783.77,5819783.1],[387773.43,5819777.04],[387754.33,5819791.2],[387739.79,5819808.77],[387729.46,5819822.73]]]}},{"type":"Feature","properties":{"id":"way/1429700273:0","kind":"scrub_area","osm_element":"way","osm_id":"1429700273","source_url":"https://www.openstreetmap.org/way/1429700273"},"geometry":{"type":"Polygon","coordinates":[[[387721.62,5819825.19],[387745.85,5819794.09],[387766.89,5819775.85],[387771.87,5819772.56],[387773.61,5819768.33],[387772.2,5819765.57],[387713.0,5819808.74],[387697.27,5819820.29],[387699.17,5819824.56],[387718.63,5819826.14],[387721.62,5819825.19]]]}},{"type":"Feature","properties":{"id":"way/1429700327:0","kind":"scrub_area","osm_element":"way","osm_id":"1429700327","source_url":"https://www.openstreetmap.org/way/1429700327"},"geometry":{"type":"Polygon","coordinates":[[[387804.05,5819780.73],[387807.39,5819784.05],[387815.67,5819774.82],[387812.88,5819761.75],[387810.95,5819759.25],[387805.79,5819760.06],[387790.1,5819767.22],[387792.1,5819769.34],[387794.21,5819773.89],[387804.05,5819780.73]]]}},{"type":"Feature","properties":{"id":"way/1429702828:0","kind":"scrub_area","osm_element":"way","osm_id":"1429702828","source_url":"https://www.openstreetmap.org/way/1429702828"},"geometry":{"type":"Polygon","coordinates":[[[387731.58,5819877.59],[387734.99,5819885.61],[387733.35,5819887.28],[387726.07,5819890.54],[387728.94,5819899.17],[387744.01,5819893.32],[387760.78,5819891.7],[387774.38,5819893.62],[387777.9,5819891.34],[387792.6,5819869.09],[387792.52,5819864.36],[387789.62,5819855.19],[387787.52,5819838.1],[387778.68,5819836.77],[387779.89,5819839.99],[387776.43,5819847.42],[387774.68,5819848.91],[387771.88,5819849.51],[387757.26,5819848.59],[387749.47,5819848.69],[387744.51,5819845.5],[387742.37,5819839.98],[387741.92,5819832.64],[387706.66,5819828.51],[387700.45,5819829.22],[387698.1,5819831.3],[387698.67,5819833.47],[387711.78,5819861.32],[387731.58,5819877.59]]]}},{"type":"Feature","properties":{"id":"way/1429702832:0","kind":"scrub_area","osm_element":"way","osm_id":"1429702832","source_url":"https://www.openstreetmap.org/way/1429702832"},"geometry":{"type":"Polygon","coordinates":[[[387687.95,5819929.66],[387681.13,5819938.36],[387690.91,5819936.11],[387687.95,5819929.66]]]}},{"type":"Feature","properties":{"id":"way/1429702833:0","kind":"scrub_area","osm_element":"way","osm_id":"1429702833","source_url":"https://www.openstreetmap.org/way/1429702833"},"geometry":{"type":"Polygon","coordinates":[[[387677.11,5819935.14],[387681.86,5819922.76],[387682.06,5819912.16],[387686.64,5819905.16],[387690.54,5819896.16],[387688.8,5819887.41],[387684.0,5819878.02],[387679.41,5819863.05],[387673.78,5819857.77],[387671.59,5819862.99],[387677.66,5819863.66],[387663.93,5819948.56],[387667.84,5819953.44],[387677.11,5819935.14]]]}},{"type":"Feature","properties":{"id":"way/1429703052:0","kind":"scrub_area","osm_element":"way","osm_id":"1429703052","source_url":"https://www.openstreetmap.org/way/1429703052"},"geometry":{"type":"Polygon","coordinates":[[[387810.96,5819753.55],[387811.1,5819750.5],[387809.62,5819737.89],[387783.48,5819757.24],[387787.48,5819763.93],[387810.96,5819753.55]]]}},{"type":"Feature","properties":{"id":"way/1429703053:0","kind":"scrub_area","osm_element":"way","osm_id":"1429703053","source_url":"https://www.openstreetmap.org/way/1429703053"},"geometry":{"type":"Polygon","coordinates":[[[387822.65,5819750.65],[387834.25,5819746.96],[387833.46,5819744.33],[387828.53,5819744.27],[387825.54,5819739.01],[387823.55,5819727.58],[387814.03,5819734.63],[387815.27,5819748.77],[387817.28,5819751.64],[387822.65,5819750.65]]]}},{"type":"Feature","properties":{"id":"way/1429703550:0","kind":"scrub_area","osm_element":"way","osm_id":"1429703550","source_url":"https://www.openstreetmap.org/way/1429703550"},"geometry":{"type":"Polygon","coordinates":[[[387749.28,5819962.07],[387746.23,5819965.01],[387762.6,5819964.01],[387762.86,5819960.71],[387749.28,5819962.07]]]}},{"type":"Feature","properties":{"id":"way/1429703551:0","kind":"scrub_area","osm_element":"way","osm_id":"1429703551","source_url":"https://www.openstreetmap.org/way/1429703551"},"geometry":{"type":"Polygon","coordinates":[[[387745.68,5819920.04],[387748.76,5819937.69],[387749.01,5819935.13],[387751.29,5819907.05],[387751.74,5819907.08],[387752.04,5819904.05],[387851.99,5819916.22],[387851.33,5819907.84],[387846.18,5819908.38],[387836.07,5819907.84],[387802.87,5819901.4],[387764.3,5819895.44],[387749.0,5819895.79],[387741.42,5819897.33],[387734.1,5819901.41],[387734.42,5819903.61],[387742.29,5819915.99],[387745.68,5819920.04]]]}},{"type":"Feature","properties":{"id":"way/1429704033:0","kind":"scrub_area","osm_element":"way","osm_id":"1429704033","source_url":"https://www.openstreetmap.org/way/1429704033"},"geometry":{"type":"Polygon","coordinates":[[[387962.18,5819733.09],[387978.56,5819726.1],[387979.36,5819723.79],[387976.5,5819722.02],[387955.45,5819715.07],[387949.69,5819717.87],[387942.2,5819717.49],[387934.78,5819715.33],[387930.62,5819713.13],[387927.21,5819713.1],[387924.7,5819714.38],[387916.69,5819721.06],[387913.9,5819728.83],[387913.74,5819741.92],[387934.83,5819737.12],[387947.73,5819735.71],[387962.18,5819733.09]]]}},{"type":"Feature","properties":{"id":"way/1429704034:0","kind":"scrub_area","osm_element":"way","osm_id":"1429704034","source_url":"https://www.openstreetmap.org/way/1429704034"},"geometry":{"type":"Polygon","coordinates":[[[387919.69,5819675.36],[387924.15,5819671.52],[387925.05,5819665.14],[387921.48,5819656.29],[387898.26,5819673.38],[387906.4,5819682.34],[387906.77,5819681.04],[387915.24,5819676.68],[387919.69,5819675.36]]]}},{"type":"Feature","properties":{"id":"way/1429704807:0","kind":"scrub_area","osm_element":"way","osm_id":"1429704807","source_url":"https://www.openstreetmap.org/way/1429704807"},"geometry":{"type":"Polygon","coordinates":[[[387853.37,5819875.81],[387861.85,5819874.39],[387872.91,5819868.98],[387877.41,5819865.43],[387873.29,5819862.07],[387866.27,5819862.04],[387861.36,5819854.67],[387852.69,5819847.3],[387842.46,5819848.08],[387839.82,5819858.0],[387843.33,5819865.05],[387846.8,5819875.79],[387853.37,5819875.81]]]}},{"type":"Feature","properties":{"id":"way/1429933944:0","kind":"scrub_area","osm_element":"way","osm_id":"1429933944","source_url":"https://www.openstreetmap.org/way/1429933944"},"geometry":{"type":"Polygon","coordinates":[[[388754.31,5819816.35],[388750.93,5819819.75],[388748.5,5819823.73],[388745.58,5819826.02],[388737.28,5819837.89],[388735.14,5819839.2],[388738.44,5819840.45],[388737.74,5819844.68],[388757.81,5819850.98],[388762.65,5819828.45],[388766.34,5819816.15],[388769.11,5819810.66],[388774.01,5819803.98],[388767.59,5819799.51],[388766.79,5819801.02],[388761.05,5819807.15],[388754.31,5819816.35]]]}},{"type":"Feature","properties":{"id":"way/1430148164:0","kind":"scrub_area","osm_element":"way","osm_id":"1430148164","source_url":"https://www.openstreetmap.org/way/1430148164"},"geometry":{"type":"Polygon","coordinates":[[[388041.11,5819727.15],[388057.19,5819726.25],[388067.96,5819722.57],[388064.76,5819717.61],[388060.87,5819713.38],[388057.61,5819711.03],[388054.8,5819707.73],[388055.65,5819701.6],[388055.26,5819698.73],[388053.18,5819696.59],[388048.9,5819694.45],[388044.78,5819693.92],[388043.46,5819695.86],[388041.65,5819696.39],[388040.31,5819695.65],[388039.41,5819693.82],[388034.61,5819693.74],[388033.03,5819694.78],[388031.63,5819706.63],[388026.46,5819706.1],[388023.96,5819707.86],[388020.37,5819707.81],[388018.4,5819722.99],[388019.26,5819724.68],[388041.11,5819727.15]]]}},{"type":"Feature","properties":{"id":"way/1430148165:0","kind":"scrub_area","osm_element":"way","osm_id":"1430148165","source_url":"https://www.openstreetmap.org/way/1430148165"},"geometry":{"type":"Polygon","coordinates":[[[387964.49,5819714.02],[387979.97,5819718.82],[387998.99,5819722.82],[388011.0,5819724.15],[388013.91,5819723.13],[388016.24,5819709.48],[388015.2,5819707.77],[388011.77,5819705.89],[388006.65,5819705.6],[388007.7,5819693.0],[388002.63,5819693.76],[387996.27,5819705.17],[387992.69,5819707.29],[387987.22,5819708.91],[387979.93,5819707.98],[387976.42,5819706.64],[387973.47,5819703.76],[387968.31,5819702.81],[387964.98,5819703.82],[387961.31,5819708.6],[387964.49,5819714.02]]]}},{"type":"Feature","properties":{"id":"way/1430148167:0","kind":"scrub_area","osm_element":"way","osm_id":"1430148167","source_url":"https://www.openstreetmap.org/way/1430148167"},"geometry":{"type":"Polygon","coordinates":[[[387937.89,5819669.47],[387940.81,5819680.95],[387946.14,5819691.11],[387951.7,5819696.41],[387960.03,5819706.04],[387961.31,5819708.6],[387964.98,5819703.82],[387968.31,5819702.81],[387973.95,5819695.46],[387975.56,5819666.98],[387983.59,5819656.95],[387989.8,5819658.18],[387996.76,5819664.23],[387999.49,5819662.22],[388006.76,5819660.58],[388019.04,5819660.1],[388020.88,5819645.12],[388003.38,5819640.04],[387990.51,5819634.22],[387981.16,5819648.14],[387967.63,5819639.09],[387976.97,5819624.82],[387973.45,5819622.18],[387971.66,5819619.67],[387938.14,5819644.18],[387939.19,5819660.31],[387937.89,5819669.47]]]}},{"type":"Feature","properties":{"id":"way/1430148846:0","kind":"scrub_area","osm_element":"way","osm_id":"1430148846","source_url":"https://www.openstreetmap.org/way/1430148846"},"geometry":{"type":"Polygon","coordinates":[]}},{"type":"Feature","properties":{"id":"way/1430149050:0","kind":"scrub_area","osm_element":"way","osm_id":"1430149050","source_url":"https://www.openstreetmap.org/way/1430149050"},"geometry":{"type":"Polygon","coordinates":[[[388122.46,5819677.61],[388122.05,5819681.78],[388125.07,5819684.08],[388131.73,5819678.39],[388127.54,5819674.43],[388122.46,5819677.61]]]}},{"type":"Feature","properties":{"id":"way/1430183011:0","kind":"scrub_area","osm_element":"way","osm_id":"1430183011","source_url":"https://www.openstreetmap.org/way/1430183011"},"geometry":{"type":"Polygon","coordinates":[[[387889.01,5819863.72],[387886.24,5819869.78],[387886.11,5819885.41],[387887.16,5819891.92],[387888.62,5819893.35],[387892.55,5819893.19],[387942.4,5819872.69],[387944.82,5819871.09],[387944.37,5819867.55],[387941.58,5819867.49],[387924.62,5819870.38],[387923.65,5819875.08],[387906.78,5819882.62],[387901.53,5819883.69],[387897.45,5819882.7],[387894.14,5819879.67],[387893.21,5819874.83],[387895.15,5819870.88],[387898.99,5819867.29],[387908.29,5819866.0],[387909.57,5819863.53],[387897.89,5819860.12],[387893.51,5819860.22],[387889.01,5819863.72]]]}},{"type":"Feature","properties":{"id":"way/1433534353:0","kind":"scrub_area","osm_element":"way","osm_id":"1433534353","source_url":"https://www.openstreetmap.org/way/1433534353"},"geometry":{"type":"Polygon","coordinates":[[[388338.77,5819538.22],[388338.06,5819531.84],[388307.01,5819533.7],[388289.79,5819535.62],[388273.05,5819536.27],[388258.44,5819534.15],[388245.49,5819529.86],[388225.62,5819524.76],[388210.5,5819524.15],[388191.61,5819525.31],[388171.4,5819529.96],[388167.05,5819532.53],[388166.23,5819535.28],[388253.93,5819543.22],[388337.18,5819549.99],[388338.77,5819538.22]]]}},{"type":"Feature","properties":{"id":"way/1433535255:0","kind":"scrub_area","osm_element":"way","osm_id":"1433535255","source_url":"https://www.openstreetmap.org/way/1433535255"},"geometry":{"type":"Polygon","coordinates":[[[388504.68,5819550.03],[388426.87,5819540.2],[388426.48,5819541.88],[388418.23,5819540.94],[388418.24,5819539.28],[388365.69,5819532.15],[388344.91,5819532.08],[388342.4,5819534.99],[388342.32,5819550.41],[388517.42,5819564.67],[388518.57,5819551.05],[388504.68,5819550.03]]]}},{"type":"Feature","properties":{"id":"way/1433535614:0","kind":"scrub_area","osm_element":"way","osm_id":"1433535614","source_url":"https://www.openstreetmap.org/way/1433535614"},"geometry":{"type":"Polygon","coordinates":[[[388223.09,5819593.86],[388224.09,5819599.67],[388234.57,5819594.1],[388223.09,5819593.86]]]}},{"type":"Feature","properties":{"id":"way/1433563250:0","kind":"scrub_area","osm_element":"way","osm_id":"1433563250","source_url":"https://www.openstreetmap.org/way/1433563250"},"geometry":{"type":"Polygon","coordinates":[[[388761.02,5819851.98],[388778.56,5819857.5],[388792.02,5819860.52],[388802.26,5819861.75],[388807.61,5819858.19],[388809.52,5819855.07],[388811.21,5819847.82],[388809.73,5819840.6],[388805.05,5819832.78],[388798.82,5819828.54],[388796.74,5819822.14],[388790.63,5819815.56],[388776.88,5819805.98],[388771.62,5819813.43],[388767.44,5819823.57],[388761.02,5819851.98]]]}},{"type":"Feature","properties":{"id":"way/1433755144:0","kind":"scrub_area","osm_element":"way","osm_id":"1433755144","source_url":"https://www.openstreetmap.org/way/1433755144"},"geometry":{"type":"Polygon","coordinates":[[[388833.28,5819848.07],[388833.77,5819854.08],[388838.4,5819858.05],[388845.31,5819846.01],[388835.2,5819839.45],[388833.28,5819848.07]]]}},{"type":"Feature","properties":{"id":"way/1530426302:0","kind":"scrub_area","osm_element":"way","osm_id":"1530426302","source_url":"https://www.openstreetmap.org/way/1530426302"},"geometry":{"type":"Polygon","coordinates":[[[388501.78,5819792.64],[388503.68,5819790.49],[388503.67,5819788.0],[388501.39,5819787.37],[388498.97,5819789.01],[388498.82,5819791.91],[388501.78,5819792.64]]]}},{"type":"Feature","properties":{"id":"way/163215409:0","kind":"scrub_area","osm_element":"way","osm_id":"163215409","source_url":"https://www.openstreetmap.org/way/163215409","leaf_type":"broadleaved"},"geometry":{"type":"Polygon","coordinates":[[[388090.2,5819652.89],[388074.55,5819658.8],[388068.68,5819642.85],[388066.94,5819643.27],[388064.95,5819643.93],[388055.63,5819645.95],[388042.11,5819647.14],[388032.75,5819646.95],[388030.1,5819665.18],[388037.66,5819672.77],[388043.87,5819673.65],[388049.62,5819671.99],[388054.08,5819666.59],[388059.22,5819667.23],[388064.85,5819670.98],[388068.45,5819672.34],[388078.64,5819669.15],[388081.71,5819670.67],[388090.85,5819669.98],[388100.44,5819660.59],[388102.42,5819657.74],[388103.82,5819651.55],[388089.19,5819634.84],[388084.32,5819636.88],[388090.2,5819652.89]]]}},{"type":"Feature","properties":{"id":"way/257491841:0","kind":"scrub_area","osm_element":"way","osm_id":"257491841","source_url":"https://www.openstreetmap.org/way/257491841","leaf_type":"broadleaved"},"geometry":{"type":"Polygon","coordinates":[[[388536.12,5819624.51],[388564.89,5819631.39],[388584.84,5819635.47],[388593.49,5819639.66],[388633.34,5819614.16],[388512.94,5819604.36],[388522.72,5819615.55],[388527.92,5819619.87],[388536.12,5819624.51]]]}},{"type":"Feature","properties":{"id":"way/25945491:0","kind":"scrub_area","osm_element":"way","osm_id":"25945491","source_url":"https://www.openstreetmap.org/way/25945491","leaf_type":"broadleaved"},"geometry":{"type":"Polygon","coordinates":[[[388464.54,5819697.76],[388441.58,5819686.62],[388433.81,5819684.8],[388423.95,5819683.46],[388420.3,5819684.2],[388413.84,5819684.06],[388408.01,5819687.87],[388402.11,5819688.93],[388392.58,5819694.29],[388382.9,5819705.4],[388379.31,5819718.63],[388372.68,5819735.39],[388407.23,5819745.86],[388475.42,5819707.02],[388464.54,5819697.76]]]}},{"type":"Feature","properties":{"id":"way/25945887:0","kind":"scrub_area","osm_element":"way","osm_id":"25945887","source_url":"https://www.openstreetmap.org/way/25945887"},"geometry":{"type":"Polygon","coordinates":[[[388742.72,5819826.48],[388751.34,5819813.54],[388754.42,5819810.55],[388755.53,5819808.69],[388759.07,5819805.86],[388761.89,5819801.92],[388763.79,5819797.96],[388678.26,5819738.3],[388676.67,5819741.14],[388673.59,5819740.57],[388661.92,5819748.12],[388662.22,5819749.28],[388667.4,5819753.26],[388674.85,5819760.45],[388681.17,5819772.51],[388672.17,5819779.51],[388666.96,5819778.89],[388662.63,5819772.5],[388660.13,5819774.07],[388657.89,5819770.54],[388642.53,5819781.36],[388636.32,5819772.21],[388634.43,5819773.45],[388632.74,5819771.27],[388617.88,5819780.2],[388618.92,5819781.99],[388616.23,5819783.55],[388617.03,5819785.32],[388616.67,5819787.64],[388615.49,5819788.99],[388613.79,5819789.67],[388611.94,5819789.44],[388609.87,5819787.47],[388609.73,5819784.76],[388610.99,5819782.94],[388609.41,5819780.28],[388610.52,5819779.64],[388608.2,5819775.49],[388595.5,5819778.8],[388595.07,5819780.52],[388588.13,5819780.7],[388579.35,5819778.68],[388577.88,5819782.44],[388577.9,5819789.37],[388601.41,5819794.6],[388612.81,5819799.69],[388619.6,5819803.9],[388639.89,5819806.56],[388646.01,5819809.09],[388648.62,5819810.77],[388651.64,5819806.91],[388649.76,5819804.47],[388654.23,5819801.15],[388655.54,5819803.97],[388662.0,5819801.76],[388661.5,5819798.53],[388668.92,5819798.4],[388668.35,5819801.95],[388673.28,5819802.62],[388676.8,5819804.76],[388678.77,5819802.34],[388683.6,5819806.91],[388680.99,5819808.75],[388683.67,5819813.16],[388686.21,5819811.08],[388687.88,5819815.75],[388685.23,5819816.68],[388685.68,5819820.65],[388688.5,5819820.98],[388688.02,5819825.67],[388725.85,5819840.47],[388729.17,5819837.89],[388735.14,5819839.2],[388734.51,5819836.95],[388737.01,5819831.81],[388742.72,5819826.48]]]}},{"type":"Feature","properties":{"id":"way/264072795:0","kind":"scrub_area","osm_element":"way","osm_id":"264072795","source_url":"https://www.openstreetmap.org/way/264072795"},"geometry":{"type":"Polygon","coordinates":[[[388312.98,5819495.21],[388310.95,5819493.13],[388308.17,5819493.7],[388306.01,5819495.44],[388302.4,5819496.71],[388298.42,5819498.98],[388297.01,5819500.42],[388297.09,5819501.87],[388298.09,5819503.25],[388300.85,5819501.16],[388311.03,5819496.88],[388312.98,5819495.21]]]}},{"type":"Feature","properties":{"id":"way/28586188:0","kind":"scrub_area","osm_element":"way","osm_id":"28586188","source_url":"https://www.openstreetmap.org/way/28586188"},"geometry":{"type":"Polygon","coordinates":[[[389052.92,5819066.46],[389052.69,5819069.37],[389058.55,5819074.02],[389066.74,5819077.96],[389071.59,5819077.54],[389073.79,5819075.43],[389074.22,5819072.31],[389072.06,5819067.32],[389065.17,5819063.23],[389060.92,5819062.1],[389056.96,5819063.2],[389052.92,5819066.46]]]}},{"type":"Feature","properties":{"id":"way/531252316:0","kind":"scrub_area","osm_element":"way","osm_id":"531252316","source_url":"https://www.openstreetmap.org/way/531252316"},"geometry":{"type":"Polygon","coordinates":[[[387721.03,5819952.15],[387720.74,5819945.08],[387724.33,5819940.73],[387726.23,5819934.62],[387725.42,5819928.49],[387716.46,5819928.55],[387709.33,5819930.1],[387707.16,5819937.59],[387716.97,5819945.61],[387718.44,5819950.31],[387721.03,5819952.15]]]}},{"type":"Feature","properties":{"id":"way/534213711:0","kind":"scrub_area","osm_element":"way","osm_id":"534213711","source_url":"https://www.openstreetmap.org/way/534213711"},"geometry":{"type":"Polygon","coordinates":[[[387669.32,5819969.28],[387669.01,5819979.18],[387669.32,5819979.54],[387671.58,5819959.69],[387724.15,5819965.41],[387726.98,5819972.38],[387727.5,5819972.11],[387719.28,5819955.19],[387716.14,5819953.18],[387712.48,5819956.52],[387700.72,5819955.8],[387694.18,5819948.6],[387693.27,5819940.26],[387684.74,5819941.9],[387671.64,5819959.34],[387669.32,5819969.28]]]}},{"type":"Feature","properties":{"id":"way/535223831:0","kind":"scrub_area","osm_element":"way","osm_id":"535223831","source_url":"https://www.openstreetmap.org/way/535223831"},"geometry":{"type":"Polygon","coordinates":[[[387664.23,5819982.85],[387666.26,5819960.11],[387665.33,5819959.31],[387662.65,5819985.53],[387664.23,5819982.85]]]}}]}
