{"type":"FeatureCollection","features":[{"type":"Feature","properties":{"osmId":"way/24296022","sourceParentId":"DEBE04AL5LX00004","policy":"Exact full LoD2 outer stadium plan only; rendered source walls/roofs and authored infield/terraces replace flat new land. Source inventory remains.","pitchY":-12.667,"plazaY":3.55},"geometry":{"type":"MultiPolygon","coordinates":[[[[13.241595471037371,52.51513293963885],[13.241611904009709,52.5151126388194],[13.241615802292753,52.515113559915235],[13.241635905883534,52.51511833633297],[13.241652127542883,52.515097052319796],[13.24166738709831,52.515075502251115],[13.241681683474546,52.51505371308512],[13.24168509176269,52.51504808125622],[13.241695001584684,52.5150316935892],[13.241707293295404,52.515009541952274],[13.241718590937,52.51498718672501],[13.241728878705182,52.5149646546466],[13.241738170613065,52.51494196390807],[13.241748909636337,52.51491366614177],[13.241758123620539,52.51488517487783],[13.241765796762923,52.51485651685557],[13.241771928348848,52.51482771004718],[13.241776501499405,52.51479880814962],[13.24177953058806,52.51476982036793],[13.241781074293138,52.51474296841664],[13.241781351285583,52.51471609764165],[13.241780404678945,52.51468923565748],[13.241778189570402,52.51466239977935],[13.241775357886924,52.51464030212657],[13.241774749432217,52.51463560863566],[13.241773847809974,52.51463050618127],[13.241773031353436,52.5146258545557],[13.241770053731994,52.5146088887464],[13.241768654490127,52.514602592050174],[13.241764629608921,52.51458454071753],[13.24176411612483,52.51458226728812],[13.241737562839504,52.51458437226641],[13.241734520865009,52.514573078988086],[13.241733159416174,52.5145680506214],[13.241731119216773,52.514560458648695],[13.241723787188805,52.51453664871463],[13.24171555166909,52.51451295123116],[13.24171207801025,52.51450398027467],[13.241706427388145,52.51448936641697],[13.241703938959992,52.51448377283479],[13.241701376169335,52.51447819612999],[13.2416987688332,52.514472627754415],[13.241686584825308,52.514448161280406],[13.241673346454201,52.514423894926324],[13.241672656283527,52.51442272479637],[13.241659037915998,52.51439985543077],[13.241643687952806,52.51437606120298],[13.241627296207279,52.51435252122854],[13.241613682426829,52.51433433637482],[13.241609891062536,52.51432926290259],[13.24158472951964,52.514299469535636],[13.241558328994866,52.51427007134736],[13.241530688054754,52.51424110428066],[13.241501850529216,52.51421257797735],[13.2414718157021,52.51418451040845],[13.241439610417862,52.514157651366546],[13.241425737727052,52.51414669161967],[13.241406264597774,52.514131305847975],[13.241371821712017,52.514105492480454],[13.24133629577258,52.514080229453796],[13.241299715161391,52.51405554416275],[13.241261697315485,52.51403215921224],[13.241222652102293,52.51400940634858],[13.241216321749226,52.51400591354898],[13.241182608261887,52.513987303980535],[13.24114160890417,52.51396587972175],[13.241125407854723,52.51395787042647],[13.241099668757615,52.5139451337902],[13.241064537496754,52.51392807658239],[13.241028736297134,52.513911557871474],[13.240992265158225,52.51389557765686],[13.240955167907229,52.51388014558081],[13.240917473283373,52.513865280052535],[13.240879181285832,52.51385098107145],[13.24083322556584,52.51383484180815],[13.240786530227835,52.51381950973493],[13.24073915418557,52.51380498572693],[13.240691126176932,52.51379128819319],[13.240642475657596,52.51377841757097],[13.240581350499355,52.51376386887529],[13.24051978425282,52.51375003288978],[13.240457776197394,52.51373692758556],[13.240395385604844,52.5137245448522],[13.240334509620821,52.513712984834676],[13.240273328327792,52.513702058624744],[13.240211856452197,52.51369176644103],[13.240172502346764,52.51368561550287],[13.240150093632515,52.513682117268964],[13.240099536628644,52.51367418124445],[13.24004865310604,52.51366704056417],[13.239997472160645,52.5136607046518],[13.239965745520939,52.51365730154756],[13.239946052345957,52.51365518336926],[13.239907374789079,52.5136516498746],[13.239894423475999,52.51365046816852],[13.239809437412964,52.513642217646336],[13.239724364449557,52.513634298446966],[13.23963921895353,52.51362671977525],[13.239576697660597,52.51362167153859],[13.239514011852954,52.513617421043854],[13.239451190984857,52.5136139687291],[13.239400638141069,52.51361183183527],[13.239388264869781,52.513611306046506],[13.23932612405754,52.5136096440562],[13.239263964209403,52.51360845828722],[13.239201770953846,52.51360773953441],[13.239139573387192,52.51360749722204],[13.23908806964534,52.513607764694164],[13.239036582781685,52.51360871573159],[13.239008634336194,52.5136096034909],[13.238985156980217,52.513610350991996],[13.238980314435816,52.513610566636274],[13.238933792597884,52.513612661489525],[13.238882518730577,52.51361565664858],[13.238830420393509,52.513619367805894],[13.238778481179303,52.513623890523306],[13.238726746349682,52.51362919850098],[13.23867525936957,52.51363531036879],[13.23862403532444,52.513642217360406],[13.238580321532345,52.513648534819076],[13.238536890436018,52.51365552182436],[13.238493756762406,52.5136631785959],[13.238450950326751,52.513671496586596],[13.23840851531374,52.5136804764547],[13.238366452081126,52.51369010921469],[13.238316388857928,52.51370225728568],[13.238266854028605,52.51371519544396],[13.238217892136907,52.51372891536227],[13.238169518269059,52.51374340827463],[13.238121791697928,52.5137586660732],[13.238082082316096,52.51377208314452],[13.238042924325999,52.51378608385522],[13.238004332814967,52.5138006594393],[13.237966337239742,52.51381581033599],[13.237928953047376,52.51383151879339],[13.23789221005437,52.51384777626484],[13.23788211665598,52.513852517193136],[13.237862170548528,52.513861876754056],[13.23783277476603,52.51387646336051],[13.23781350649843,52.51388656130181],[13.23780402306609,52.51389152709875],[13.237775930896461,52.51390705021678],[13.23775160720228,52.51392120883645],[13.237727829885792,52.51393570826628],[13.237704628404773,52.51395054894535],[13.237682003118847,52.513965721888084],[13.237648792406674,52.513989458687874],[13.237616651100977,52.514013723910274],[13.237585579202332,52.51403851755612],[13.237555636706011,52.514063813546166],[13.237526809603217,52.51408959368999],[13.237503561241107,52.514113334990334],[13.237481112157447,52.514137357930835],[13.237459506180352,52.51416167215613],[13.237438729660743,52.51418625048952],[13.237418797688258,52.51421108416497],[13.237403130831797,52.514231719513184],[13.23739675059317,52.51424089446553],[13.237388572214996,52.514252650098626],[13.237382011573988,52.51426301820172],[13.237375151656808,52.514273867374634],[13.237362885326277,52.51429533561739],[13.237347158010747,52.51429428311159],[13.237336572083436,52.514333417259785],[13.237332090788943,52.5143500113236],[13.237362700132756,52.514352616246576],[13.237399243825754,52.51435571417456],[13.237478851859583,52.51436248366959],[13.23748241692495,52.51434815973474],[13.23752825137574,52.514352214228545],[13.237550955572882,52.51435422480859],[13.237573674501231,52.5143562356037],[13.237581516790929,52.51435692786193],[13.237522607040304,52.51460518946252],[13.23746872563622,52.51459928877196],[13.237446010920571,52.51459680148292],[13.237424616792723,52.51459445974012],[13.237427647641443,52.514581332679214],[13.23728109174286,52.51456813503823],[13.237276552095679,52.51458692210034],[13.237267877742159,52.514622847863095],[13.237283986673098,52.51462431067124],[13.237285884601697,52.51465311101337],[13.237289376517001,52.51468185418136],[13.237294463501184,52.51471051321735],[13.237301132266921,52.51473905195812],[13.237309369526809,52.51476743424029],[13.237316798469527,52.5147887643147],[13.237319191092041,52.51479563332531],[13.237330554216703,52.514823612610854],[13.237337991698542,52.51483957502238],[13.237343460342302,52.51485133615284],[13.237357058449502,52.51487797306705],[13.237357938535272,52.514879550659224],[13.237371844981146,52.51490437592842],[13.237387791559712,52.514930517339884],[13.237404898546671,52.5149563883151],[13.237423166663106,52.51498197088178],[13.237442552801925,52.51500723742337],[13.237463217204919,52.515031866640705],[13.237485091605333,52.51505609128917],[13.237508176364239,52.5150799023822],[13.237532442743698,52.51510328150848],[13.237557862724877,52.51512619228482],[13.237584407569464,52.51514861629987],[13.23758623573844,52.515150073143396],[13.237612062908653,52.51517054434756],[13.23764080072306,52.5151919400447],[13.237669405297126,52.51521298309052],[13.237698882539837,52.5152335805725],[13.237715679653105,52.5152447371676],[13.23772918898274,52.515253713860034],[13.23776032498565,52.515273373966565],[13.237782964202967,52.5152869642858],[13.237792261449592,52.51529255146681],[13.237824984364405,52.51531122816887],[13.23786541675734,52.515333184607385],[13.237906713934866,52.51535452452201],[13.237948876256107,52.51537523892595],[13.237991860251473,52.515395309188406],[13.238035636821001,52.51541472588386],[13.23807301200877,52.51543021695685],[13.238110984320167,52.51544515045975],[13.238149539024976,52.51545952617263],[13.238188647023007,52.515473334670354],[13.23822827957347,52.51548655754189],[13.238268436315785,52.51549920377264],[13.238315381171974,52.515512742292046],[13.23836269933516,52.51552579183103],[13.238410376793627,52.515538334198],[13.238458413186587,52.515550378378414],[13.238506764324388,52.515561923713975],[13.238527193621994,52.515566291911306],[13.238566546957493,52.5155747091743],[13.238626664104382,52.51558687019524],[13.238687131211083,52.51559838902371],[13.238692545529702,52.515599359757736],[13.238747918456923,52.51560927420653],[13.238807977526003,52.51561994171973],[13.238868375053364,52.5156298859474],[13.238876783770658,52.51563116199029],[13.238929081577336,52.51563910645055],[13.238990067636177,52.51564760279022],[13.23907228465385,52.515656271219015],[13.239154589725423,52.51566458125021],[13.239213095579514,52.515670235288056],[13.239236996859827,52.51567255107464],[13.23926258089771,52.51567480198536],[13.239278075239621,52.51567616546036],[13.239319190630491,52.51567959156594],[13.239360342313358,52.515682847363145],[13.239405821959537,52.51568623048555],[13.239444681602508,52.51568893964531],[13.239451354064572,52.51568940757186],[13.23949690952809,52.51569236919776],[13.239547674211803,52.51569553419145],[13.239598505004832,52.51569815167967],[13.239649416994018,52.51570021289554],[13.239700380359237,52.515701726386574],[13.239751380369086,52.51570269193355],[13.239793414058923,52.51570268788065],[13.239835439125683,52.515702530833],[13.239877455568926,52.51570222079062],[13.239921867170866,52.51570172158147],[13.239966285955283,52.51570104263717],[13.240010682103478,52.51570019250544],[13.24006349848465,52.51569848755657],[13.240116226115289,52.51569605297151],[13.240168863915443,52.515692915708165],[13.240221354041898,52.515689047932526],[13.24025940818337,52.51568572968719],[13.240273710144299,52.51568447682164],[13.240306424298915,52.515681276948506],[13.240339020246612,52.51567771565776],[13.240371513075178,52.51567378418258],[13.240403888054326,52.515669482304006],[13.240436293196348,52.515664794240756],[13.240444761906256,52.515663463597065],[13.240468551028336,52.51565973533613],[13.240500646460976,52.51565431435712],[13.24053256512308,52.51564852209886],[13.240575841944395,52.515640273281534],[13.24061879001456,52.51563139916269],[13.240661380231968,52.51562189031867],[13.240703567688541,52.51561176406469],[13.240745352382765,52.51560102040112],[13.240786704495218,52.51558966787635],[13.240827940904715,52.515578259669326],[13.240868616831918,52.51556612381375],[13.24090870173944,52.51555328682994],[13.240948166525886,52.5155397392946],[13.240964111137853,52.51553388925719],[13.240986965924693,52.5155255075092],[13.241025085205212,52.515510591255385],[13.241069768992201,52.51549220304584],[13.241113655171281,52.515473119626485],[13.241156713923592,52.515453349546156],[13.241198930159866,52.515432901572794],[13.24124025861436,52.51541180200815],[13.241274511619471,52.515392943977595],[13.241304304158977,52.51537543126504],[13.241307730276018,52.515373414200276],[13.241339898777808,52.515353239415916],[13.241368185931448,52.51533430167444],[13.241370972218922,52.515332436940476],[13.241400934793583,52.51531103351362],[13.241429726866931,52.515289046232404],[13.24145392744503,52.5152702095744],[13.241473798763144,52.51525386208633],[13.241477303499746,52.5152509830238],[13.241499839225645,52.51523139331995],[13.241521519893917,52.51521144024445],[13.241541209962469,52.51519224881179],[13.241560116111632,52.51517275800486],[13.241578208165736,52.51515298535808],[13.241595471037371,52.51513293963885]]]]}}]}
